IP,as,city,country,countryCode,isp,lat,lon,org,region,regionName,status,timezone,zip,message,asn,cont_code
63.243.216.22,AS6453 TATA COMMUNICATIONS (AMERICA) INC,New York,United States,US,TATA COMMUNICATIONS (AMERICA) INC,40.7414,-74.0032,Tata Communications Ltd,NY,New York,success,America/New_York,10011,,AS6453,NA
199.245.16.65,"AS2914 NTT America, Inc.",Chicago,United States,US,"NTT America, Inc.",41.8781,-87.6298,"NTT America, Inc.",IL,Illinois,success,America/Chicago,60666,,AS2914,NA
2001:470:0:410::2,AS6939 Hurricane Electric LLC,San Jose,United States,US,Hurricane Electric LLC,37.2414,-121.783,Hurricane Electric,CA,California,success,America/Los_Angeles,95119,,AS6939,NA
2001:418:0:2000::222,"AS2914 NTT America, Inc.",Frankfurt am Main,Germany,DE,"NTT America, Inc.",50.1109,8.68213,"NTT America, Inc.",HE,Hesse,success,Europe/Berlin,60313,,AS2914,EU
68.86.94.250,"AS7922 Comcast Cable Communications, LLC",Chicago,United States,US,"Comcast Cable Communications, LLC",41.8528,-87.6228,"Comcast Cable Communications, Inc.",IL,Illinois,success,America/Chicago,60616,,AS7922,NA
2001:470:0:1e4::2,AS6939 Hurricane Electric LLC,San Jose,United States,US,Hurricane Electric LLC,37.2414,-121.783,Hurricane Electric,CA,California,success,America/Los_Angeles,95119,,AS6939,NA
62.115.116.180,AS1299,Toronto,Canada,CA,Telia Company AB,43.6532,-79.3832,Telia Company AB,ON,Ontario,success,America/Toronto,M5H,,AS1299,NA
62.115.114.90,AS1299,Frankfurt am Main,Germany,DE,Telia Company AB,50.1109,8.68213,Telia Company AB,HE,Hesse,success,Europe/Berlin,60313,,AS1299,EU
45.79.12.2,"AS63949 Linode, LLC",Dallas,United States,US,"Linode, LLC",32.7787,-96.8217,Linode,TX,Texas,success,America/Chicago,75270,,AS63949,NA
96.110.38.129,"AS7922 Comcast Cable Communications, LLC",Ashburn,United States,US,"Comcast Cable Communications, LLC",39.0438,-77.4874,"Comcast IP Services, L.L.C.",VA,Virginia,success,America/New_York,20149,,AS7922,NA
129.250.3.50,"AS2914 NTT America, Inc.",Newark,United States,US,"NTT America, Inc.",40.7357,-74.1724,"NTT America, Inc.",NJ,New Jersey,success,America/New_York,07175,,AS2914,NA
192.80.17.177,"AS2914 NTT America, Inc.",Stockholm,Sweden,SE,"NTT America, Inc.",59.3293,18.0686,NTT America,AB,Stockholm,success,Europe/Stockholm,100 05,,AS2914,EU
2001:7f8:4::1b1b:1,AS7713 PT Telekomunikasi Indonesia,City of London,United Kingdom,GB,London Internet Exchange Ltd,51.5098,-0.08583500000000001,London Internet Exchange Ltd,ENG,England,success,Europe/London,EC3R 8AJ,,AS7713,EU
4.14.218.29,"AS3356 Level 3 Parent, LLC",Hoboken,United States,US,"Level 3 Communications, Inc.",40.7424,-74.0325,Level 3,NJ,New Jersey,success,America/New_York,07030,,AS3356,NA
4.69.219.206,"AS3356 Level 3 Parent, LLC",Seattle,United States,US,"Level 3 Communications, Inc.",47.6062,-122.332,"Level 3, LLC",WA,Washington,success,America/Los_Angeles,98111,,AS3356,NA
195.219.150.109,AS6453 TATA COMMUNICATIONS (AMERICA) INC,Amsterdam,Netherlands,NL,TATA Communications,52.3702,4.8951699999999985,,NH,North Holland,success,Europe/Amsterdam,1012,,AS6453,EU
80.231.80.5,AS6453 TATA COMMUNICATIONS (AMERICA) INC,Wrocław,Poland,PL,TATA Communications,51.1139,17.0269,,02,Lower Silesia,success,Europe/Warsaw,50-111,,AS6453,EU
2404:a800::93,AS9498 BHARTI Airtel Ltd.,New Delhi,India,IN,Bharti Airtel Limited,28.552,77.2695,BHARTI,DL,National Capital Territory of Delhi,success,Asia/Kolkata,110001,,AS9498,AS
4.69.203.173,"AS3356 Level 3 Parent, LLC",Washington,United States,US,"Level 3 Communications, Inc.",38.9072,-77.0369,"Level 3, LLC",DC,District of Columbia,success,America/New_York,20068,,AS3356,NA
4.68.62.234,"AS3356 Level 3 Parent, LLC",Broomfield,United States,US,"Level 3 Communications, Inc.",39.9241,-105.0639,"Level 3, LLC",CO,Colorado,success,America/Denver,80020,,AS3356,NA
62.115.112.244,AS1299,New York,United States,US,Telia Company AB,40.7128,-74.006,Telia Company AB,NY,New York,success,America/New_York,10123,,AS1299,NA
62.115.44.253,AS1299,London,United Kingdom,GB,Telia Company AB,51.5074,-0.12775799999999998,Telia Company AB,ENG,England,success,Europe/London,W1B,,AS1299,EU
152.179.72.41,"AS701 MCI Communications Services, Inc. d/b/a Verizon Business",New York,United States,US,Verizon Communications,40.7494,-73.9664,"ANS Communications, Inc",NY,New York,success,America/New_York,10017,,AS701,NA
184.104.192.214,AS6939 Hurricane Electric LLC,San Jose,United States,US,Hurricane Electric LLC,37.2415,-121.7834,Hurricane Electric,CA,California,success,America/Los_Angeles,95119,,AS6939,NA
68.85.204.118,"AS7922 Comcast Cable Communications, LLC",Moline,United States,US,"Comcast Cable Communications, LLC",41.5066,-90.5301,"Comcast Cable Communications, LLC",IL,Illinois,success,America/Chicago,61266,,AS7922,NA
71.225.104.129,"AS7922 Comcast Cable Communications, LLC",Wayne,United States,US,"Comcast Cable Communications, LLC",40.0574,-75.4017,"Comcast Cable Communications, Inc.",PA,Pennsylvania,success,America/New_York,19087,,AS7922,NA
68.86.86.225,"AS7922 Comcast Cable Communications, LLC",Chicago,United States,US,"Comcast Cable Communications, LLC",41.8528,-87.6228,"Comcast Cable Communications, Inc.",IL,Illinois,success,America/Chicago,60616,,AS7922,NA
2001:578:1:0:172:17:249:3,AS22773 Cox Communications Inc.,Atlanta,United States,US,Cox Communications Inc.,33.9149,-84.3446,Cox Communications Inc.,GA,Georgia,success,America/New_York,30319,,AS22773,NA
154.54.44.229,AS174 Cogent Communications,Dallas,United States,US,Cogent Communications,32.7767,-96.797,Cogent communications - IPENG,TX,Texas,success,America/Chicago,75270,,AS174,NA
213.254.230.162,AS3257 GTT Communications Inc.,Marbella,Spain,ES,Tinet SpA,36.5094,-4.8871400000000005,Web Costasol,AN,Andalusia,success,Europe/Madrid,29600,,AS3257,EU
2001:418:0:5000::bac,"AS2914 NTT America, Inc.",Chicago,United States,US,"NTT America, Inc.",41.8781,-87.6298,"NTT America, Inc.",IL,Illinois,success,America/Chicago,60666,,AS2914,NA
2604:a880:ffff:6:1::7,,New York,United States,US,DigitalOcean,40.7234,-74.0054,"DigitalOcean, LLC",NY,New York,success,America/New_York,10013,,,NA
138.197.244.237,,Toronto,Canada,CA,DigitalOcean,43.6644,-79.4195,"DigitalOcean, LLC",ON,Ontario,success,America/Toronto,M6G,,,NA
96.110.38.150,"AS7922 Comcast Cable Communications, LLC",Ashburn,United States,US,"Comcast Cable Communications, LLC",39.0438,-77.4874,"Comcast IP Services, L.L.C.",VA,Virginia,success,America/New_York,20149,,AS7922,NA
2001:506:100:5a::2,,Greenwood Village,United States,US,Spectrum,39.6004,-104.891,Charter Communications,CO,Colorado,success,America/Denver,80111,,,NA
2604:a880:ffff:b::19,,New York,United States,US,DigitalOcean,40.7234,-74.0054,"DigitalOcean, LLC",NY,New York,success,America/New_York,10013,,,NA
96.110.40.34,"AS7922 Comcast Cable Communications, LLC",Marietta,United States,US,"Comcast Cable Communications, LLC",33.9526,-84.5499,"Comcast IP Services, L.L.C.",GA,Georgia,success,America/New_York,30006,,AS7922,NA
62.115.122.159,AS1299,Ashburn,United States,US,Telia Company AB,39.0438,-77.4874,Telia Company AB,VA,Virginia,success,America/New_York,20149,,AS1299,NA
64.125.30.232,AS6461 Zayo Bandwidth,Chicago,United States,US,Zayo Bandwidth,41.8781,-87.6298,Zayo Bandwidth,IL,Illinois,success,America/Chicago,60666,,AS6461,NA
2604:a880:ffff:c::41,,New York,United States,US,DigitalOcean,40.7234,-74.0054,"DigitalOcean, LLC",NY,New York,success,America/New_York,10013,,,NA
2001:504:40:108::1:23,AS6461 Zayo Bandwidth,Miami,United States,US,Zayo Bandwidth,25.7617,-80.1918,Fl-ix Inc,FL,Florida,success,America/New_York,33102,,AS6461,NA
27.111.228.81,,Singapore,Singapore,SG,G-Core Labs,1.35208,103.82,G-Core Labs,,,success,Asia/Singapore,,,,AS
2604:a880:ffff:9::20d,,New York,United States,US,DigitalOcean,40.7234,-74.0054,"DigitalOcean, LLC",NY,New York,success,America/New_York,10013,,,NA
96.108.35.186,"AS7922 Comcast Cable Communications, LLC",Moline,United States,US,"Comcast Cable Communications, LLC",41.5066,-90.5301,"Comcast Cable Communications, LLC",IL,Illinois,success,America/Chicago,61266,,AS7922,NA
138.197.250.212,"AS14061 DigitalOcean, LLC",Toronto,Canada,CA,"DigitalOcean, LLC",43.6644,-79.4195,"DigitalOcean, LLC",ON,Ontario,success,America/Toronto,M6G,,AS14061,NA
96.110.32.177,"AS7922 Comcast Cable Communications, LLC",Ashburn,United States,US,"Comcast Cable Communications, LLC",39.0438,-77.4874,"Comcast IP Services, L.L.C.",VA,Virginia,success,America/New_York,20149,,AS7922,NA
154.54.30.166,AS174 Cogent Communications,Houston,United States,US,Cogent Communications,29.7604,-95.3698,Cogent communications - IPENG,TX,Texas,success,America/Chicago,77052,,AS174,NA
130.81.171.91,"AS701 MCI Communications Services, Inc. d/b/a Verizon Business",Philadelphia,United States,US,"MCI Communications Services, Inc. d/b/a Verizon Business",39.9523,-75.1638,Verizon Communications,PA,Pennsylvania,success,America/New_York,19099,,AS701,NA
96.87.8.29,"AS7922 Comcast Cable Communications, LLC",Huntsville,United States,US,"Comcast Cable Communications, LLC",34.7777,-86.5445,"Comcast Cable Communications, LLC",AL,Alabama,success,America/Chicago,35811,,AS7922,NA
96.110.163.122,"AS7922 Comcast Cable Communications, LLC",Elmhurst,United States,US,"Comcast Cable Communications, LLC",41.8995,-87.9403,"Comcast IP Services, L.L.C.",IL,Illinois,success,America/Chicago,60126,,AS7922,NA
138.197.250.206,"AS14061 DigitalOcean, LLC",Toronto,Canada,CA,"DigitalOcean, LLC",43.6644,-79.4195,"DigitalOcean, LLC",ON,Ontario,success,America/Toronto,M6G,,AS14061,NA
138.197.250.74,,Toronto,Canada,CA,DigitalOcean,43.6644,-79.4195,"DigitalOcean, LLC",ON,Ontario,success,America/Toronto,M6G,,,NA
192.205.32.225,"AS7018 AT&T Services, Inc.",Indianapolis,United States,US,"AT&T Services, Inc.",39.7709,-86.1584,"AT&T Services, Inc.",IN,Indiana,success,America/Indiana/Indianapolis,46204,,AS7018,NA
2604:a880:ffff:a::202,,New York,United States,US,DigitalOcean,40.7234,-74.0054,"DigitalOcean, LLC",NY,New York,success,America/New_York,10013,,,NA
140.222.235.81,,Purchase,United States,US,ANS CO+RE Systems,41.0267,-73.7155,"ANS CO+RE Systems, Inc.",NY,New York,success,America/New_York,10577,,,NA
62.115.148.45,AS1299,New York,United States,US,Telia Company AB,40.7128,-74.006,Telia Company AB,NY,New York,success,America/New_York,10123,,AS1299,NA
2001:506:100:11::2,,Greenwood Village,United States,US,Spectrum,39.6004,-104.891,Charter Communications,CO,Colorado,success,America/Denver,80111,,,NA
4.69.219.38,"AS3356 Level 3 Parent, LLC",Seattle,United States,US,"Level 3 Communications, Inc.",47.6062,-122.332,"Level 3, LLC",WA,Washington,success,America/Los_Angeles,98111,,AS3356,NA
64.125.29.211,AS6461 Zayo Bandwidth,New York,United States,US,Zayo Bandwidth,40.7128,-74.006,Zayo Bandwidth,NY,New York,success,America/New_York,10123,,AS6461,NA
2404:a800:1a00::13b,AS9498 BHARTI Airtel Ltd.,New Delhi,India,IN,Bharti Airtel Limited,28.552,77.2695,BHARTI,DL,National Capital Territory of Delhi,success,Asia/Kolkata,110001,,AS9498,AS
24.175.41.47,AS11427 Charter Communications Inc,Dallas,United States,US,Charter Communications Inc,32.7767,-96.797,Spectrum,TX,Texas,success,America/Chicago,75270,,AS11427,NA
2001:218:0:2000::199,"AS2914 NTT America, Inc.",Seattle,United States,US,"NTT America, Inc.",47.6062,-122.332,NTT Communications Corporation,WA,Washington,success,America/Los_Angeles,98111,,AS2914,NA
192.205.33.25,"AS7018 AT&T Services, Inc.",Indianapolis,United States,US,"AT&T Services, Inc.",39.7709,-86.1584,"AT&T Services, Inc.",IN,Indiana,success,America/Indiana/Indianapolis,46204,,AS7018,NA
2604:a880:ffff:6:1::429,,New York,United States,US,DigitalOcean,40.7234,-74.0054,"DigitalOcean, LLC",NY,New York,success,America/New_York,10013,,,NA
154.54.28.86,AS174 Cogent Communications,Houston,United States,US,Cogent Communications,29.7604,-95.3698,Cogent communications - IPENG,TX,Texas,success,America/Chicago,77052,,AS174,NA
82.112.96.237,"AS2914 NTT America, Inc.",Paris,France,FR,"NTT America, Inc.",48.8566,2.35222,"NTT Europe, Ltd.",IDF,Île-de-France,success,Europe/Paris,75000,,AS2914,EU
138.197.249.114,"AS14061 DigitalOcean, LLC",Toronto,Canada,CA,DigitalOcean,43.6644,-79.4195,"DigitalOcean, LLC",ON,Ontario,success,America/Toronto,M6G,,AS14061,NA
2001:418:0:2000::c9,"AS2914 NTT America, Inc.",Frankfurt am Main,Germany,DE,"NTT America, Inc.",50.1109,8.68213,"NTT America, Inc.",HE,Hesse,success,Europe/Berlin,60313,,AS2914,EU
67.83.246.10,AS6128 Cablevision Systems Corp.,Lyndhurst,United States,US,Cablevision Systems Corp.,40.812,-74.1243,Optimum Online,NJ,New Jersey,success,America/New_York,07071,,AS6128,NA
202.84.140.165,AS4637 Telstra Global,Wanchai,Hong Kong,HK,Telstra International Limited,22.2798,114.171,Telstra International Limited,HWC,Wan Chai,success,Asia/Hong_Kong,96521,,AS4637,AS
128.199.191.254,"AS14061 DigitalOcean, LLC",Singapore,Singapore,SG,"DigitalOcean, LLC",1.32123,103.695,Digital Ocean,,,success,Asia/Singapore,627753,,AS14061,AS
2001:506:100:f580::4,,Greenwood Village,United States,US,Spectrum,39.6004,-104.891,Charter Communications,CO,Colorado,success,America/Denver,80111,,,NA
2604:a880:ffff:a::221,,New York,United States,US,DigitalOcean,40.7234,-74.0054,"DigitalOcean, LLC",NY,New York,success,America/New_York,10013,,,NA
96.110.32.69,"AS7922 Comcast Cable Communications, LLC",Ashburn,United States,US,"Comcast Cable Communications, LLC",39.0438,-77.4874,"Comcast IP Services, L.L.C.",VA,Virginia,success,America/New_York,20149,,AS7922,NA
129.250.2.93,"AS2914 NTT America, Inc.",Singapore,Singapore,SG,"NTT America, Inc.",1.28009,103.851,"NTT America, Inc.",,,success,Asia/Singapore,,,AS2914,AS
2001:2000:3019:79::1,AS1299,Solna,Sweden,SE,Telia Company AB,59.3625,17.9989,Telia Company AB,AB,Stockholm,success,Europe/Stockholm,105 04,,AS1299,EU
2001:506:100:41a6::2,,Greenwood Village,United States,US,Spectrum,39.6004,-104.891,Charter Communications,CO,Colorado,success,America/Denver,80111,,,NA
2001:2000:3080:56f::2,AS1299,Solna,Sweden,SE,Telia Company AB,59.3625,17.9989,Telia Company AB,AB,Stockholm,success,Europe/Stockholm,105 04,,AS1299,EU
96.110.38.157,"AS7922 Comcast Cable Communications, LLC",Ashburn,United States,US,"Comcast Cable Communications, LLC",39.0438,-77.4874,"Comcast IP Services, L.L.C.",VA,Virginia,success,America/New_York,20149,,AS7922,NA
64.125.28.215,AS6461 Zayo Bandwidth,San Jose,United States,US,Zayo Bandwidth,37.3382,-121.886,Zayo Bandwidth,CA,California,success,America/Los_Angeles,95141,,AS6461,NA
2001:506:100:219::2,,Greenwood Village,United States,US,Spectrum,39.6004,-104.891,Charter Communications,CO,Colorado,success,America/Denver,80111,,,NA
2604:a880:ffff:0:1::95,,New York,United States,US,DigitalOcean,40.7234,-74.0054,"DigitalOcean, LLC",NY,New York,success,America/New_York,10013,,,NA
2604:a880:ffff:a::211,,New York,United States,US,DigitalOcean,40.7234,-74.0054,"DigitalOcean, LLC",NY,New York,success,America/New_York,10013,,,NA
2001:7f8:54::10,AS7713 PT Telekomunikasi Indonesia,Paris,France,FR,FranceIX,48.8607,2.3281,France IX Services SASU,IDF,Île-de-France,success,Europe/Paris,75001,,AS7713,EU
4.68.62.62,"AS3356 Level 3 Parent, LLC",Broomfield,United States,US,"Level 3 Communications, Inc.",39.9241,-105.0639,"Level 3, LLC",CO,Colorado,success,America/Denver,80020,,AS3356,NA
80.231.152.25,AS6453 TATA COMMUNICATIONS (AMERICA) INC,Oeiras,Portugal,PT,TATA Communications,38.691,-9.3108,Tata Communications Ltd.,11,Lisbon,success,Europe/Lisbon,2780-000,,AS6453,EU
138.197.245.12,,Toronto,Canada,CA,DigitalOcean,43.6644,-79.4195,"DigitalOcean, LLC",ON,Ontario,success,America/Toronto,M6G,,,NA
138.197.249.217,,Toronto,Canada,CA,DigitalOcean,43.6644,-79.4195,"DigitalOcean, LLC",ON,Ontario,success,America/Toronto,M6G,,,NA
138.197.250.114,"AS14061 DigitalOcean, LLC",Toronto,Canada,CA,"DigitalOcean, LLC",43.6644,-79.4195,"DigitalOcean, LLC",ON,Ontario,success,America/Toronto,M6G,,AS14061,NA
129.250.6.117,"AS2914 NTT America, Inc.",Newark,United States,US,"NTT America, Inc.",40.7357,-74.1724,"NTT America, Inc.",NJ,New Jersey,success,America/New_York,07175,,AS2914,NA
152.179.120.229,"AS701 MCI Communications Services, Inc. d/b/a Verizon Business",Jamaica,United States,US,Verizon Communications,40.68,-73.775,"ANS Communications, Inc",NY,New York,success,America/New_York,11434,,AS701,NA
138.197.250.92,,Toronto,Canada,CA,DigitalOcean,43.6644,-79.4195,"DigitalOcean, LLC",ON,Ontario,success,America/Toronto,M6G,,,NA
2001:418:16::128,"AS2914 NTT America, Inc.",Chicago,United States,US,"NTT America, Inc.",41.8781,-87.6298,"NTT America, Inc.",IL,Illinois,success,America/Chicago,60666,,AS2914,NA
173.205.61.209,AS3257 GTT Communications Inc.,Paris,France,FR,PacketExchange,48.8566,2.35222,Tinet GmbH,IDF,Île-de-France,success,Europe/Paris,75000,,AS3257,EU
154.54.41.65,AS174 Cogent Communications,Dallas,United States,US,Cogent Communications,32.7767,-96.797,Cogent communications - IPENG,TX,Texas,success,America/Chicago,75270,,AS174,NA
96.110.34.237,"AS7922 Comcast Cable Communications, LLC",Newark,United States,US,"Comcast Cable Communications, LLC",40.7357,-74.1724,"Comcast IP Services, L.L.C.",NJ,New Jersey,success,America/New_York,07175,,AS7922,NA
2400:8902:7::1,"AS63949 Linode, LLC",Tokyo,Japan,JP,"Linode, LLC",35.6882,139.7532,LINODE,13,Tokyo,success,Asia/Tokyo,102-0082,,AS63949,AS
80.91.254.14,AS1299,London,United Kingdom,GB,Telia Company AB,51.5074,-0.12775799999999998,TeliaSonera AB,ENG,England,success,Europe/London,W1B,,AS1299,EU
180.87.39.25,AS6453 TATA COMMUNICATIONS (AMERICA) INC,Mumbai,India,IN,TATA Communications,19.076,72.8777,,MH,Maharashtra,success,Asia/Kolkata,400001,,AS6453,AS
62.115.120.112,AS1299,Atlanta,United States,US,Telia Company AB,33.749,-84.38799999999998,Telia Company AB,GA,Georgia,success,America/New_York,30302,,AS1299,NA
183.182.80.169,AS3257 GTT Communications Inc.,Wanchai,Hong Kong,HK,GTT Communications,22.2588,114.191,Tinet Hong Kong limited,HWC,Wan Chai,success,Asia/Hong_Kong,96521,,AS3257,AS
62.115.120.176,AS1299,Ashburn,United States,US,Telia Company AB,39.0438,-77.4874,Telia Company AB,VA,Virginia,success,America/New_York,20149,,AS1299,NA
138.197.244.24,,Toronto,Canada,CA,DigitalOcean,43.6644,-79.4195,"DigitalOcean, LLC",ON,Ontario,success,America/Toronto,M6G,,,NA
96.110.32.206,"AS7922 Comcast Cable Communications, LLC",Ashburn,United States,US,"Comcast Cable Communications, LLC",39.0438,-77.4874,"Comcast IP Services, L.L.C.",VA,Virginia,success,America/New_York,20149,,AS7922,NA
213.248.81.74,AS1299,Amsterdam,Netherlands,NL,Telia Company AB,52.3702,4.8951699999999985,Telia Company AB,NH,North Holland,success,Europe/Amsterdam,1012,,AS1299,EU
2001:2000:3080:11e5::1,AS1299,Solna,Sweden,SE,Telia Company AB,59.3625,17.9989,Telia Company AB,AB,Stockholm,success,Europe/Stockholm,105 04,,AS1299,EU
138.197.244.40,,Toronto,Canada,CA,DigitalOcean,43.6644,-79.4195,"DigitalOcean, LLC",ON,Ontario,success,America/Toronto,M6G,,,NA
2001:578:20:6000::1d,AS22773 Cox Communications Inc.,Atlanta,United States,US,Cox Communications Inc.,33.9149,-84.3446,Cox Communications Inc,GA,Georgia,success,America/New_York,30319,,AS22773,NA
2001:2000:3080:1ac5::1,AS1299,Solna,Sweden,SE,Telia Company AB,59.3625,17.9989,Telia Company AB,AB,Stockholm,success,Europe/Stockholm,105 04,,AS1299,EU
66.110.48.2,AS6453 TATA COMMUNICATIONS (AMERICA) INC,Old Toronto,Canada,CA,TATA COMMUNICATIONS (AMERICA) INC,43.6446,-79.3842,TATA communications,ON,Ontario,success,America/Toronto,M5J-2N1,,AS6453,NA
182.79.224.124,AS9498 BHARTI Airtel Ltd.,New Delhi,India,IN,Bharti Airtel Limited,28.6139,77.209,Bharti Airtel,DL,National Capital Territory of Delhi,success,Asia/Kolkata,110001,,AS9498,AS
10.78.4.2,,,,,,,,,,,fail,,,private range,,AF
138.197.244.30,,Toronto,Canada,CA,DigitalOcean,43.6644,-79.4195,"DigitalOcean, LLC",ON,Ontario,success,America/Toronto,M6G,,,NA
213.155.130.28,AS1299,Amsterdam,Netherlands,NL,Telia Company AB,52.3702,4.8951699999999985,TeliaSonera AB,NH,North Holland,success,Europe/Amsterdam,1012,,AS1299,EU
206.108.35.76,AS7713 PT Telekomunikasi Indonesia,Old Toronto,Canada,CA,Telekomunikasi Indonesia,43.6493,-79.3912,Toronto Internet Exchange Community,ON,Ontario,success,America/Toronto,M5V-3E3,,AS7713,NA
138.197.249.122,"AS14061 DigitalOcean, LLC",Toronto,Canada,CA,DigitalOcean,43.6644,-79.4195,"DigitalOcean, LLC",ON,Ontario,success,America/Toronto,M6G,,AS14061,NA
96.34.112.181,,Keller,United States,US,Spectrum,32.9342,-97.2293,Charter Communications,TX,Texas,success,America/Chicago,76248,,,NA
62.115.117.229,AS1299,Toronto,Canada,CA,Telia Company AB,43.6532,-79.3832,Telia Company AB,ON,Ontario,success,America/Toronto,M5H,,AS1299,NA
138.197.250.208,"AS14061 DigitalOcean, LLC",Toronto,Canada,CA,"DigitalOcean, LLC",43.6644,-79.4195,"DigitalOcean, LLC",ON,Ontario,success,America/Toronto,M6G,,AS14061,NA
96.110.40.62,"AS7922 Comcast Cable Communications, LLC",Marietta,United States,US,"Comcast Cable Communications, LLC",33.9526,-84.5499,"Comcast IP Services, L.L.C.",GA,Georgia,success,America/New_York,30006,,AS7922,NA
129.250.207.173,"AS2914 NTT America, Inc.",Miami,United States,US,"NTT America, Inc.",25.7617,-80.1918,"NTT America, Inc.",FL,Florida,success,America/New_York,33102,,AS2914,NA
2001:2000:3018:112::1,AS1299,Solna,Sweden,SE,Telia Company AB,59.3625,17.9989,Telia Company AB,AB,Stockholm,success,Europe/Stockholm,105 04,,AS1299,EU
2001:418:0:2000::331,"AS2914 NTT America, Inc.",Frankfurt am Main,Germany,DE,"NTT America, Inc.",50.1109,8.68213,"NTT America, Inc.",HE,Hesse,success,Europe/Berlin,60313,,AS2914,EU
2001:418:0:2000::9d,"AS2914 NTT America, Inc.",Frankfurt am Main,Germany,DE,"NTT America, Inc.",50.1109,8.68213,"NTT America, Inc.",HE,Hesse,success,Europe/Berlin,60313,,AS2914,EU
2001:470:0:277::1,AS6939 Hurricane Electric LLC,San Jose,United States,US,Hurricane Electric LLC,37.2414,-121.783,Hurricane Electric,CA,California,success,America/Los_Angeles,95119,,AS6939,NA
2a03:b0c0:2:d0:ffff:ffff:,,,,,,,,,,,fail,,,invalid query,,AF
2001:418:0:5000::ba0,"AS2914 NTT America, Inc.",Chicago,United States,US,"NTT America, Inc.",41.8781,-87.6298,"NTT America, Inc.",IL,Illinois,success,America/Chicago,60666,,AS2914,NA
49.255.255.12,AS4826 Vocus Connect International Backbone,San Jose,United States,US,Vocus PTY LTD,37.3388,-121.8914,Vocus PTY LTD,CA,California,success,America/Los_Angeles,95141,,AS4826,NA
66.110.96.142,AS6453 TATA COMMUNICATIONS (AMERICA) INC,New York,United States,US,TATA COMMUNICATIONS (AMERICA) INC,40.7308,-73.9975,Tata Communications,NY,New York,success,America/New_York,10011,,AS6453,NA
2001:506:100:8::2,,Greenwood Village,United States,US,Spectrum,39.6004,-104.891,Charter Communications,CO,Colorado,success,America/Denver,80111,,,NA
2001:218:0:2000::14d,"AS2914 NTT America, Inc.",Seattle,United States,US,"NTT America, Inc.",47.6062,-122.332,NTT Communications Corporation,WA,Washington,success,America/Los_Angeles,98111,,AS2914,NA
154.54.30.174,AS174 Cogent Communications,Houston,United States,US,Cogent Communications,29.7604,-95.3698,Cogent communications - IPENG,TX,Texas,success,America/Chicago,77052,,AS174,NA
62.115.45.9,AS1299,New York,United States,US,Telia Company AB,40.7128,-74.006,Telia Company AB,NY,New York,success,America/New_York,10123,,AS1299,NA
2001:506:100:f580::5,,Greenwood Village,United States,US,Spectrum,39.6004,-104.891,Charter Communications,CO,Colorado,success,America/Denver,80111,,,NA
62.115.162.232,AS1299,London,United Kingdom,GB,Telia Company AB,51.5074,-0.12775799999999998,Telia Company AB,ENG,England,success,Europe/London,W1B,,AS1299,EU
62.115.156.205,AS1299,Chicago,United States,US,Telia Company AB,41.8781,-87.6298,Telia Company AB,IL,Illinois,success,America/Chicago,60666,,AS1299,NA
96.110.34.229,"AS7922 Comcast Cable Communications, LLC",Newark,United States,US,"Comcast Cable Communications, LLC",40.7357,-74.1724,"Comcast IP Services, L.L.C.",NJ,New Jersey,success,America/New_York,07175,,AS7922,NA
2404:a800:3a00::b9,AS9498 BHARTI Airtel Ltd.,New Delhi,India,IN,Bharti Airtel Limited,28.552,77.2695,BHARTI,DL,National Capital Territory of Delhi,success,Asia/Kolkata,110001,,AS9498,AS
173.205.61.213,AS3257 GTT Communications Inc.,Paris,France,FR,PacketExchange,48.8566,2.35222,Tinet GmbH,IDF,Île-de-France,success,Europe/Paris,75000,,AS3257,EU
129.250.6.116,"AS2914 NTT America, Inc.",Ashburn,United States,US,"NTT America, Inc.",39.0438,-77.4874,"NTT America, Inc.",VA,Virginia,success,America/New_York,20149,,AS2914,NA
116.119.44.113,AS9498 BHARTI Airtel Ltd.,Gurgaon,India,IN,Bharti Airtel Limited,28.4969,77.0813,Bhartitelesonic,HR,Haryana,success,Asia/Kolkata,122001,,AS9498,AS
2604:a880:ffff:4:1::34,,New York,United States,US,DigitalOcean,40.7234,-74.0054,"DigitalOcean, LLC",NY,New York,success,America/New_York,10013,,,NA
96.110.36.17,"AS7922 Comcast Cable Communications, LLC",Newark,United States,US,"Comcast Cable Communications, LLC",40.7357,-74.1724,"Comcast IP Services, L.L.C.",NJ,New Jersey,success,America/New_York,07175,,AS7922,NA
62.115.134.134,AS1299,London,United Kingdom,GB,Telia Company AB,51.5074,-0.12775799999999998,Telia Company AB,ENG,England,success,Europe/London,W1B,,AS1299,EU
96.34.154.2,,San Jose,United States,US,Spectrum,37.3394,-121.895,Charter Communications,CA,California,success,America/Los_Angeles,95141,,,NA
62.115.114.88,AS1299,Frankfurt am Main,Germany,DE,Telia Company AB,50.1109,8.68213,Telia Company AB,HE,Hesse,success,Europe/Berlin,60313,,AS1299,EU
140.222.236.83,,Purchase,United States,US,ANS CO+RE Systems,41.0267,-73.7155,"ANS CO+RE Systems, Inc.",NY,New York,success,America/New_York,10577,,,NA
96.110.39.158,"AS7922 Comcast Cable Communications, LLC",Marietta,United States,US,"Comcast Cable Communications, LLC",33.9526,-84.5499,"Comcast IP Services, L.L.C.",GA,Georgia,success,America/New_York,30006,,AS7922,NA
12.123.240.73,"AS7018 AT&T Services, Inc.",New York,United States,US,AT&T Services,40.7128,-74.006,AT&T Worldnet Services,NY,New York,success,America/New_York,10123,,AS7018,NA
129.250.9.250,"AS2914 NTT America, Inc.",San Jose,United States,US,"NTT America, Inc.",37.3382,-121.886,"NTT America, Inc.",CA,California,success,America/Los_Angeles,95141,,AS2914,NA
4.69.220.22,"AS3356 Level 3 Parent, LLC",New York,United States,US,"Level 3 Communications, Inc.",40.7128,-74.006,"Level 3, LLC",NY,New York,success,America/New_York,10123,,AS3356,NA
108.61.249.33,"AS20473 Choopa, LLC",Miami,United States,US,Choopa,25.8119,-80.2318,"Vultr Holdings, LLC",FL,Florida,success,America/New_York,33142,,AS20473,NA
129.250.3.166,"AS2914 NTT America, Inc.",Miami,United States,US,"NTT America, Inc.",25.7617,-80.1918,"NTT America, Inc.",FL,Florida,success,America/New_York,33102,,AS2914,NA
139.162.64.12,"AS63949 Linode, LLC",Tokyo,Japan,JP,"Linode, LLC",35.6882,139.7532,"Linode, LLC",13,Tokyo,success,Asia/Tokyo,102-0082,,AS63949,AS
140.222.231.17,,Purchase,United States,US,ANS CO+RE Systems,41.0267,-73.7155,"ANS CO+RE Systems, Inc.",NY,New York,success,America/New_York,10577,,,NA
138.197.245.6,,Toronto,Canada,CA,DigitalOcean,43.6644,-79.4195,"DigitalOcean, LLC",ON,Ontario,success,America/Toronto,M6G,,,NA
2001:218:0:2000::159,"AS2914 NTT America, Inc.",Seattle,United States,US,"NTT America, Inc.",47.6062,-122.332,NTT Communications Corporation,WA,Washington,success,America/Los_Angeles,98111,,AS2914,NA
2001:2000:3019:b8::1,AS1299,Solna,Sweden,SE,Telia Company AB,59.3625,17.9989,Telia Company AB,AB,Stockholm,success,Europe/Stockholm,105 04,,AS1299,EU
2001:504:0:5:0:2:115:1,AS7713 PT Telekomunikasi Indonesia,Redwood Shores,United States,US,Telekomunikasi Indonesia,37.5272,-122.261,"Equinix, Inc",CA,California,success,America/Los_Angeles,94065,,AS7713,NA
2001:470:0:1d9::2,AS6939 Hurricane Electric LLC,San Jose,United States,US,Hurricane Electric LLC,37.2414,-121.783,Hurricane Electric,CA,California,success,America/Los_Angeles,95119,,AS6939,NA
2001:578:2200:6::24,AS22773 Cox Communications Inc.,Ashburn,United States,US,Cox Communications Inc.,39.0438,-77.4874,Cox Communications Inc,VA,Virginia,success,America/New_York,20149,,AS22773,NA
138.197.244.231,,Toronto,Canada,CA,DigitalOcean,43.6644,-79.4195,"DigitalOcean, LLC",ON,Ontario,success,America/Toronto,M6G,,,NA
4.16.180.189,"AS3356 Level 3 Parent, LLC",Lake Worth,United States,US,"Level 3 Communications, Inc.",26.5991,-80.1284,Level 3,FL,Florida,success,America/New_York,33463,,AS3356,NA
2604:a880:ffff:6:1::41a,,New York,United States,US,DigitalOcean,40.7234,-74.0054,"DigitalOcean, LLC",NY,New York,success,America/New_York,10013,,,NA
64.125.31.12,AS6461 Zayo Bandwidth,San Jose,United States,US,Zayo Bandwidth,37.3382,-121.886,Zayo Bandwidth,CA,California,success,America/Los_Angeles,95141,,AS6461,NA
138.197.250.104,"AS14061 DigitalOcean, LLC",Toronto,Canada,CA,"DigitalOcean, LLC",43.6644,-79.4195,"DigitalOcean, LLC",ON,Ontario,success,America/Toronto,M6G,,AS14061,NA
2001:418:0:2000::79,"AS2914 NTT America, Inc.",Frankfurt am Main,Germany,DE,"NTT America, Inc.",50.1109,8.68213,"NTT America, Inc.",HE,Hesse,success,Europe/Berlin,60313,,AS2914,EU
2001:506:100:319::1,,Greenwood Village,United States,US,Spectrum,39.6004,-104.891,Charter Communications,CO,Colorado,success,America/Denver,80111,,,NA
129.250.3.101,"AS2914 NTT America, Inc.",Singapore,Singapore,SG,"NTT America, Inc.",1.28009,103.851,"NTT America, Inc.",,,success,Asia/Singapore,,,AS2914,AS
138.197.245.4,,Toronto,Canada,CA,DigitalOcean,43.6644,-79.4195,"DigitalOcean, LLC",ON,Ontario,success,America/Toronto,M6G,,,NA
134.209.160.253,"AS14061 DigitalOcean, LLC",Clifton,United States,US,"DigitalOcean, LLC",40.8364,-74.1403,"DigitalOcean, LLC",NJ,New Jersey,success,America/New_York,07014,,AS14061,NA
68.85.158.50,"AS7922 Comcast Cable Communications, LLC",Ivyland,United States,US,"Comcast Cable Communications, LLC",40.2079,-75.0727,"Comcast Cable Communications, LLC",PA,Pennsylvania,success,America/New_York,18974,,AS7922,NA
66.109.5.224,AS7843 Charter Communications Inc,Vienna,United States,US,Spectrum,38.9012,-77.2653,Time Warner Cable Internet LLC,VA,Virginia,success,America/New_York,22180,,AS7843,NA
24.58.241.198,AS11351 Charter Communications Inc,Potsdam,United States,US,Charter Communications Inc,44.6698,-74.9813,Spectrum,NY,New York,success,America/New_York,13699,,AS11351,NA
213.254.230.165,AS3257 GTT Communications Inc.,Marbella,Spain,ES,Tinet SpA,36.5094,-4.8871400000000005,Web Costasol,AN,Andalusia,success,Europe/Madrid,29600,,AS3257,EU
2001:5a0:2300:200::5,AS6453 TATA COMMUNICATIONS (AMERICA) INC,Mumbai,India,IN,TATA COMMUNICATIONS (AMERICA) INC,19.021,72.8304,TATA Communications Ltd,MH,Maharashtra,success,Asia/Kolkata,400001,,AS6453,AS
138.197.245.2,,Toronto,Canada,CA,DigitalOcean,43.6644,-79.4195,"DigitalOcean, LLC",ON,Ontario,success,America/Toronto,M6G,,,NA
138.197.250.80,,Toronto,Canada,CA,DigitalOcean,43.6644,-79.4195,"DigitalOcean, LLC",ON,Ontario,success,America/Toronto,M6G,,,NA
2604:a880:ffff:6:1::42f,,New York,United States,US,DigitalOcean,40.7234,-74.0054,"DigitalOcean, LLC",NY,New York,success,America/New_York,10013,,,NA
2001:218:0:2000::86,"AS2914 NTT America, Inc.",Seattle,United States,US,"NTT America, Inc.",47.6062,-122.332,NTT Communications Corporation,WA,Washington,success,America/Los_Angeles,98111,,AS2914,NA
62.115.180.83,AS1299,Dallas,United States,US,Telia Company AB,32.7767,-96.797,Telia Company AB,TX,Texas,success,America/Chicago,75270,,AS1299,NA
96.110.38.154,"AS7922 Comcast Cable Communications, LLC",Ashburn,United States,US,"Comcast Cable Communications, LLC",39.0438,-77.4874,"Comcast IP Services, L.L.C.",VA,Virginia,success,America/New_York,20149,,AS7922,NA
139.162.65.3,"AS63949 Linode, LLC",Tokyo,Japan,JP,"Linode, LLC",35.6882,139.7532,"Linode, LLC",13,Tokyo,success,Asia/Tokyo,102-0082,,AS63949,AS
154.24.45.58,AS174 Cogent Communications,Washington,United States,US,Cogent Communications,38.907,-77.0526,"PSINet, Inc.",DC,District of Columbia,success,America/New_York,20418,,AS174,NA
64.125.29.208,AS6461 Zayo Bandwidth,New York,United States,US,Zayo Bandwidth,40.7128,-74.006,Zayo Bandwidth,NY,New York,success,America/New_York,10123,,AS6461,NA
2001:470:0:2db::1,AS6939 Hurricane Electric LLC,San Jose,United States,US,Hurricane Electric LLC,37.2414,-121.783,Hurricane Electric,CA,California,success,America/Los_Angeles,95119,,AS6939,NA
138.68.33.15,"AS14061 DigitalOcean, LLC",San Jose,United States,US,"DigitalOcean, LLC",37.2329,-121.7875,"DigitalOcean, LLC",CA,California,success,America/Los_Angeles,95119,,AS14061,NA
2001:2000:3018:e0::1,AS1299,Solna,Sweden,SE,Telia Company AB,59.3625,17.9989,Telia Company AB,AB,Stockholm,success,Europe/Stockholm,105 04,,AS1299,EU
2001:506:100:313::1,,Greenwood Village,United States,US,Spectrum,39.6004,-104.891,Charter Communications,CO,Colorado,success,America/Denver,80111,,,NA
4.69.219.30,"AS3356 Level 3 Parent, LLC",Seattle,United States,US,"Level 3 Communications, Inc.",47.6062,-122.332,"Level 3, LLC",WA,Washington,success,America/Los_Angeles,98111,,AS3356,NA
139.162.64.16,"AS63949 Linode, LLC",Tokyo,Japan,JP,"Linode, LLC",35.6882,139.7532,"Linode, LLC",13,Tokyo,success,Asia/Tokyo,102-0082,,AS63949,AS
45.79.12.201,"AS63949 Linode, LLC",Dallas,United States,US,"Linode, LLC",32.7787,-96.8217,Linode,TX,Texas,success,America/Chicago,75270,,AS63949,NA
2604:a880:800:c1:ffff:fff,,,,,,,,,,,fail,,,invalid query,,AF
107.14.19.36,AS7843 Charter Communications Inc,Englewood,United States,US,Charter Communications Inc,39.6514,-104.9926,Spectrum,CO,Colorado,success,America/Denver,80150,,AS7843,NA
96.110.38.57,"AS7922 Comcast Cable Communications, LLC",Ashburn,United States,US,"Comcast Cable Communications, LLC",39.0438,-77.4874,"Comcast IP Services, L.L.C.",VA,Virginia,success,America/New_York,20149,,AS7922,NA
24.58.241.194,AS11351 Charter Communications Inc,Potsdam,United States,US,Charter Communications Inc,44.6698,-74.9813,Spectrum,NY,New York,success,America/New_York,13699,,AS11351,NA
2001:418:0:5000::101d,"AS2914 NTT America, Inc.",Chicago,United States,US,"NTT America, Inc.",41.8781,-87.6298,"NTT America, Inc.",IL,Illinois,success,America/Chicago,60666,,AS2914,NA
138.197.251.136,,Toronto,Canada,CA,DigitalOcean,43.6644,-79.4195,"DigitalOcean, LLC",ON,Ontario,success,America/Toronto,M6G,,,NA
96.110.34.177,"AS7922 Comcast Cable Communications, LLC",Newark,United States,US,"Comcast Cable Communications, LLC",40.7357,-74.1724,"Comcast IP Services, L.L.C.",NJ,New Jersey,success,America/New_York,07175,,AS7922,NA
96.34.2.33,,Ashburn,United States,US,Spectrum,39.0481,-77.4728,Charter Communications,VA,Virginia,success,America/New_York,20149,,,NA
2400:8902::4255:39ff:fe08,"AS63949 Linode, LLC",Tokyo,Japan,JP,"Linode, LLC",35.6882,139.7532,LINODE,13,Tokyo,success,Asia/Tokyo,102-0082,,AS63949,AS
96.110.35.61,"AS7922 Comcast Cable Communications, LLC",Chicago,United States,US,"Comcast Cable Communications, LLC",41.8528,-87.6228,"Comcast IP Services, L.L.C.",IL,Illinois,success,America/Chicago,60616,,AS7922,NA
119.27.49.113,AS17819 Equinix Asia Pacific,Chuo,Japan,JP,Equinix Asia Pacific Pte Ltd,35.68199999999999,139.774,Equinix Asia Pacific Pte Ltd,13,Tokyo,success,Asia/Tokyo,289-2614,,AS17819,AS
2001:2000:3018:99::1,AS1299,Solna,Sweden,SE,Telia Company AB,59.3625,17.9989,Telia Company AB,AB,Stockholm,success,Europe/Stockholm,105 04,,AS1299,EU
96.110.36.101,"AS7922 Comcast Cable Communications, LLC",Newark,United States,US,"Comcast Cable Communications, LLC",40.7357,-74.1724,"Comcast IP Services, L.L.C.",NJ,New Jersey,success,America/New_York,07175,,AS7922,NA
46.101.0.253,"AS14061 DigitalOcean, LLC",London,United Kingdom,GB,"DigitalOcean, LLC",51.5353,-0.6658,Digital Ocean,ENG,England,success,Europe/London,SL1,,AS14061,EU
96.108.35.194,"AS7922 Comcast Cable Communications, LLC",Moline,United States,US,"Comcast Cable Communications, LLC",41.5066,-90.5301,"Comcast Cable Communications, LLC",IL,Illinois,success,America/Chicago,61266,,AS7922,NA
4.68.74.210,"AS3356 Level 3 Parent, LLC",Newark,United States,US,"Level 3 Communications, Inc.",40.7357,-74.1724,"Level 3, LLC",NJ,New Jersey,success,America/New_York,07175,,AS3356,NA
68.86.88.17,"AS7922 Comcast Cable Communications, LLC",Chicago,United States,US,"Comcast Cable Communications, LLC",41.8528,-87.6228,"Comcast Cable Communications, Inc.",IL,Illinois,success,America/Chicago,60616,,AS7922,NA
100.8.126.93,"AS701 MCI Communications Services, Inc. d/b/a Verizon Business",Summit,United States,US,"MCI Communications Services, Inc. d/b/a Verizon Business",40.7158,-74.359,Verizon Online LLC,NJ,New Jersey,success,America/New_York,07901,,AS701,NA
62.115.116.16,AS1299,Frankfurt am Main,Germany,DE,Telia Company AB,50.1109,8.68213,Telia Company AB,HE,Hesse,success,Europe/Berlin,60313,,AS1299,EU
129.250.5.12,"AS2914 NTT America, Inc.",Dallas,United States,US,"NTT America, Inc.",32.7767,-96.797,"NTT America, Inc.",TX,Texas,success,America/Chicago,75270,,AS2914,NA
138.197.249.82,,Toronto,Canada,CA,DigitalOcean,43.6644,-79.4195,"DigitalOcean, LLC",ON,Ontario,success,America/Toronto,M6G,,,NA
2600:3c00::e6c7:22ff:fe10,"AS63949 Linode, LLC",Dallas,United States,US,"Linode, LLC",32.7767,-96.797,Linode,TX,Texas,success,America/Chicago,75270,,AS63949,NA
fd00:0:2::9f,,,,,,,,,,,fail,,,private range,,AF
2001:578:20:a000::5,AS22773 Cox Communications Inc.,Atlanta,United States,US,Cox Communications Inc.,33.9149,-84.3446,Cox Communications Inc,GA,Georgia,success,America/New_York,30319,,AS22773,NA
24.175.42.103,AS11427 Charter Communications Inc,Austin,United States,US,Charter Communications Inc,30.2672,-97.7431,Spectrum,TX,Texas,success,America/Chicago,78713,,AS11427,NA
129.250.5.78,"AS2914 NTT America, Inc.",San Jose,United States,US,"NTT America, Inc.",37.3382,-121.886,"NTT America, Inc.",CA,California,success,America/Los_Angeles,95141,,AS2914,NA
182.79.134.227,AS9498 BHARTI Airtel Ltd.,Jammu,India,IN,Bharti Airtel Limited,32.705,74.8729,Bharti Airtel Limited,JK,Jammu and Kashmir,success,Asia/Kolkata,180003,,AS9498,AS
62.115.136.201,AS1299,Ashburn,United States,US,Telia Company AB,39.0438,-77.4874,Telia Company AB,VA,Virginia,success,America/New_York,20149,,AS1299,NA
96.110.38.149,"AS7922 Comcast Cable Communications, LLC",Ashburn,United States,US,"Comcast Cable Communications, LLC",39.0438,-77.4874,"Comcast IP Services, L.L.C.",VA,Virginia,success,America/New_York,20149,,AS7922,NA
68.85.204.34,"AS7922 Comcast Cable Communications, LLC",Moline,United States,US,"Comcast Cable Communications, LLC",41.5066,-90.5301,"Comcast Cable Communications, LLC",IL,Illinois,success,America/Chicago,61266,,AS7922,NA
210.176.138.134,AS4637 Telstra Global,Singapore,Singapore,SG,Telstra International Limited,1.35208,103.82,Telstra Digitalocean,,,success,Asia/Singapore,,,AS4637,AS
180.87.39.21,AS6453 TATA COMMUNICATIONS (AMERICA) INC,Mumbai,India,IN,TATA Communications,19.076,72.8777,,MH,Maharashtra,success,Asia/Kolkata,400001,,AS6453,AS
2001:19f0:6800:100::1,"AS20473 Choopa, LLC",Aubervilliers,France,FR,Choopa,48.9067,2.36939,"Vultr Holdings, LLC",IDF,Île-de-France,success,Europe/Paris,93300,,AS20473,EU
96.34.113.149,,Fort Worth,United States,US,Spectrum,32.7555,-97.3308,Charter Communications,TX,Texas,success,America/Chicago,76195,,,NA
129.250.3.97,"AS2914 NTT America, Inc.",Dallas,United States,US,"NTT America, Inc.",32.7767,-96.797,"NTT America, Inc.",TX,Texas,success,America/Chicago,75270,,AS2914,NA
80.249.209.150,AS1200 Amsterdam Internet Exchange B.V.,Amsterdam,Netherlands,NL,AMS-IX Amsterdam Peering (ISP) LAN,52.3563,4.9508,,NH,North Holland,success,Europe/Amsterdam,1098 XG,,AS1200,EU
2001:19f0:8000::a42:25,"AS20473 Choopa, LLC",New York,United States,US,"Choopa, LLC",40.7128,-74.0059,"Choopa, LLC",NY,New York,success,America/New_York,10123,,AS20473,NA
219.65.110.189,AS4755 TATA Communications formerly VSNL is Leading ISP,Bengaluru,India,IN,TATACOMM,12.9721,77.5933,,KA,Karnataka,success,Asia/Kolkata,560002,,AS4755,AS
208.116.217.26,AS3257 GTT Communications Inc.,Chicago,United States,US,GTT Communications Inc.,41.8781,-87.6298,GTT,IL,Illinois,success,America/Chicago,60666,,AS3257,NA
129.250.6.96,"AS2914 NTT America, Inc.",Newark,United States,US,"NTT America, Inc.",40.7357,-74.1724,"NTT America, Inc.",NJ,New Jersey,success,America/New_York,07175,,AS2914,NA
2a03:b0c0:1:d0:ffff:ffff:,,,,,,,,,,,fail,,,invalid query,,AF
129.250.2.3,"AS2914 NTT America, Inc.",San Jose,United States,US,"NTT America, Inc.",37.3382,-121.886,"NTT America, Inc.",CA,California,success,America/Los_Angeles,95141,,AS2914,NA
67.83.246.6,AS6128 Cablevision Systems Corp.,Lyndhurst,United States,US,Cablevision Systems Corp.,40.812,-74.1243,Optimum Online,NJ,New Jersey,success,America/New_York,07071,,AS6128,NA
2001:2000:3080:1710::1,AS1299,Solna,Sweden,SE,Telia Company AB,59.3625,17.9989,Telia Company AB,AB,Stockholm,success,Europe/Stockholm,105 04,,AS1299,EU
2001:2000:3018:91::1,AS1299,Solna,Sweden,SE,Telia Company AB,59.3625,17.9989,Telia Company AB,AB,Stockholm,success,Europe/Stockholm,105 04,,AS1299,EU
4.69.206.65,"AS3356 Level 3 Parent, LLC",Chicago,United States,US,"Level 3 Communications, Inc.",41.8781,-87.6298,"Level 3, LLC",IL,Illinois,success,America/Chicago,60666,,AS3356,NA
138.197.250.98,"AS14061 DigitalOcean, LLC",Toronto,Canada,CA,"DigitalOcean, LLC",43.6644,-79.4195,"DigitalOcean, LLC",ON,Ontario,success,America/Toronto,M6G,,AS14061,NA
138.197.251.128,,Toronto,Canada,CA,DigitalOcean,43.6644,-79.4195,"DigitalOcean, LLC",ON,Ontario,success,America/Toronto,M6G,,,NA
173.205.52.234,AS3257 GTT Communications Inc.,Paris,France,FR,PacketExchange,48.8566,2.35222,Tinet GmbH,IDF,Île-de-France,success,Europe/Paris,75000,,AS3257,EU
182.79.239.241,AS9498 BHARTI Airtel Ltd.,New Delhi,India,IN,Bharti Airtel Limited,28.6139,77.209,Bharti Airtel,DL,National Capital Territory of Delhi,success,Asia/Kolkata,110001,,AS9498,AS
2604:a880:ffff:b::9,,New York,United States,US,DigitalOcean,40.7234,-74.0054,"DigitalOcean, LLC",NY,New York,success,America/New_York,10013,,,NA
129.250.6.147,"AS2914 NTT America, Inc.",Newark,United States,US,"NTT America, Inc.",40.7357,-74.1724,"NTT America, Inc.",NJ,New Jersey,success,America/New_York,07175,,AS2914,NA
62.115.114.98,AS1299,Paris,France,FR,Telia Company AB,48.8566,2.35222,Telia Company AB,IDF,Île-de-France,success,Europe/Paris,75000,,AS1299,EU
80.231.130.23,AS6453 TATA COMMUNICATIONS (AMERICA) INC,London,United Kingdom,GB,TATA Communications,51.5074,-0.12775799999999998,Tata Communications Ltd.,ENG,England,success,Europe/London,W1B,,AS6453,EU
129.250.2.252,"AS2914 NTT America, Inc.",Los Angeles,United States,US,"NTT America, Inc.",34.0522,-118.244,"NTT America, Inc.",CA,California,success,America/Los_Angeles,90009,,AS2914,NA
2604:a880:ffff:0:1::9d,,New York,United States,US,DigitalOcean,40.7234,-74.0054,"DigitalOcean, LLC",NY,New York,success,America/New_York,10013,,,NA
2001:1890:1fff:11b:192:20,,,,,,,,,,,fail,,,invalid query,,AF
fd00:0:b::35,,,,,,,,,,,fail,,,private range,,AF
2001:506:100:18::6,,Greenwood Village,United States,US,Spectrum,39.6004,-104.891,Charter Communications,CO,Colorado,success,America/Denver,80111,,,NA
2001:470:0:330::2,AS6939 Hurricane Electric LLC,San Jose,United States,US,Hurricane Electric LLC,37.2414,-121.783,Hurricane Electric,CA,California,success,America/Los_Angeles,95119,,AS6939,NA
64.86.188.34,AS6453 TATA COMMUNICATIONS (AMERICA) INC,Dallas,United States,US,TATA COMMUNICATIONS (AMERICA) INC,32.7889,-96.8021,TATA COMMUNICATIONS (AMERICA) INC,TX,Texas,success,America/Chicago,75201,,AS6453,NA
24.58.201.126,AS11351 Charter Communications Inc,Chestertown,United States,US,Charter Communications Inc,43.6529,-73.8013,Spectrum,NY,New York,success,America/New_York,12817,,AS11351,NA
138.197.244.225,,Toronto,Canada,CA,DigitalOcean,43.6644,-79.4195,"DigitalOcean, LLC",ON,Ontario,success,America/Toronto,M6G,,,NA
62.115.156.215,AS1299,New York,United States,US,Telia Company AB,40.7128,-74.006,Telia Company AB,NY,New York,success,America/New_York,10123,,AS1299,NA
138.197.250.112,"AS14061 DigitalOcean, LLC",Toronto,Canada,CA,"DigitalOcean, LLC",43.6644,-79.4195,"DigitalOcean, LLC",ON,Ontario,success,America/Toronto,M6G,,AS14061,NA
192.205.37.49,"AS7018 AT&T Services, Inc.",Indianapolis,United States,US,"AT&T Services, Inc.",39.7709,-86.1584,"AT&T Services, Inc.",IN,Indiana,success,America/Indiana/Indianapolis,46204,,AS7018,NA
50.242.151.61,"AS7922 Comcast Cable Communications, LLC",Little Rock,United States,US,"Comcast Cable Communications, LLC",34.7386,-92.4231,"Comcast Cable Communications, LLC",AR,Arkansas,success,America/Chicago,72211,,AS7922,NA
2001:1890:1fff:10f:192:20,,,,,,,,,,,fail,,,invalid query,,AF
50.248.118.245,"AS7922 Comcast Cable Communications, LLC",Tucson,United States,US,"Comcast Cable Communications, LLC",32.3381,-110.9814,"Comcast Cable Communications, LLC",AZ,Arizona,success,America/Phoenix,85704,,AS7922,NA
96.34.2.35,,Ashburn,United States,US,Spectrum,39.0481,-77.4728,Charter Communications,VA,Virginia,success,America/New_York,20149,,,NA
4.14.33.53,"AS3356 Level 3 Parent, LLC",Walnut Creek,United States,US,"Level 3 Communications, Inc.",37.9208,-122.0182,Level 3,CA,California,success,America/Los_Angeles,94598,,AS3356,NA
129.250.4.24,"AS2914 NTT America, Inc.",London,United Kingdom,GB,"NTT America, Inc.",51.5074,-0.12775799999999998,"NTT America, Inc.",ENG,England,success,Europe/London,W1B,,AS2914,EU
24.58.50.85,AS11351 Charter Communications Inc,Glens Falls,United States,US,Charter Communications Inc,43.3095,-73.64399999999998,Spectrum,NY,New York,success,America/New_York,12801,,AS11351,NA
10.78.4.6,,,,,,,,,,,fail,,,private range,,AF
138.197.250.120,"AS14061 DigitalOcean, LLC",Toronto,Canada,CA,"DigitalOcean, LLC",43.6644,-79.4195,"DigitalOcean, LLC",ON,Ontario,success,America/Toronto,M6G,,AS14061,NA
208.116.212.10,AS3257 GTT Communications Inc.,Waukegan,United States,US,GTT Communications Inc.,42.354,-87.8675,GTT,IL,Illinois,success,America/Chicago,60085,,AS3257,NA
129.250.6.176,"AS2914 NTT America, Inc.",Newark,United States,US,"NTT America, Inc.",40.7357,-74.1724,"NTT America, Inc.",NJ,New Jersey,success,America/New_York,07175,,AS2914,NA
96.110.38.137,"AS7922 Comcast Cable Communications, LLC",Ashburn,United States,US,"Comcast Cable Communications, LLC",39.0438,-77.4874,"Comcast IP Services, L.L.C.",VA,Virginia,success,America/New_York,20149,,AS7922,NA
64.62.153.206,AS6939 Hurricane Electric LLC,San Jose,United States,US,Hurricane Electric LLC,37.2415,-121.7834,"CVIMA, Inc",CA,California,success,America/Los_Angeles,95119,,AS6939,NA
62.115.156.209,AS1299,Dallas,United States,US,Telia Company AB,32.7767,-96.797,Telia Company AB,TX,Texas,success,America/Chicago,75270,,AS1299,NA
2001:19f0:fc00::a49:119,,Old Toronto,Canada,CA,Choopa,43.6509,-79.3618,GameServers.com,ON,Ontario,success,America/Toronto,M5A 4L2,,,NA
80.249.208.122,AS1200 Amsterdam Internet Exchange B.V.,Amsterdam,Netherlands,NL,AMS-IX Amsterdam Peering (ISP) LAN,52.36,4.89814,,NH,North Holland,success,Europe/Amsterdam,1017,,AS1200,EU
96.110.40.50,"AS7922 Comcast Cable Communications, LLC",Marietta,United States,US,"Comcast Cable Communications, LLC",33.9526,-84.5499,"Comcast IP Services, L.L.C.",GA,Georgia,success,America/New_York,30006,,AS7922,NA
2600:3c00:2222:15::1,"AS63949 Linode, LLC",Dallas,United States,US,"Linode, LLC",32.7767,-96.797,Linode,TX,Texas,success,America/Chicago,75270,,AS63949,NA
2404:a800::104,AS9498 BHARTI Airtel Ltd.,New Delhi,India,IN,Bharti Airtel Limited,28.552,77.2695,BHARTI,DL,National Capital Territory of Delhi,success,Asia/Kolkata,110001,,AS9498,AS
184.105.213.114,AS6939 Hurricane Electric LLC,Chicago,United States,US,Hurricane Electric LLC,41.8547,-87.6185,Hurricane Electric,IL,Illinois,success,America/Chicago,60616,,AS6939,NA
68.86.84.206,"AS7922 Comcast Cable Communications, LLC",Mount Laurel,United States,US,"Comcast Cable Communications, LLC",39.9648,-74.9045,"Comcast Cable Communications, Inc.",NJ,New Jersey,success,America/New_York,08054,,AS7922,NA
129.250.6.80,"AS2914 NTT America, Inc.",Newark,United States,US,"NTT America, Inc.",40.7357,-74.1724,"NTT America, Inc.",NJ,New Jersey,success,America/New_York,07175,,AS2914,NA
80.231.217.29,AS6453 TATA COMMUNICATIONS (AMERICA) INC,Kingston upon Thames,United Kingdom,GB,TATA Communications,51.4104,-0.3047,Tata Communications Ltd.,ENG,England,success,Europe/London,KT1,,AS6453,EU
182.79.222.237,AS9498 BHARTI Airtel Ltd.,New Delhi,India,IN,Bharti Airtel Limited,28.6139,77.209,Bharti Airtel,DL,National Capital Territory of Delhi,success,Asia/Kolkata,110001,,AS9498,AS
2001:470:0:459::2,AS6939 Hurricane Electric LLC,San Jose,United States,US,Hurricane Electric LLC,37.2414,-121.783,Hurricane Electric,CA,California,success,America/Los_Angeles,95119,,AS6939,NA
96.110.38.61,"AS7922 Comcast Cable Communications, LLC",Ashburn,United States,US,"Comcast Cable Communications, LLC",39.0438,-77.4874,"Comcast IP Services, L.L.C.",VA,Virginia,success,America/New_York,20149,,AS7922,NA
62.115.58.17,AS1299,Paris,France,FR,Telia Company AB,48.8566,2.35222,Telia Company AB,IDF,Île-de-France,success,Europe/Paris,75000,,AS1299,EU
66.109.6.1,AS7843 Charter Communications Inc,Dallas,United States,US,Spectrum,32.7767,-96.797,Time Warner Cable Internet LLC,TX,Texas,success,America/Chicago,75270,,AS7843,NA
2404:a800:0:4::41,AS9498 BHARTI Airtel Ltd.,New Delhi,India,IN,Bharti Airtel Limited,28.552,77.2695,BHARTI,DL,National Capital Territory of Delhi,success,Asia/Kolkata,110001,,AS9498,AS
66.109.1.16,AS7843 Charter Communications Inc,San Jose,United States,US,Spectrum,37.3382,-121.886,Time Warner Cable Internet LLC,CA,California,success,America/Los_Angeles,95141,,AS7843,NA
71.155.13.15,"AS7018 AT&T Services, Inc.",Chicago,United States,US,"AT&T Services, Inc.",41.8781,-87.6298,AT&T Corp,IL,Illinois,success,America/Chicago,60666,,AS7018,NA
2001:1890:1fff:11d:192:20,,,,,,,,,,,fail,,,invalid query,,AF
68.86.84.229,"AS7922 Comcast Cable Communications, LLC",Mount Laurel,United States,US,"Comcast Cable Communications, LLC",39.9648,-74.9045,"Comcast Cable Communications, Inc.",NJ,New Jersey,success,America/New_York,08054,,AS7922,NA
138.197.248.40,,Toronto,Canada,CA,DigitalOcean,43.6644,-79.4195,"DigitalOcean, LLC",ON,Ontario,success,America/Toronto,M6G,,,NA
62.115.55.29,AS1299,Toronto,Canada,CA,Telia Company AB,43.6532,-79.3832,Telia Company AB,ON,Ontario,success,America/Toronto,M5H,,AS1299,NA
139.162.64.14,"AS63949 Linode, LLC",Tokyo,Japan,JP,"Linode, LLC",35.6882,139.7532,"Linode, LLC",13,Tokyo,success,Asia/Tokyo,102-0082,,AS63949,AS
116.119.49.56,AS9498 BHARTI Airtel Ltd.,Gurgaon,India,IN,Bharti Airtel Limited,28.4969,77.0813,Bhartitelesonic,HR,Haryana,success,Asia/Kolkata,122001,,AS9498,AS
66.109.6.8,AS7843 Charter Communications Inc,San Jose,United States,US,Spectrum,37.3382,-121.886,Time Warner Cable Internet LLC,CA,California,success,America/Los_Angeles,95141,,AS7843,NA
4.68.37.194,"AS3356 Level 3 Parent, LLC",Newark,United States,US,"Level 3 Communications, Inc.",40.7357,-74.1724,"Level 3, LLC",NJ,New Jersey,success,America/New_York,07175,,AS3356,NA
96.110.42.166,"AS7922 Comcast Cable Communications, LLC",Chicago,United States,US,"Comcast Cable Communications, LLC",41.8528,-87.6228,"Comcast IP Services, L.L.C.",IL,Illinois,success,America/Chicago,60616,,AS7922,NA
213.248.68.168,AS1299,Singapore,Singapore,SG,Telia Company AB,1.28009,103.851,Telia Company AB,,,success,Asia/Singapore,,,AS1299,AS
2604:a880:ffff:6:1::402,,New York,United States,US,DigitalOcean,40.7234,-74.0054,"DigitalOcean, LLC",NY,New York,success,America/New_York,10013,,,NA
45.63.33.225,"AS20473 Choopa, LLC",Seattle,United States,US,Choopa,47.6144,-122.3447,"Vultr Holdings, LLC",WA,Washington,success,America/Los_Angeles,98121,,AS20473,NA
152.179.21.145,"AS701 MCI Communications Services, Inc. d/b/a Verizon Business",Houston,United States,US,Verizon Communications,29.6968,-95.5446,"ANS Communications, Inc",TX,Texas,success,America/Chicago,77036,,AS701,NA
2604:a880:ffff:6:1::423,,New York,United States,US,DigitalOcean,40.7234,-74.0054,"DigitalOcean, LLC",NY,New York,success,America/New_York,10013,,,NA
45.79.12.8,"AS63949 Linode, LLC",Dallas,United States,US,"Linode, LLC",32.7787,-96.8217,Linode,TX,Texas,success,America/Chicago,75270,,AS63949,NA
2001:506:100:301::1,,Greenwood Village,United States,US,Spectrum,39.6004,-104.891,Charter Communications,CO,Colorado,success,America/Denver,80111,,,NA
154.24.30.38,AS174 Cogent Communications,Memphis,United States,US,Cogent Communications,35.1495,-90.04899999999998,"PSINet, Inc.",TN,Tennessee,success,America/Chicago,38101,,AS174,NA
2001:506:100:4000::1:4cbd,,Greenwood Village,United States,US,Spectrum,39.6004,-104.891,Charter Communications,CO,Colorado,success,America/Denver,80111,,,NA
2604:a880:ffff:6:1::408,,New York,United States,US,DigitalOcean,40.7234,-74.0054,"DigitalOcean, LLC",NY,New York,success,America/New_York,10013,,,NA
62.115.123.13,AS1299,Paris,France,FR,Telia Company AB,48.8566,2.35222,Telia Company AB,IDF,Île-de-France,success,Europe/Paris,75000,,AS1299,EU
140.222.233.91,,Purchase,United States,US,ANS CO+RE Systems,41.0267,-73.7155,"ANS CO+RE Systems, Inc.",NY,New York,success,America/New_York,10577,,,NA
139.162.64.9,"AS63949 Linode, LLC",Tokyo,Japan,JP,"Linode, LLC",35.6882,139.7532,"Linode, LLC",13,Tokyo,success,Asia/Tokyo,102-0082,,AS63949,AS
129.250.66.150,"AS2914 NTT America, Inc.",Chai Wan,Hong Kong,HK,"NTT America, Inc.",22.2678,114.236,"NTT America, Inc.",HEA,Eastern,success,Asia/Hong_Kong,,,AS2914,AS
2001:1890:1fff:21c:192:20,,,,,,,,,,,fail,,,invalid query,,AF
2001:470:0:431::2,AS6939 Hurricane Electric LLC,San Jose,United States,US,Hurricane Electric LLC,37.2414,-121.783,Hurricane Electric,CA,California,success,America/Los_Angeles,95119,,AS6939,NA
2001:506:100:37c::1,,Greenwood Village,United States,US,Spectrum,39.6004,-104.891,Charter Communications,CO,Colorado,success,America/Denver,80111,,,NA
68.86.82.129,"AS7922 Comcast Cable Communications, LLC",Los Angeles,United States,US,"Comcast Cable Communications, LLC",34.0522,-118.244,"Comcast Cable Communications, Inc.",CA,California,success,America/Los_Angeles,90009,,AS7922,NA
129.250.3.164,"AS2914 NTT America, Inc.",Los Angeles,United States,US,"NTT America, Inc.",34.0522,-118.244,"NTT America, Inc.",CA,California,success,America/Los_Angeles,90009,,AS2914,NA
129.250.3.17,"AS2914 NTT America, Inc.",Los Angeles,United States,US,"NTT America, Inc.",34.0522,-118.244,"NTT America, Inc.",CA,California,success,America/Los_Angeles,90009,,AS2914,NA
66.109.6.75,AS7843 Charter Communications Inc,Albany,United States,US,Spectrum,42.6526,-73.7562,Time Warner Cable Internet LLC,NY,New York,success,America/New_York,12201,,AS7843,NA
10.66.4.38,,,,,,,,,,,fail,,,private range,,AF
182.79.222.233,AS9498 BHARTI Airtel Ltd.,New Delhi,India,IN,Bharti Airtel Limited,28.6139,77.209,Bharti Airtel,DL,National Capital Territory of Delhi,success,Asia/Kolkata,110001,,AS9498,AS
66.109.1.219,AS7843 Charter Communications Inc,Tustin,United States,US,Spectrum,33.742,-117.824,Time Warner Cable Internet LLC,CA,California,success,America/Los_Angeles,92780,,AS7843,NA
213.200.120.106,AS3257 GTT Communications Inc.,Chicago,United States,US,Tinet SpA,41.8823,-87.6286,Q Interactive,IL,Illinois,success,America/Chicago,60602,,AS3257,NA
2001:470:0:357::2,AS6939 Hurricane Electric LLC,San Jose,United States,US,Hurricane Electric LLC,37.2414,-121.783,Hurricane Electric,CA,California,success,America/Los_Angeles,95119,,AS6939,NA
139.162.64.30,"AS63949 Linode, LLC",Tokyo,Japan,JP,"Linode, LLC",35.6882,139.7532,"Linode, LLC",13,Tokyo,success,Asia/Tokyo,102-0082,,AS63949,AS
62.115.150.3,AS1299,Chicago,United States,US,Telia Company AB,41.8781,-87.6298,Telia Company AB,IL,Illinois,success,America/Chicago,60666,,AS1299,NA
62.115.44.249,AS1299,London,United Kingdom,GB,Telia Company AB,51.5074,-0.12775799999999998,Telia Company AB,ENG,England,success,Europe/London,W1B,,AS1299,EU
62.115.151.4,AS1299,Miami,United States,US,Telia Company AB,25.7617,-80.1918,Telia Company AB,FL,Florida,success,America/New_York,33102,,AS1299,NA
96.110.32.18,"AS7922 Comcast Cable Communications, LLC",Ashburn,United States,US,"Comcast Cable Communications, LLC",39.0438,-77.4874,"Comcast IP Services, L.L.C.",VA,Virginia,success,America/New_York,20149,,AS7922,NA
140.222.236.23,,Purchase,United States,US,ANS CO+RE Systems,41.0267,-73.7155,"ANS CO+RE Systems, Inc.",NY,New York,success,America/New_York,10577,,,NA
154.54.47.213,AS174 Cogent Communications,Dallas,United States,US,Cogent Communications,32.7767,-96.797,Cogent communications - IPENG,TX,Texas,success,America/Chicago,75270,,AS174,NA
62.115.137.106,AS1299,Dallas,United States,US,Telia Company AB,32.7767,-96.797,Telia Company AB,TX,Texas,success,America/Chicago,75270,,AS1299,NA
2400:8902:5::2,"AS63949 Linode, LLC",Tokyo,Japan,JP,"Linode, LLC",35.6882,139.7532,LINODE,13,Tokyo,success,Asia/Tokyo,102-0082,,AS63949,AS
2001:1900:2100::260e,"AS3356 Level 3 Parent, LLC",San Diego,United States,US,"Level 3 Communications, Inc.",32.7405,-117.0935,Level,CA,California,success,America/Los_Angeles,92105,,AS3356,NA
24.55.46.183,AS11427 Charter Communications Inc,Austin,United States,US,Charter Communications,30.2971,-97.8181,Spectrum,TX,Texas,success,America/Chicago,78746,,AS11427,NA
2001:19f0:5800::a4a:25,"AS20473 Choopa, LLC",Sydney,Australia,AU,"Choopa, LLC",-33.8688,151.209,"Choopa, LLC",NSW,New South Wales,success,Australia/Sydney,1001,,AS20473,OC
62.115.12.52,AS1299,San Jose,United States,US,Telia Company AB,37.3382,-121.886,Telia Company AB,CA,California,success,America/Los_Angeles,95141,,AS1299,NA
68.86.213.150,"AS7922 Comcast Cable Communications, LLC",Ivyland,United States,US,"Comcast Cable Communications, LLC",40.2079,-75.0727,"Comcast Cable Communications, Inc.",PA,Pennsylvania,success,America/New_York,18974,,AS7922,NA
129.250.3.209,"AS2914 NTT America, Inc.",Miami,United States,US,"NTT America, Inc.",25.7617,-80.1918,"NTT America, Inc.",FL,Florida,success,America/New_York,33102,,AS2914,NA
68.86.213.158,"AS7922 Comcast Cable Communications, LLC",Philadelphia,United States,US,"Comcast Cable Communications, LLC",39.9526,-75.1652,"Comcast Cable Communications, Inc.",PA,Pennsylvania,success,America/New_York,19099,,AS7922,NA
24.58.52.111,AS11351 Charter Communications Inc,East Syracuse,United States,US,Charter Communications Inc,43.0653,-76.0785,Spectrum,NY,New York,success,America/New_York,13057,,AS11351,NA
12.123.240.81,"AS7018 AT&T Services, Inc.",New York,United States,US,AT&T Services,40.7128,-74.006,AT&T Worldnet Services,NY,New York,success,America/New_York,10123,,AS7018,NA
62.115.9.209,AS1299,Toronto,Canada,CA,Telia Company AB,43.6532,-79.3832,Telia Company AB,ON,Ontario,success,America/Toronto,M5H,,AS1299,NA
2001:19f0:fc00::a4c:89,,Old Toronto,Canada,CA,Choopa,43.6509,-79.3618,GameServers.com,ON,Ontario,success,America/Toronto,M5A 4L2,,,NA
138.197.244.38,,Toronto,Canada,CA,DigitalOcean,43.6644,-79.4195,"DigitalOcean, LLC",ON,Ontario,success,America/Toronto,M6G,,,NA
96.110.35.57,"AS7922 Comcast Cable Communications, LLC",Chicago,United States,US,"Comcast Cable Communications, LLC",41.8528,-87.6228,"Comcast IP Services, L.L.C.",IL,Illinois,success,America/Chicago,60616,,AS7922,NA
96.110.32.10,"AS7922 Comcast Cable Communications, LLC",Ashburn,United States,US,"Comcast Cable Communications, LLC",39.0438,-77.4874,"Comcast IP Services, L.L.C.",VA,Virginia,success,America/New_York,20149,,AS7922,NA
129.250.3.175,"AS2914 NTT America, Inc.",San Jose,United States,US,"NTT America, Inc.",37.3382,-121.886,"NTT America, Inc.",CA,California,success,America/Los_Angeles,95141,,AS2914,NA
72.52.92.102,AS6939 Hurricane Electric LLC,New York City,United States,US,Hurricane Electric LLC,40.7177,-74.0083,Hurricane Electric,NY,New York,success,America/New_York,10013,,AS6939,NA
100.41.130.217,"AS701 MCI Communications Services, Inc. d/b/a Verizon Business",Philadelphia,United States,US,"MCI Communications Services, Inc. d/b/a Verizon Business",39.9526,-75.1652,Verizon Communications,PA,Pennsylvania,success,America/New_York,19099,,AS701,NA
2604:a880:ffff:4:1::2a,,New York,United States,US,DigitalOcean,40.7234,-74.0054,"DigitalOcean, LLC",NY,New York,success,America/New_York,10013,,,NA
184.105.213.117,AS6939 Hurricane Electric LLC,Seattle,United States,US,Hurricane Electric LLC,47.6143,-122.3388,Hurricane Electric,WA,Washington,success,America/Los_Angeles,98121,,AS6939,NA
63.223.60.106,"AS3491 PCCW Global, Inc.",San José,Costa Rica,CR,"PCCW Global, Inc.",9.92807,-84.0907,"PCCW Global, Inc.",SJ,Provincia de San Jose,success,America/Costa_Rica,11002,,AS3491,NA
129.250.3.41,"AS2914 NTT America, Inc.",Miami,United States,US,"NTT America, Inc.",25.7617,-80.1918,"NTT America, Inc.",FL,Florida,success,America/New_York,33102,,AS2914,NA
96.110.38.141,"AS7922 Comcast Cable Communications, LLC",Ashburn,United States,US,"Comcast Cable Communications, LLC",39.0438,-77.4874,"Comcast IP Services, L.L.C.",VA,Virginia,success,America/New_York,20149,,AS7922,NA
96.110.32.102,"AS7922 Comcast Cable Communications, LLC",Ashburn,United States,US,"Comcast Cable Communications, LLC",39.0438,-77.4874,"Comcast IP Services, L.L.C.",VA,Virginia,success,America/New_York,20149,,AS7922,NA
206.108.34.112,AS7713 PT Telekomunikasi Indonesia,Old Toronto,Canada,CA,Telekomunikasi Indonesia,43.6493,-79.3912,Toronto Internet Exchange Community,ON,Ontario,success,America/Toronto,M5V-3E3,,AS7713,NA
130.81.171.89,"AS701 MCI Communications Services, Inc. d/b/a Verizon Business",Philadelphia,United States,US,"MCI Communications Services, Inc. d/b/a Verizon Business",39.9523,-75.1638,Verizon Communications,PA,Pennsylvania,success,America/New_York,19099,,AS701,NA
2001:2000:3018:a::1,AS1299,Solna,Sweden,SE,Telia Company AB,59.3625,17.9989,Telia Company AB,AB,Stockholm,success,Europe/Stockholm,105 04,,AS1299,EU
2001:470:0:3f0::2,AS6939 Hurricane Electric LLC,San Jose,United States,US,Hurricane Electric LLC,37.2414,-121.783,Hurricane Electric,CA,California,success,America/Los_Angeles,95119,,AS6939,NA
2604:a880:ffff:b::1,,New York,United States,US,DigitalOcean,40.7234,-74.0054,"DigitalOcean, LLC",NY,New York,success,America/New_York,10013,,,NA
68.86.84.226,"AS7922 Comcast Cable Communications, LLC",Mount Laurel,United States,US,"Comcast Cable Communications, LLC",39.9648,-74.9045,"Comcast Cable Communications, Inc.",NJ,New Jersey,success,America/New_York,08054,,AS7922,NA
69.174.23.149,AS3257 GTT Communications Inc.,Paris,France,FR,PacketExchange,48.8566,2.35222,GTT,IDF,Île-de-France,success,Europe/Paris,75000,,AS3257,EU
202.56.198.29,AS9498 BHARTI Airtel Ltd.,Bengaluru,India,IN,Bharti Airtel Limited,12.9721,77.5933,Bharti Airtel,KA,Karnataka,success,Asia/Kolkata,560002,,AS9498,AS
138.197.250.106,"AS14061 DigitalOcean, LLC",Toronto,Canada,CA,"DigitalOcean, LLC",43.6644,-79.4195,"DigitalOcean, LLC",ON,Ontario,success,America/Toronto,M6G,,AS14061,NA
66.220.12.166,AS6939 Hurricane Electric LLC,San Jose,United States,US,Hurricane Electric LLC,37.2415,-121.7834,Hurricane Electric LLC,CA,California,success,America/Los_Angeles,95119,,AS6939,NA
184.105.81.150,AS6939 Hurricane Electric LLC,Ashburn,United States,US,Hurricane Electric LLC,39.0163,-77.459,Hurricane Electric,VA,Virginia,success,America/New_York,20147,,AS6939,NA
192.80.17.173,"AS2914 NTT America, Inc.",Stockholm,Sweden,SE,"NTT America, Inc.",59.3293,18.0686,NTT America,AB,Stockholm,success,Europe/Stockholm,100 05,,AS2914,EU
68.85.158.198,"AS7922 Comcast Cable Communications, LLC",Ivyland,United States,US,"Comcast Cable Communications, LLC",40.2079,-75.0727,"Comcast Cable Communications, LLC",PA,Pennsylvania,success,America/New_York,18974,,AS7922,NA
68.86.85.193,"AS7922 Comcast Cable Communications, LLC",Denver,United States,US,"Comcast Cable Communications, LLC",39.7392,-104.99,"Comcast Cable Communications, Inc.",CO,Colorado,success,America/Denver,80208,,AS7922,NA
138.197.250.88,,Toronto,Canada,CA,DigitalOcean,43.6644,-79.4195,"DigitalOcean, LLC",ON,Ontario,success,America/Toronto,M6G,,,NA
62.115.45.5,AS1299,New York,United States,US,Telia Company AB,40.7128,-74.006,Telia Company AB,NY,New York,success,America/New_York,10123,,AS1299,NA
63.218.178.50,"AS3491 PCCW Global, Inc.",San José,Costa Rica,CR,"PCCW Global, Inc.",9.92807,-84.0907,"PCCW Global, Inc.",SJ,Provincia de San Jose,success,America/Costa_Rica,11002,,AS3491,NA
138.197.249.71,,Toronto,Canada,CA,DigitalOcean,43.6644,-79.4195,"DigitalOcean, LLC",ON,Ontario,success,America/Toronto,M6G,,,NA
184.104.194.37,AS6939 Hurricane Electric LLC,San Jose,United States,US,Hurricane Electric LLC,37.2415,-121.7834,Hurricane Electric,CA,California,success,America/Los_Angeles,95119,,AS6939,NA
64.125.31.14,AS6461 Zayo Bandwidth,San Jose,United States,US,Zayo Bandwidth,37.3382,-121.886,Zayo Bandwidth,CA,California,success,America/Los_Angeles,95141,,AS6461,NA
68.86.85.186,"AS7922 Comcast Cable Communications, LLC",Denver,United States,US,"Comcast Cable Communications, LLC",39.7392,-104.99,"Comcast Cable Communications, Inc.",CO,Colorado,success,America/Denver,80208,,AS7922,NA
184.187.207.233,AS22773 Cox Communications Inc.,Ashburn,United States,US,Cox Communications Inc.,39.0438,-77.4874,Cox Communications,VA,Virginia,success,America/New_York,20149,,AS22773,NA
4.69.208.174,"AS3356 Level 3 Parent, LLC",London,United Kingdom,GB,"Level 3 Communications, Inc.",51.5074,-0.12775799999999998,"Level 3, LLC",ENG,England,success,Europe/London,W1B,,AS3356,EU
4.69.203.121,"AS3356 Level 3 Parent, LLC",Washington,United States,US,"Level 3 Communications, Inc.",38.9072,-77.0369,"Level 3, LLC",DC,District of Columbia,success,America/New_York,20068,,AS3356,NA
96.110.35.50,"AS7922 Comcast Cable Communications, LLC",Chicago,United States,US,"Comcast Cable Communications, LLC",41.8528,-87.6228,"Comcast IP Services, L.L.C.",IL,Illinois,success,America/Chicago,60616,,AS7922,NA
2001:470:0:2dc::1,AS6939 Hurricane Electric LLC,San Jose,United States,US,Hurricane Electric LLC,37.2414,-121.783,Hurricane Electric,CA,California,success,America/Los_Angeles,95119,,AS6939,NA
68.86.85.169,"AS7922 Comcast Cable Communications, LLC",Denver,United States,US,"Comcast Cable Communications, LLC",39.7392,-104.99,"Comcast Cable Communications, Inc.",CO,Colorado,success,America/Denver,80208,,AS7922,NA
64.125.13.77,AS6461 Zayo Bandwidth,San Jose,United States,US,Zayo Bandwidth,37.3382,-121.886,Zayo Bandwidth,CA,California,success,America/Los_Angeles,95141,,AS6461,NA
62.115.134.138,AS1299,London,United Kingdom,GB,Telia Company AB,51.5164,-0.093,Telia Company AB,ENG,England,success,Europe/London,EC2V,,AS1299,EU
64.125.31.218,AS6461 Zayo Bandwidth,Denver,United States,US,Zayo Bandwidth,39.7392,-104.99,Zayo Bandwidth,CO,Colorado,success,America/Denver,80208,,AS6461,NA
96.110.38.138,"AS7922 Comcast Cable Communications, LLC",Ashburn,United States,US,"Comcast Cable Communications, LLC",39.0438,-77.4874,"Comcast IP Services, L.L.C.",VA,Virginia,success,America/New_York,20149,,AS7922,NA
96.34.0.20,,Ashburn,United States,US,Spectrum,39.0481,-77.4728,Charter Communications,VA,Virginia,success,America/New_York,20149,,,NA
96.108.181.22,"AS7922 Comcast Cable Communications, LLC",Ivyland,United States,US,"Comcast Cable Communications, LLC",40.2079,-75.0727,"Comcast Cable Communications, LLC",PA,Pennsylvania,success,America/New_York,18974,,AS7922,NA
129.250.2.234,"AS2914 NTT America, Inc.",London,United Kingdom,GB,"NTT America, Inc.",51.5074,-0.12775799999999998,"NTT America, Inc.",ENG,England,success,Europe/London,W1B,,AS2914,EU
152.179.49.133,"AS701 MCI Communications Services, Inc. d/b/a Verizon Business",Holbrook,United States,US,Verizon Communications,40.7963,-73.0665,"ANS Communications, Inc",NY,New York,success,America/New_York,11741,,AS701,NA
2600:300:2050:1620::2,"AS7018 AT&T Services, Inc.",Washington,United States,US,"AT&T Services, Inc.",38.9072,-77.0369,AT&T Mobility LLC,DC,District of Columbia,success,America/New_York,20068,,AS7018,NA
96.110.34.181,"AS7922 Comcast Cable Communications, LLC",Newark,United States,US,"Comcast Cable Communications, LLC",40.7357,-74.1724,"Comcast IP Services, L.L.C.",NJ,New Jersey,success,America/New_York,07175,,AS7922,NA
96.110.42.162,"AS7922 Comcast Cable Communications, LLC",Chicago,United States,US,"Comcast Cable Communications, LLC",41.8528,-87.6228,"Comcast IP Services, L.L.C.",IL,Illinois,success,America/Chicago,60616,,AS7922,NA
2001:2000:3019:bf::1,AS1299,Solna,Sweden,SE,Telia Company AB,59.3625,17.9989,Telia Company AB,AB,Stockholm,success,Europe/Stockholm,105 04,,AS1299,EU
96.110.39.161,"AS7922 Comcast Cable Communications, LLC",Marietta,United States,US,"Comcast Cable Communications, LLC",33.9526,-84.5499,"Comcast IP Services, L.L.C.",GA,Georgia,success,America/New_York,30006,,AS7922,NA
64.125.29.212,AS6461 Zayo Bandwidth,New York,United States,US,Zayo Bandwidth,40.7128,-74.006,Zayo Bandwidth,NY,New York,success,America/New_York,10123,,AS6461,NA
2604:a880:ffff:c::25,,New York,United States,US,DigitalOcean,40.7234,-74.0054,"DigitalOcean, LLC",NY,New York,success,America/New_York,10013,,,NA
2001:418:0:2000::8d,"AS2914 NTT America, Inc.",Frankfurt am Main,Germany,DE,"NTT America, Inc.",50.1109,8.68213,"NTT America, Inc.",HE,Hesse,success,Europe/Berlin,60313,,AS2914,EU
134.209.160.254,"AS14061 DigitalOcean, LLC",Clifton,United States,US,"DigitalOcean, LLC",40.8364,-74.1403,"DigitalOcean, LLC",NJ,New Jersey,success,America/New_York,07014,,AS14061,NA
96.110.42.174,"AS7922 Comcast Cable Communications, LLC",Chicago,United States,US,"Comcast Cable Communications, LLC",41.8528,-87.6228,"Comcast IP Services, L.L.C.",IL,Illinois,success,America/Chicago,60616,,AS7922,NA
2604:a880:ffff:c::21,,New York,United States,US,DigitalOcean,40.7234,-74.0054,"DigitalOcean, LLC",NY,New York,success,America/New_York,10013,,,NA
2001:506:100:7d::1,,Greenwood Village,United States,US,Spectrum,39.6004,-104.891,Charter Communications,CO,Colorado,success,America/Denver,80111,,,NA
67.83.246.2,AS6128 Cablevision Systems Corp.,Lyndhurst,United States,US,Cablevision Systems Corp.,40.812,-74.1243,Optimum Online,NJ,New Jersey,success,America/New_York,07071,,AS6128,NA
2001:1890:1fff:607:192:20,,,,,,,,,,,fail,,,invalid query,,AF
68.86.84.249,"AS7922 Comcast Cable Communications, LLC",Mount Laurel,United States,US,"Comcast Cable Communications, LLC",39.9648,-74.9045,"Comcast Cable Communications, Inc.",NJ,New Jersey,success,America/New_York,08054,,AS7922,NA
2001:2000:3080:a90::1,AS1299,Solna,Sweden,SE,Telia Company AB,59.3625,17.9989,Telia Company AB,AB,Stockholm,success,Europe/Stockholm,105 04,,AS1299,EU
216.6.81.32,AS6453 TATA COMMUNICATIONS (AMERICA) INC,New York,United States,US,TATA COMMUNICATIONS (AMERICA) INC,40.7415,-74.0034,Tata Communications,NY,New York,success,America/New_York,10011,,AS6453,NA
2403::610,AS4755 TATA Communications formerly VSNL is Leading ISP,Mumbai,India,IN,Tata Communications Limited,19.0748,72.8856,Tata Communications Limited,MH,Maharashtra,success,Asia/Kolkata,400070,,AS4755,AS
63.243.128.122,AS6453 TATA COMMUNICATIONS (AMERICA) INC,New York,United States,US,TATA COMMUNICATIONS (AMERICA) INC,40.7414,-74.0032,Tata Communications Ltd,NY,New York,success,America/New_York,10011,,AS6453,NA
66.110.56.18,AS6453 TATA COMMUNICATIONS (AMERICA) INC,Dallas,United States,US,TATA COMMUNICATIONS (AMERICA) INC,32.7767,-96.797,Tata Communications Ltd.,TX,Texas,success,America/Chicago,75207,,AS6453,NA
2600:300:2050:101::3,"AS7018 AT&T Services, Inc.",Washington,United States,US,"AT&T Services, Inc.",38.9072,-77.0369,AT&T Mobility LLC,DC,District of Columbia,success,America/New_York,20068,,AS7018,NA
138.197.245.0,,Toronto,Canada,CA,DigitalOcean,43.6644,-79.4195,"DigitalOcean, LLC",ON,Ontario,success,America/Toronto,M6G,,,NA
73.246.0.206,"AS7922 Comcast Cable Communications, LLC",Highland Park,United States,US,"Comcast Cable Communications, LLC",42.176,-87.809,"Comcast IP Services, L.L.C.",IL,Illinois,success,America/Chicago,60035,,AS7922,NA
72.52.92.213,AS6939 Hurricane Electric LLC,London,United Kingdom,GB,Hurricane Electric LLC,51.49800000000001,-0.0143,Hurricane Electric,ENG,England,success,Europe/London,E14 9GE,,AS6939,EU
2604:a880:ffff:c::49,,New York,United States,US,DigitalOcean,40.7234,-74.0054,"DigitalOcean, LLC",NY,New York,success,America/New_York,10013,,,NA
138.197.249.106,"AS14061 DigitalOcean, LLC",Toronto,Canada,CA,DigitalOcean,43.6644,-79.4195,"DigitalOcean, LLC",ON,Ontario,success,America/Toronto,M6G,,AS14061,NA
96.110.26.210,"AS7922 Comcast Cable Communications, LLC",McKeesport,United States,US,"Comcast Cable Communications, LLC",40.3471,-79.8641,"Comcast IP Services, L.L.C.",PA,Pennsylvania,success,America/New_York,15131,,AS7922,NA
2001:668:0:3::8000:ed1,AS3257 GTT Communications Inc.,Paris,France,FR,GTT,48.8566,2.35222,Tinet GmbH,IDF,Île-de-France,success,Europe/Paris,75000,,AS3257,EU
2001:668:0:3:ffff:0:adf1:,,,,,,,,,,,fail,,,invalid query,,AF
2600:3c00:2222:10::1,"AS63949 Linode, LLC",Dallas,United States,US,"Linode, LLC",32.7767,-96.797,Linode,TX,Texas,success,America/Chicago,75270,,AS63949,NA
2404:a800::212,AS9498 BHARTI Airtel Ltd.,New Delhi,India,IN,Bharti Airtel Limited,28.552,77.2695,BHARTI,DL,National Capital Territory of Delhi,success,Asia/Kolkata,110001,,AS9498,AS
62.115.113.182,AS1299,Paris,France,FR,Telia Company AB,48.8566,2.35222,Telia Company AB,IDF,Île-de-France,success,Europe/Paris,75000,,AS1299,EU
2001:470:0:451::1,AS6939 Hurricane Electric LLC,San Jose,United States,US,Hurricane Electric LLC,37.2414,-121.783,Hurricane Electric,CA,California,success,America/Los_Angeles,95119,,AS6939,NA
96.110.32.201,"AS7922 Comcast Cable Communications, LLC",Ashburn,United States,US,"Comcast Cable Communications, LLC",39.0438,-77.4874,"Comcast IP Services, L.L.C.",VA,Virginia,success,America/New_York,20149,,AS7922,NA
2001:2000:3019:74::1,AS1299,Solna,Sweden,SE,Telia Company AB,59.3625,17.9989,Telia Company AB,AB,Stockholm,success,Europe/Stockholm,105 04,,AS1299,EU
63.65.76.185,"AS701 MCI Communications Services, Inc. d/b/a Verizon Business",Newark,United States,US,"MCI Communications Services, Inc. d/b/a Verizon Business",40.7641,-74.1654,Verizon Communications,NJ,New Jersey,success,America/New_York,07104,,AS701,NA
180.189.25.5,AS17819 Equinix Asia Pacific,Earlwood,Australia,AU,Equinix Asia Pacific Pte Ltd,-33.9285,151.1257,Equinix Australia Pty Ltd,NSW,New South Wales,success,Australia/Sydney,2206,,AS17819,OC
138.197.251.132,,Toronto,Canada,CA,DigitalOcean,43.6644,-79.4195,"DigitalOcean, LLC",ON,Ontario,success,America/Toronto,M6G,,,NA
2604:a880:ffff:12::d,,New York,United States,US,DigitalOcean,40.7234,-74.0054,"DigitalOcean, LLC",NY,New York,success,America/New_York,10013,,,NA
139.162.64.22,"AS63949 Linode, LLC",Tokyo,Japan,JP,"Linode, LLC",35.6882,139.7532,"Linode, LLC",13,Tokyo,success,Asia/Tokyo,102-0082,,AS63949,AS
138.197.248.44,,Toronto,Canada,CA,DigitalOcean,43.6644,-79.4195,"DigitalOcean, LLC",ON,Ontario,success,America/Toronto,M6G,,,NA
96.110.34.222,"AS7922 Comcast Cable Communications, LLC",Newark,United States,US,"Comcast Cable Communications, LLC",40.7357,-74.1724,"Comcast IP Services, L.L.C.",NJ,New Jersey,success,America/New_York,07175,,AS7922,NA
96.110.32.6,"AS7922 Comcast Cable Communications, LLC",Ashburn,United States,US,"Comcast Cable Communications, LLC",39.0438,-77.4874,"Comcast IP Services, L.L.C.",VA,Virginia,success,America/New_York,20149,,AS7922,NA
216.221.157.89,AS3257 GTT Communications Inc.,New York,United States,US,GTT Communications Inc.,40.7619,-73.9724,Tinet,NY,New York,success,America/New_York,10022,,AS3257,NA
2001:2000:3019:6b::1,AS1299,Solna,Sweden,SE,Telia Company AB,59.3625,17.9989,Telia Company AB,AB,Stockholm,success,Europe/Stockholm,105 04,,AS1299,EU
96.110.32.101,"AS7922 Comcast Cable Communications, LLC",Ashburn,United States,US,"Comcast Cable Communications, LLC",39.0438,-77.4874,"Comcast IP Services, L.L.C.",VA,Virginia,success,America/New_York,20149,,AS7922,NA
2001:578:2300:4::63,AS22773 Cox Communications Inc.,Atlanta,United States,US,Cox Communications Inc.,33.9149,-84.3446,Cox Communications Inc,GA,Georgia,success,America/New_York,30319,,AS22773,NA
2404:a800:3a00::b5,AS9498 BHARTI Airtel Ltd.,New Delhi,India,IN,Bharti Airtel Limited,28.552,77.2695,BHARTI,DL,National Capital Territory of Delhi,success,Asia/Kolkata,110001,,AS9498,AS
80.231.130.195,AS6453 TATA COMMUNICATIONS (AMERICA) INC,London,United Kingdom,GB,TATA Communications,51.5074,-0.12775799999999998,Tata Communications Ltd.,ENG,England,success,Europe/London,W1B,,AS6453,EU
129.250.4.80,"AS2914 NTT America, Inc.",Frankfurt am Main,Germany,DE,"NTT America, Inc.",50.1109,8.68213,"NTT America, Inc.",HE,Hesse,success,Europe/Berlin,60313,,AS2914,EU
129.250.6.126,"AS2914 NTT America, Inc.",Tokyo,Japan,JP,"NTT America, Inc.",35.709,139.732,"NTT America, Inc.",13,Tokyo,success,Asia/Tokyo,162-0801,,AS2914,AS
10.78.4.0,,,,,,,,,,,fail,,,private range,,AF
66.110.96.146,AS6453 TATA COMMUNICATIONS (AMERICA) INC,New York,United States,US,TATA COMMUNICATIONS (AMERICA) INC,40.7308,-73.9975,Tata Communications,NY,New York,success,America/New_York,10011,,AS6453,NA
2400:8902::fa66:f2ff:fe00,"AS63949 Linode, LLC",Tokyo,Japan,JP,"Linode, LLC",35.6882,139.7532,LINODE,13,Tokyo,success,Asia/Tokyo,102-0082,,AS63949,AS
4.69.218.73,"AS3356 Level 3 Parent, LLC",New York,United States,US,"Level 3 Communications, Inc.",40.7056,-73.97800000000002,"Level 3, LLC",NY,New York,success,America/New_York,10123,,AS3356,NA
2001:506:100:9::1,,Greenwood Village,United States,US,Spectrum,39.6004,-104.891,Charter Communications,CO,Colorado,success,America/Denver,80111,,,NA
96.110.32.173,"AS7922 Comcast Cable Communications, LLC",Ashburn,United States,US,"Comcast Cable Communications, LLC",39.0438,-77.4874,"Comcast IP Services, L.L.C.",VA,Virginia,success,America/New_York,20149,,AS7922,NA
2001:2000:3080:9f9::2,AS1299,Solna,Sweden,SE,Telia Company AB,59.3625,17.9989,Telia Company AB,AB,Stockholm,success,Europe/Stockholm,105 04,,AS1299,EU
129.250.66.34,"AS2914 NTT America, Inc.",Chai Wan,Hong Kong,HK,"NTT America, Inc.",22.2678,114.236,"NTT America, Inc.",HEA,Eastern,success,Asia/Hong_Kong,,,AS2914,AS
2001:418:0:2000::d9,"AS2914 NTT America, Inc.",Frankfurt am Main,Germany,DE,"NTT America, Inc.",50.1109,8.68213,"NTT America, Inc.",HE,Hesse,success,Europe/Berlin,60313,,AS2914,EU
66.109.6.109,AS7843 Charter Communications Inc,Houston,United States,US,Spectrum,29.7604,-95.3698,Time Warner Cable Internet LLC,TX,Texas,success,America/Chicago,77052,,AS7843,NA
66.68.1.74,AS11427 Charter Communications Inc,Cedar Park,United States,US,Charter Communications Inc,30.5045,-97.8209,Spectrum,TX,Texas,success,America/Chicago,78613,,AS11427,NA
2604:a880:ffff:12::9,,New York,United States,US,DigitalOcean,40.7234,-74.0054,"DigitalOcean, LLC",NY,New York,success,America/New_York,10013,,,NA
154.54.10.214,AS174 Cogent Communications,Dallas,United States,US,Cogent Communications,32.7767,-96.797,Cogent communications - IPENG,TX,Texas,success,America/Chicago,75270,,AS174,NA
2001:5a0:12:200::12,AS6453 TATA COMMUNICATIONS (AMERICA) INC,Montreal,Canada,CA,TATA COMMUNICATIONS (AMERICA) INC,45.5017,-73.5673,TATA COMMUNICATIONS (AMERICA) INC,QC,Quebec,success,America/Toronto,H4X,,AS6453,NA
2001:2000:3018:48::1,AS1299,Solna,Sweden,SE,Telia Company AB,59.3625,17.9989,Telia Company AB,AB,Stockholm,success,Europe/Stockholm,105 04,,AS1299,EU
138.197.251.138,,Toronto,Canada,CA,DigitalOcean,43.6644,-79.4195,"DigitalOcean, LLC",ON,Ontario,success,America/Toronto,M6G,,,NA
69.139.233.66,"AS7922 Comcast Cable Communications, LLC",Marietta,United States,US,"Comcast Cable Communications, LLC",33.9526,-84.5499,"Comcast Cable Communications, Inc",GA,Georgia,success,America/New_York,30006,,AS7922,NA
2001:1900:2100::4625,"AS3356 Level 3 Parent, LLC",San Diego,United States,US,"Level 3 Communications, Inc.",32.7405,-117.0935,Level,CA,California,success,America/Los_Angeles,92105,,AS3356,NA
68.86.87.174,"AS7922 Comcast Cable Communications, LLC",Chicago,United States,US,"Comcast Cable Communications, LLC",41.8528,-87.6228,"Comcast Cable Communications, Inc.",IL,Illinois,success,America/Chicago,60616,,AS7922,NA
62.115.47.24,AS1299,Frankfurt am Main,Germany,DE,Telia Company AB,50.1109,8.68213,Telia Company AB,HE,Hesse,success,Europe/Berlin,60313,,AS1299,EU
96.110.34.210,"AS7922 Comcast Cable Communications, LLC",Newark,United States,US,"Comcast Cable Communications, LLC",40.7357,-74.1724,"Comcast IP Services, L.L.C.",NJ,New Jersey,success,America/New_York,07175,,AS7922,NA
96.110.37.13,"AS7922 Comcast Cable Communications, LLC",Chicago,United States,US,"Comcast Cable Communications, LLC",41.8528,-87.6228,"Comcast IP Services, L.L.C.",IL,Illinois,success,America/Chicago,60616,,AS7922,NA
66.109.6.136,AS7843 Charter Communications Inc,San Jose,United States,US,Spectrum,37.3382,-121.886,Time Warner Cable Internet LLC,CA,California,success,America/Los_Angeles,95141,,AS7843,NA
2001:470:0:440::1,AS6939 Hurricane Electric LLC,San Jose,United States,US,Hurricane Electric LLC,37.2414,-121.783,Hurricane Electric,CA,California,success,America/Los_Angeles,95119,,AS6939,NA
138.197.248.42,,Toronto,Canada,CA,DigitalOcean,43.6644,-79.4195,"DigitalOcean, LLC",ON,Ontario,success,America/Toronto,M6G,,,NA
129.250.2.203,"AS2914 NTT America, Inc.",Miami,United States,US,"NTT America, Inc.",25.7617,-80.1918,"NTT America, Inc.",FL,Florida,success,America/New_York,33102,,AS2914,NA
62.115.113.239,AS1299,London,United Kingdom,GB,Telia Company AB,51.5074,-0.12775799999999998,Telia Company AB,ENG,England,success,Europe/London,W1B,,AS1299,EU
2001:506:100:53::1,,Greenwood Village,United States,US,Spectrum,39.6004,-104.891,Charter Communications,CO,Colorado,success,America/Denver,80111,,,NA
4.68.106.118,"AS3356 Level 3 Parent, LLC",London,United Kingdom,GB,"Level 3 Communications, Inc.",51.5074,-0.12775799999999998,"Level 3, LLC",ENG,England,success,Europe/London,W1B,,AS3356,EU
2001:668:0:2:ffff:0:8d88:,,,,,,,,,,,fail,,,invalid query,,AF
96.110.40.58,"AS7922 Comcast Cable Communications, LLC",Marietta,United States,US,"Comcast Cable Communications, LLC",33.9526,-84.5499,"Comcast IP Services, L.L.C.",GA,Georgia,success,America/New_York,30006,,AS7922,NA
2001:418:0:2000::21,"AS2914 NTT America, Inc.",Frankfurt am Main,Germany,DE,"NTT America, Inc.",50.1109,8.68213,"NTT America, Inc.",HE,Hesse,success,Europe/Berlin,60313,,AS2914,EU
4.69.207.37,"AS3356 Level 3 Parent, LLC",Los Angeles,United States,US,"Level 3 Communications, Inc.",34.0522,-118.244,"Level 3, LLC",CA,California,success,America/Los_Angeles,90009,,AS3356,NA
192.205.36.253,"AS7018 AT&T Services, Inc.",Indianapolis,United States,US,"AT&T Services, Inc.",39.7709,-86.1584,"AT&T Services, Inc.",IN,Indiana,success,America/Indiana/Indianapolis,46204,,AS7018,NA
2001:1890:ff:ffff:12:123:,,,,,,,,,,,fail,,,invalid query,,AF
2600:300:2050:109::1,"AS7018 AT&T Services, Inc.",Washington,United States,US,"AT&T Services, Inc.",38.9072,-77.0369,AT&T Mobility LLC,DC,District of Columbia,success,America/New_York,20068,,AS7018,NA
195.66.224.21,,London,United Kingdom,GB,LINX-PEER-LON1,51.49800000000001,-0.0143,Linx Peer Lon1,ENG,England,success,Europe/London,E14 9GE,,,EU
213.155.130.177,AS1299,Amsterdam,Netherlands,NL,Telia Company AB,52.3702,4.8951699999999985,TeliaSonera AB,NH,North Holland,success,Europe/Amsterdam,1012,,AS1299,EU
96.110.38.133,"AS7922 Comcast Cable Communications, LLC",Ashburn,United States,US,"Comcast Cable Communications, LLC",39.0438,-77.4874,"Comcast IP Services, L.L.C.",VA,Virginia,success,America/New_York,20149,,AS7922,NA
2001:504:1a::34:112,AS393424 Toronto Internet Exchange Community,Old Toronto,Canada,CA,Toronto Internet Exchange Community,43.6493,-79.3912,Toronto Internet Exchange Community,ON,Ontario,success,America/Toronto,M5V-3E3,,AS393424,NA
129.250.6.119,"AS2914 NTT America, Inc.",San Jose,United States,US,"NTT America, Inc.",37.3382,-121.886,"NTT America, Inc.",CA,California,success,America/Los_Angeles,95141,,AS2914,NA
184.105.65.114,AS6939 Hurricane Electric LLC,San Jose,United States,US,Hurricane Electric,37.2415,-121.7834,GuardLayer Inc,CA,California,success,America/Los_Angeles,95119,,AS6939,NA
184.105.64.254,AS6939 Hurricane Electric LLC,Tokyo,Japan,JP,Hurricane Electric,35.6174,139.7481,Vps21 LTD,13,Tokyo,success,Asia/Tokyo,140-0002,,AS6939,AS
96.110.32.14,"AS7922 Comcast Cable Communications, LLC",Ashburn,United States,US,"Comcast Cable Communications, LLC",39.0438,-77.4874,"Comcast IP Services, L.L.C.",VA,Virginia,success,America/New_York,20149,,AS7922,NA
157.238.179.153,"AS2914 NTT America, Inc.",Chicago,United States,US,NTT America,41.8781,-87.6298,NTT America - Global IP Network,IL,Illinois,success,America/Chicago,60666,,AS2914,NA
64.125.29.126,AS6461 Zayo Bandwidth,New York,United States,US,Zayo Bandwidth,40.7128,-74.006,Zayo Bandwidth,NY,New York,success,America/New_York,10123,,AS6461,NA
213.155.136.166,AS1299,London,United Kingdom,GB,Telia Company AB,51.5074,-0.12775799999999998,TeliaSonera AB,ENG,England,success,Europe/London,W1B,,AS1299,EU
63.218.50.53,"AS3491 PCCW Global, Inc.",Rochelle,United States,US,PCCW Global,41.9195,-89.0675,DNA Communications INC,IL,Illinois,success,America/Chicago,61068,,AS3491,NA
114.31.192.86,AS4826 Vocus Connect International Backbone,Sydney,Australia,AU,Vocus PTY LTD,-33.8591,151.2002,Vocus PTY LTD,NSW,New South Wales,success,Australia/Sydney,2000,,AS4826,OC
104.236.128.254,"AS14061 DigitalOcean, LLC",San Francisco,United States,US,"DigitalOcean, LLC",37.7353,-122.3732,"Digital Ocean, Inc.",CA,California,success,America/Los_Angeles,94124,,AS14061,NA
2001:418:0:2000::1bd,"AS2914 NTT America, Inc.",Frankfurt am Main,Germany,DE,"NTT America, Inc.",50.1109,8.68213,"NTT America, Inc.",HE,Hesse,success,Europe/Berlin,60313,,AS2914,EU
138.197.250.76,,Toronto,Canada,CA,DigitalOcean,43.6644,-79.4195,"DigitalOcean, LLC",ON,Ontario,success,America/Toronto,M6G,,,NA
68.86.84.10,"AS7922 Comcast Cable Communications, LLC",Mount Laurel,United States,US,"Comcast Cable Communications, LLC",39.9648,-74.9045,"Comcast Cable Communications, Inc.",NJ,New Jersey,success,America/New_York,08054,,AS7922,NA
2001:218:c000:2000::9,"AS2914 NTT America, Inc.",Osaka,Japan,JP,"NTT America, Inc.",34.6937,135.502,NTT Communications Corporation,27,Ōsaka,success,Asia/Tokyo,540-0002,,AS2914,AS
129.250.4.119,"AS2914 NTT America, Inc.",San Jose,United States,US,"NTT America, Inc.",37.3382,-121.886,"NTT America, Inc.",CA,California,success,America/Los_Angeles,95141,,AS2914,NA
96.110.32.77,"AS7922 Comcast Cable Communications, LLC",Ashburn,United States,US,"Comcast Cable Communications, LLC",39.0438,-77.4874,"Comcast IP Services, L.L.C.",VA,Virginia,success,America/New_York,20149,,AS7922,NA
202.84.219.182,AS4637 Telstra Global,Wanchai,Hong Kong,HK,Telstra International Limited,22.2798,114.171,Telstra International Limited,HWC,Wan Chai,success,Asia/Hong_Kong,96521,,AS4637,AS
2001:418:0:5000::ba2,"AS2914 NTT America, Inc.",Chicago,United States,US,"NTT America, Inc.",41.8781,-87.6298,"NTT America, Inc.",IL,Illinois,success,America/Chicago,60666,,AS2914,NA
2001:470:0:33b::1,AS6939 Hurricane Electric LLC,San Jose,United States,US,Hurricane Electric LLC,37.2414,-121.783,Hurricane Electric,CA,California,success,America/Los_Angeles,95119,,AS6939,NA
2604:a880:ffff:b::11,,New York,United States,US,DigitalOcean,40.7234,-74.0054,"DigitalOcean, LLC",NY,New York,success,America/New_York,10013,,,NA
45.79.12.4,"AS63949 Linode, LLC",Dallas,United States,US,"Linode, LLC",32.7787,-96.8217,Linode,TX,Texas,success,America/Chicago,75270,,AS63949,NA
66.109.6.5,AS7843 Charter Communications Inc,Tustin,United States,US,Spectrum,33.742,-117.824,Time Warner Cable Internet LLC,CA,California,success,America/Los_Angeles,92780,,AS7843,NA
180.87.38.5,AS6453 TATA COMMUNICATIONS (AMERICA) INC,Mumbai,India,IN,TATA Communications,19.076,72.8777,,MH,Maharashtra,success,Asia/Kolkata,400001,,AS6453,AS
192.205.37.57,"AS7018 AT&T Services, Inc.",Indianapolis,United States,US,"AT&T Services, Inc.",39.7709,-86.1584,"AT&T Services, Inc.",IN,Indiana,success,America/Indiana/Indianapolis,46204,,AS7018,NA
129.250.2.26,"AS2914 NTT America, Inc.",London,United Kingdom,GB,"NTT America, Inc.",51.5074,-0.12775799999999998,"NTT America, Inc.",ENG,England,success,Europe/London,W1B,,AS2914,EU
69.174.4.46,AS3257 GTT Communications Inc.,Dallas,United States,US,PacketExchange,32.7767,-96.797,GTT,TX,Texas,success,America/Chicago,75270,,AS3257,NA
2001:19f0:fc00::a42:4e,,Old Toronto,Canada,CA,Choopa,43.6509,-79.3618,GameServers.com,ON,Ontario,success,America/Toronto,M5A 4L2,,,NA
2001:578:2200:5::1f,AS22773 Cox Communications Inc.,Ashburn,United States,US,Cox Communications Inc.,39.0438,-77.4874,Cox Communications Inc,VA,Virginia,success,America/New_York,20149,,AS22773,NA
62.115.149.65,AS1299,Ashburn,United States,US,Telia Company AB,39.0438,-77.4874,Telia Company AB,VA,Virginia,success,America/New_York,20149,,AS1299,NA
80.231.131.160,AS6453 TATA COMMUNICATIONS (AMERICA) INC,London,United Kingdom,GB,TATA Communications,51.5074,-0.12775799999999998,Tata Communications Ltd.,ENG,England,success,Europe/London,W1B,,AS6453,EU
62.115.172.49,AS1299,New York,United States,US,Telia Company AB,40.7128,-74.006,Telia Company AB,NY,New York,success,America/New_York,10123,,AS1299,NA
63.223.60.58,"AS3491 PCCW Global, Inc.",San José,Costa Rica,CR,"PCCW Global, Inc.",9.92807,-84.0907,"PCCW Global, Inc.",SJ,Provincia de San Jose,success,America/Costa_Rica,11002,,AS3491,NA
2600:3c00:2222:17::1,"AS63949 Linode, LLC",Dallas,United States,US,"Linode, LLC",32.7767,-96.797,Linode,TX,Texas,success,America/Chicago,75270,,AS63949,NA
129.250.6.97,"AS2914 NTT America, Inc.",New York,United States,US,"NTT America, Inc.",40.7903,-73.9597,"NTT America, Inc.",NY,New York,success,America/New_York,10123,,AS2914,NA
138.197.249.78,,Toronto,Canada,CA,DigitalOcean,43.6644,-79.4195,"DigitalOcean, LLC",ON,Ontario,success,America/Toronto,M6G,,,NA
68.86.82.153,"AS7922 Comcast Cable Communications, LLC",Los Angeles,United States,US,"Comcast Cable Communications, LLC",34.0522,-118.244,"Comcast Cable Communications, Inc.",CA,California,success,America/Los_Angeles,90009,,AS7922,NA
66.109.5.237,AS7843 Charter Communications Inc,Atlanta,United States,US,Spectrum,33.749,-84.38799999999998,Time Warner Cable Internet LLC,GA,Georgia,success,America/New_York,30302,,AS7843,NA
138.197.244.46,,Toronto,Canada,CA,DigitalOcean,43.6644,-79.4195,"DigitalOcean, LLC",ON,Ontario,success,America/Toronto,M6G,,,NA
192.205.34.117,"AS7018 AT&T Services, Inc.",Indianapolis,United States,US,"AT&T Services, Inc.",39.7709,-86.1584,"AT&T Services, Inc.",IN,Indiana,success,America/Indiana/Indianapolis,46204,,AS7018,NA
62.115.137.39,AS1299,Los Angeles,United States,US,Telia Company AB,34.0522,-118.244,Telia Company AB,CA,California,success,America/Los_Angeles,90009,,AS1299,NA
2001:470:0:72::1,AS6939 Hurricane Electric LLC,San Jose,United States,US,Hurricane Electric LLC,37.2414,-121.783,Hurricane Electric,CA,California,success,America/Los_Angeles,95119,,AS6939,NA
2001:470:0:1b1::2,AS6939 Hurricane Electric LLC,San Jose,United States,US,Hurricane Electric LLC,37.2414,-121.783,Hurricane Electric,CA,California,success,America/Los_Angeles,95119,,AS6939,NA
2001:1900:2100::40dd,"AS3356 Level 3 Parent, LLC",San Diego,United States,US,"Level 3 Communications, Inc.",32.7405,-117.0935,Level,CA,California,success,America/Los_Angeles,92105,,AS3356,NA
2001:418:0:2000::189,"AS2914 NTT America, Inc.",Frankfurt am Main,Germany,DE,"NTT America, Inc.",50.1109,8.68213,"NTT America, Inc.",HE,Hesse,success,Europe/Berlin,60313,,AS2914,EU
129.250.3.103,"AS2914 NTT America, Inc.",San Jose,United States,US,"NTT America, Inc.",37.3382,-121.886,"NTT America, Inc.",CA,California,success,America/Los_Angeles,95141,,AS2914,NA
138.197.245.8,,Toronto,Canada,CA,DigitalOcean,43.6644,-79.4195,"DigitalOcean, LLC",ON,Ontario,success,America/Toronto,M6G,,,NA
129.250.6.49,"AS2914 NTT America, Inc.",Los Angeles,United States,US,"NTT America, Inc.",34.0522,-118.244,"NTT America, Inc.",CA,California,success,America/Los_Angeles,90009,,AS2914,NA
64.125.30.230,AS6461 Zayo Bandwidth,San Jose,United States,US,Zayo Bandwidth,37.3382,-121.886,Zayo Bandwidth,CA,California,success,America/Los_Angeles,95141,,AS6461,NA
50.242.151.69,"AS7922 Comcast Cable Communications, LLC",Little Rock,United States,US,"Comcast Cable Communications, LLC",34.7386,-92.4231,"Comcast Cable Communications, LLC",AR,Arkansas,success,America/Chicago,72211,,AS7922,NA
2001:5a0:2300:300::15,AS6453 TATA COMMUNICATIONS (AMERICA) INC,Mumbai,India,IN,TATA COMMUNICATIONS (AMERICA) INC,19.021,72.8304,TATA Communications Ltd,MH,Maharashtra,success,Asia/Kolkata,400001,,AS6453,AS
202.84.136.2,AS4637 Telstra Global,Wanchai,Hong Kong,HK,Telstra International Limited,22.2798,114.171,Telstra International Limited,HWC,Wan Chai,success,Asia/Hong_Kong,96521,,AS4637,AS
2604:a880:ffff:6:1::40a,,New York,United States,US,DigitalOcean,40.7234,-74.0054,"DigitalOcean, LLC",NY,New York,success,America/New_York,10013,,,NA
2001:1900:4:3::69e,"AS3356 Level 3 Parent, LLC",New York,United States,US,"Level 3 Communications, Inc.",40.7128,-74.006,"Level 3, LLC",NY,New York,success,America/New_York,10123,,AS3356,NA
68.86.214.226,"AS7922 Comcast Cable Communications, LLC",Ivyland,United States,US,"Comcast Cable Communications, LLC",40.2079,-75.0727,"Comcast Cable Communications, Inc.",PA,Pennsylvania,success,America/New_York,18974,,AS7922,NA
2001:728:0:5000::f8d,"AS2914 NTT America, Inc.",Paris,France,FR,Ntte Infra,48.8566,2.35222,NTT Europe Ltd.,IDF,Île-de-France,success,Europe/Paris,75000,,AS2914,EU
66.109.9.89,AS7843 Charter Communications Inc,Houston,United States,US,Spectrum,29.7604,-95.3698,Time Warner Cable Internet LLC,TX,Texas,success,America/Chicago,77052,,AS7843,NA
2001:578:1:0:172:17:249:4,AS22773 Cox Communications Inc.,Atlanta,United States,US,Cox Communications Inc.,33.9149,-84.3446,Cox Communications Inc.,GA,Georgia,success,America/New_York,30319,,AS22773,NA
129.250.7.69,"AS2914 NTT America, Inc.",Los Angeles,United States,US,"NTT America, Inc.",34.0522,-118.244,"NTT America, Inc.",CA,California,success,America/Los_Angeles,90009,,AS2914,NA
213.200.127.178,AS3257 GTT Communications Inc.,Omaha,United States,US,Tinet SpA,41.2141,-96.1365,Vente,NE,Nebraska,success,America/Chicago,68137,,AS3257,NA
96.110.39.162,"AS7922 Comcast Cable Communications, LLC",Marietta,United States,US,"Comcast Cable Communications, LLC",33.9526,-84.5499,"Comcast IP Services, L.L.C.",GA,Georgia,success,America/New_York,30006,,AS7922,NA
129.250.207.201,"AS2914 NTT America, Inc.",Seattle,United States,US,"NTT America, Inc.",47.6062,-122.332,"NTT America, Inc.",WA,Washington,success,America/Los_Angeles,98111,,AS2914,NA
129.250.6.130,"AS2914 NTT America, Inc.",Tokyo,Japan,JP,"NTT America, Inc.",35.709,139.732,"NTT America, Inc.",13,Tokyo,success,Asia/Tokyo,162-0801,,AS2914,AS
62.115.117.49,AS1299,Chicago,United States,US,Telia Company AB,41.8781,-87.6298,Telia Company AB,IL,Illinois,success,America/Chicago,60666,,AS1299,NA
2001:2000:3080:63f::1,AS1299,Solna,Sweden,SE,Telia Company AB,59.3625,17.9989,Telia Company AB,AB,Stockholm,success,Europe/Stockholm,105 04,,AS1299,EU
2001:470:0:2cf::2,AS6939 Hurricane Electric LLC,San Jose,United States,US,Hurricane Electric LLC,37.2414,-121.783,Hurricane Electric,CA,California,success,America/Los_Angeles,95119,,AS6939,NA
129.250.3.190,"AS2914 NTT America, Inc.",London,United Kingdom,GB,"NTT America, Inc.",51.5074,-0.12775799999999998,"NTT America, Inc.",ENG,England,success,Europe/London,W1B,,AS2914,EU
184.105.64.177,AS6939 Hurricane Electric LLC,New York City,United States,US,Hurricane Electric,40.7414,-74.0033,Vps21 LTD,NY,New York,success,America/New_York,10011,,AS6939,NA
2001:506:100:4000::3:4cb0,,Greenwood Village,United States,US,Spectrum,39.6004,-104.891,Charter Communications,CO,Colorado,success,America/Denver,80111,,,NA
2001:470:0:299::1,AS6939 Hurricane Electric LLC,San Jose,United States,US,Hurricane Electric LLC,37.2414,-121.783,Hurricane Electric,CA,California,success,America/Los_Angeles,95119,,AS6939,NA
66.109.5.118,AS7843 Charter Communications Inc,New York,United States,US,Spectrum,40.7831,-73.9713,Time Warner Cable Internet LLC,NY,New York,success,America/New_York,10123,,AS7843,NA
96.110.34.218,"AS7922 Comcast Cable Communications, LLC",Newark,United States,US,"Comcast Cable Communications, LLC",40.7357,-74.1724,"Comcast IP Services, L.L.C.",NJ,New Jersey,success,America/New_York,07175,,AS7922,NA
96.110.32.170,"AS7922 Comcast Cable Communications, LLC",Ashburn,United States,US,"Comcast Cable Communications, LLC",39.0438,-77.4874,"Comcast IP Services, L.L.C.",VA,Virginia,success,America/New_York,20149,,AS7922,NA
2001:506:100:f::5,,Greenwood Village,United States,US,Spectrum,39.6004,-104.891,Charter Communications,CO,Colorado,success,America/Denver,80111,,,NA
4.68.71.170,"AS3356 Level 3 Parent, LLC",Los Angeles,United States,US,"Level 3 Communications, Inc.",34.0522,-118.244,"Level 3, LLC",CA,California,success,America/Los_Angeles,90009,,AS3356,NA
2001:1900:4:3::47e,"AS3356 Level 3 Parent, LLC",New York,United States,US,"Level 3 Communications, Inc.",40.7128,-74.006,"Level 3, LLC",NY,New York,success,America/New_York,10123,,AS3356,NA
68.86.85.9,"AS7922 Comcast Cable Communications, LLC",Denver,United States,US,"Comcast Cable Communications, LLC",39.7392,-104.99,"Comcast Cable Communications, Inc.",CO,Colorado,success,America/Denver,80208,,AS7922,NA
68.1.0.185,AS22773 Cox Communications Inc.,Macon,United States,US,Cox Communications Inc.,32.7486,-83.7477,Cox Communications Inc.,GA,Georgia,success,America/New_York,31216,,AS22773,NA
2001:1900::3:196,"AS3356 Level 3 Parent, LLC",New York,United States,US,"Level 3 Communications, Inc.",40.7128,-74.006,"Level 3, LLC",NY,New York,success,America/New_York,10123,,AS3356,NA
fd42:9f74:2ca8:5f90::1,,,,,,,,,,,fail,,,private range,,AF
192.205.34.53,"AS7018 AT&T Services, Inc.",Indianapolis,United States,US,"AT&T Services, Inc.",39.7709,-86.1584,"AT&T Services, Inc.",IN,Indiana,success,America/Indiana/Indianapolis,46204,,AS7018,NA
213.254.230.169,AS3257 GTT Communications Inc.,Marbella,Spain,ES,Tinet SpA,36.5094,-4.8871400000000005,Web Costasol,AN,Andalusia,success,Europe/Madrid,29600,,AS3257,EU
2001:470:0:3c1::2,AS6939 Hurricane Electric LLC,San Jose,United States,US,Hurricane Electric LLC,37.2414,-121.783,Hurricane Electric,CA,California,success,America/Los_Angeles,95119,,AS6939,NA
96.34.0.177,,Ashburn,United States,US,Spectrum,39.0481,-77.4728,Charter Communications,VA,Virginia,success,America/New_York,20149,,,NA
96.110.32.81,"AS7922 Comcast Cable Communications, LLC",Ashburn,United States,US,"Comcast Cable Communications, LLC",39.0438,-77.4874,"Comcast IP Services, L.L.C.",VA,Virginia,success,America/New_York,20149,,AS7922,NA
138.197.249.104,"AS14061 DigitalOcean, LLC",Toronto,Canada,CA,DigitalOcean,43.6644,-79.4195,"DigitalOcean, LLC",ON,Ontario,success,America/Toronto,M6G,,AS14061,NA
129.250.4.142,"AS2914 NTT America, Inc.",Seattle,United States,US,"NTT America, Inc.",47.6062,-122.332,"NTT America, Inc.",WA,Washington,success,America/Los_Angeles,98111,,AS2914,NA
80.239.135.179,AS1299,Paris,France,FR,Telia Company AB,48.8566,2.35222,De Telianet,IDF,Île-de-France,success,Europe/Paris,75000,,AS1299,EU
2001:506:100:238::2,,Greenwood Village,United States,US,Spectrum,39.6004,-104.891,Charter Communications,CO,Colorado,success,America/Denver,80111,,,NA
138.197.249.0,,Toronto,Canada,CA,DigitalOcean,43.6644,-79.4195,"DigitalOcean, LLC",ON,Ontario,success,America/Toronto,M6G,,,NA
2001:506:100:32d::1,,Greenwood Village,United States,US,Spectrum,39.6004,-104.891,Charter Communications,CO,Colorado,success,America/Denver,80111,,,NA
138.197.251.134,,Toronto,Canada,CA,DigitalOcean,43.6644,-79.4195,"DigitalOcean, LLC",ON,Ontario,success,America/Toronto,M6G,,,NA
128.199.32.254,"AS14061 DigitalOcean, LLC",Amsterdam,Netherlands,NL,"DigitalOcean, LLC",52.374,4.8897,Digital Ocean,NH,North Holland,success,Europe/Amsterdam,1012,,AS14061,EU
138.197.244.36,,Toronto,Canada,CA,DigitalOcean,43.6644,-79.4195,"DigitalOcean, LLC",ON,Ontario,success,America/Toronto,M6G,,,NA
96.110.38.74,"AS7922 Comcast Cable Communications, LLC",Ashburn,United States,US,"Comcast Cable Communications, LLC",39.0438,-77.4874,"Comcast IP Services, L.L.C.",VA,Virginia,success,America/New_York,20149,,AS7922,NA
68.105.30.225,AS22773 Cox Communications Inc.,Cleveland,United States,US,Cox Communications Inc.,41.3844,-81.7003,Cox Communications Inc.,OH,Ohio,success,America/New_York,44134,,AS22773,NA
96.110.36.109,"AS7922 Comcast Cable Communications, LLC",Newark,United States,US,"Comcast Cable Communications, LLC",40.7357,-74.1724,"Comcast IP Services, L.L.C.",NJ,New Jersey,success,America/New_York,07175,,AS7922,NA
2001:1900::3:21f,"AS3356 Level 3 Parent, LLC",New York,United States,US,"Level 3 Communications, Inc.",40.7128,-74.006,"Level 3, LLC",NY,New York,success,America/New_York,10123,,AS3356,NA
71.155.13.13,"AS7018 AT&T Services, Inc.",Chicago,United States,US,"AT&T Services, Inc.",41.8781,-87.6298,AT&T Corp,IL,Illinois,success,America/Chicago,60666,,AS7018,NA
96.110.36.97,"AS7922 Comcast Cable Communications, LLC",Newark,United States,US,"Comcast Cable Communications, LLC",40.7357,-74.1724,"Comcast IP Services, L.L.C.",NJ,New Jersey,success,America/New_York,07175,,AS7922,NA
62.115.125.158,AS1299,Kansas City,United States,US,Telia Company AB,39.1141,-94.6275,Telia Company AB,KS,Kansas,success,America/Chicago,66117,,AS1299,NA
206.223.116.37,"AS701 MCI Communications Services, Inc. d/b/a Verizon Business",San Jose,United States,US,"MCI Communications Services, Inc. d/b/a Verizon Business",37.2415,-121.7834,"Equinix, Inc.",CA,California,success,America/Los_Angeles,95119,,AS701,NA
64.125.54.210,AS6461 Zayo Bandwidth,New York,United States,US,Zayo Bandwidth,40.7128,-74.006,Zayo Bandwidth,NY,New York,success,America/New_York,10123,,AS6461,NA
96.34.3.2,,Ashburn,United States,US,Spectrum,39.0481,-77.4728,Charter Communications,VA,Virginia,success,America/New_York,20149,,,NA
2001:578:20::d,AS22773 Cox Communications Inc.,Atlanta,United States,US,Cox Communications Inc.,33.9149,-84.3446,Cox Communications Inc,GA,Georgia,success,America/New_York,30319,,AS22773,NA
129.250.3.129,"AS2914 NTT America, Inc.",New York,United States,US,"NTT America, Inc.",40.7903,-73.9597,"NTT America, Inc.",NY,New York,success,America/New_York,10123,,AS2914,NA
2400:8902:b::1,"AS63949 Linode, LLC",Tokyo,Japan,JP,"Linode, LLC",35.6882,139.7532,LINODE,13,Tokyo,success,Asia/Tokyo,102-0082,,AS63949,AS
157.238.179.237,"AS2914 NTT America, Inc.",Chicago,United States,US,NTT America,41.8781,-87.6298,NTT America - Global IP Network,IL,Illinois,success,America/Chicago,60666,,AS2914,NA
66.109.6.11,AS7843 Charter Communications Inc,San Jose,United States,US,Spectrum,37.3382,-121.886,Time Warner Cable Internet LLC,CA,California,success,America/Los_Angeles,95141,,AS7843,NA
157.238.179.217,"AS2914 NTT America, Inc.",Chicago,United States,US,NTT America,41.8781,-87.6298,NTT America - Global IP Network,IL,Illinois,success,America/Chicago,60666,,AS2914,NA
4.30.178.30,"AS3356 Level 3 Parent, LLC",New York,United States,US,"Level 3 Communications, Inc.",40.7263,-73.9818,Level 3,NY,New York,success,America/New_York,10009,,AS3356,NA
138.197.248.214,,Toronto,Canada,CA,DigitalOcean,43.6644,-79.4195,"DigitalOcean, LLC",ON,Ontario,success,America/Toronto,M6G,,,NA
138.197.250.94,,Toronto,Canada,CA,DigitalOcean,43.6644,-79.4195,"DigitalOcean, LLC",ON,Ontario,success,America/Toronto,M6G,,,NA
66.160.133.118,AS6939 Hurricane Electric LLC,Seattle,United States,US,Hurricane Electric LLC,47.6143,-122.3388,Hurricane Electric,WA,Washington,success,America/Los_Angeles,98121,,AS6939,NA
2001:668:0:2:ffff:0:d5fe:,,,,,,,,,,,fail,,,invalid query,,AF
80.91.248.157,AS1299,London,United Kingdom,GB,Telia Company AB,51.5074,-0.12775799999999998,TeliaSonera AB,ENG,England,success,Europe/London,W1B,,AS1299,EU
168.143.229.58,"AS2914 NTT America, Inc.",Chicago,United States,US,NTT America,41.8781,-87.6298,NTT America - Global IP Network,IL,Illinois,success,America/Chicago,60666,,AS2914,NA
66.68.1.66,AS11427 Charter Communications Inc,Cedar Park,United States,US,Charter Communications Inc,30.5045,-97.8209,Spectrum,TX,Texas,success,America/Chicago,78613,,AS11427,NA
2600:8805:ff04:101:b8c1:9,,,,,,,,,,,fail,,,invalid query,,AF
138.197.250.122,"AS14061 DigitalOcean, LLC",Toronto,Canada,CA,"DigitalOcean, LLC",43.6644,-79.4195,"DigitalOcean, LLC",ON,Ontario,success,America/Toronto,M6G,,AS14061,NA
96.110.26.218,"AS7922 Comcast Cable Communications, LLC",McKeesport,United States,US,"Comcast Cable Communications, LLC",40.3471,-79.8641,"Comcast IP Services, L.L.C.",PA,Pennsylvania,success,America/New_York,15131,,AS7922,NA
64.125.31.104,AS6461 Zayo Bandwidth,Seattle,United States,US,Zayo Bandwidth,47.6062,-122.332,Zayo Bandwidth,WA,Washington,success,America/Los_Angeles,98111,,AS6461,NA
24.58.52.189,AS11351 Charter Communications Inc,East Syracuse,United States,US,Charter Communications Inc,43.0653,-76.0785,Spectrum,NY,New York,success,America/New_York,13057,,AS11351,NA
213.200.119.182,AS3257 GTT Communications Inc.,Boca Raton,United States,US,Tinet SpA,26.3955,-80.0771,Bravatas,FL,Florida,success,America/New_York,33487,,AS3257,NA
213.198.52.57,"AS2914 NTT America, Inc.",Frankfurt am Main,Germany,DE,"NTT America, Inc.",50.1109,8.68213,"NTT Europe, Ltd.",HE,Hesse,success,Europe/Berlin,60313,,AS2914,EU
140.222.2.51,,Purchase,United States,US,ANS CO+RE Systems,41.0267,-73.7155,"ANS CO+RE Systems, Inc.",NY,New York,success,America/New_York,10577,,,NA
63.243.128.37,AS6453 TATA COMMUNICATIONS (AMERICA) INC,New York,United States,US,TATA COMMUNICATIONS (AMERICA) INC,40.7414,-74.0032,Tata Communications Ltd,NY,New York,success,America/New_York,10011,,AS6453,NA
2001:418:0:2000::246,"AS2914 NTT America, Inc.",Frankfurt am Main,Germany,DE,"NTT America, Inc.",50.1109,8.68213,"NTT America, Inc.",HE,Hesse,success,Europe/Berlin,60313,,AS2914,EU
80.239.192.37,AS1299,New York,United States,US,Telia Company AB,40.7128,-74.006,PL Telianet,NY,New York,success,America/New_York,10123,,AS1299,NA
66.109.6.7,AS7843 Charter Communications Inc,Los Angeles,United States,US,Spectrum,34.0522,-118.244,Time Warner Cable Internet LLC,CA,California,success,America/Los_Angeles,90009,,AS7843,NA
66.109.6.53,AS7843 Charter Communications Inc,Dallas,United States,US,Spectrum,32.7767,-96.797,Time Warner Cable Internet LLC,TX,Texas,success,America/Chicago,75270,,AS7843,NA
2604:a880:ffff:7:1::19,,New York,United States,US,DigitalOcean,40.7234,-74.0054,"DigitalOcean, LLC",NY,New York,success,America/New_York,10013,,,NA
119.27.49.116,AS17819 Equinix Asia Pacific,Chuo,Japan,JP,Equinix Asia Pacific Pte Ltd,35.68199999999999,139.774,Equinix Asia Pacific Pte Ltd,13,Tokyo,success,Asia/Tokyo,289-2614,,AS17819,AS
184.105.250.38,AS6939 Hurricane Electric LLC,Chicago,United States,US,Hurricane Electric LLC,41.8547,-87.6185,Hurricane Electric,IL,Illinois,success,America/Chicago,60616,,AS6939,NA
129.250.9.62,"AS2914 NTT America, Inc.",Los Angeles,United States,US,"NTT America, Inc.",34.0522,-118.244,"NTT America, Inc.",CA,California,success,America/Los_Angeles,90009,,AS2914,NA
204.68.252.97,,San Jose,United States,US,AGIS,37.3382,-121.886,AGIS,CA,California,success,America/Los_Angeles,95141,,,NA
4.68.74.178,"AS3356 Level 3 Parent, LLC",Newark,United States,US,"Level 3 Communications, Inc.",40.7357,-74.1724,"Level 3, LLC",NJ,New Jersey,success,America/New_York,07175,,AS3356,NA
2001:470:0:4d9::1,AS6939 Hurricane Electric LLC,San Jose,United States,US,Hurricane Electric LLC,37.2414,-121.783,Hurricane Electric,CA,California,success,America/Los_Angeles,95119,,AS6939,NA
96.110.40.46,"AS7922 Comcast Cable Communications, LLC",Marietta,United States,US,"Comcast Cable Communications, LLC",33.9526,-84.5499,"Comcast IP Services, L.L.C.",GA,Georgia,success,America/New_York,30006,,AS7922,NA
2001:1890:ff:ffff:12:83:1,,,,,,,,,,,fail,,,invalid query,,AF
195.12.254.196,AS1299,Frankfurt am Main,Germany,DE,Telia Company AB,50.1109,8.68213,Telianet,HE,Hesse,success,Europe/Berlin,60313,,AS1299,EU
140.222.237.15,,Purchase,United States,US,ANS CO+RE Systems,41.0267,-73.7155,"ANS CO+RE Systems, Inc.",NY,New York,success,America/New_York,10577,,,NA
162.243.191.247,"AS14061 DigitalOcean, LLC",Newark,United States,US,"DigitalOcean, LLC",40.7357,-74.1724,"DigitalOcean, LLC",NJ,New Jersey,success,America/New_York,07175,,AS14061,NA
204.148.11.237,"AS701 MCI Communications Services, Inc. d/b/a Verizon Business",Los Angeles,United States,US,Verizon Communications,34.0584,-118.278,"ANS Communications, Inc",CA,California,success,America/Los_Angeles,90017,,AS701,NA
100.41.0.37,"AS701 MCI Communications Services, Inc. d/b/a Verizon Business",Albany,United States,US,"MCI Communications Services, Inc. d/b/a Verizon Business",42.6526,-73.7562,Verizon Communications,NY,New York,success,America/New_York,12201,,AS701,NA
2400:6180:0:d0:ffff:ffff:,,,,,,,,,,,fail,,,invalid query,,AF
2604:a880:ffff:7:1::11,,New York,United States,US,DigitalOcean,40.7234,-74.0054,"DigitalOcean, LLC",NY,New York,success,America/New_York,10013,,,NA
67.83.246.14,AS6128 Cablevision Systems Corp.,Lyndhurst,United States,US,Cablevision Systems Corp.,40.812,-74.1243,Optimum Online,NJ,New Jersey,success,America/New_York,07071,,AS6128,NA
66.110.96.150,AS6453 TATA COMMUNICATIONS (AMERICA) INC,New York,United States,US,TATA COMMUNICATIONS (AMERICA) INC,40.7308,-73.9975,Tata Communications,NY,New York,success,America/New_York,10011,,AS6453,NA
96.110.32.109,"AS7922 Comcast Cable Communications, LLC",Ashburn,United States,US,"Comcast Cable Communications, LLC",39.0438,-77.4874,"Comcast IP Services, L.L.C.",VA,Virginia,success,America/New_York,20149,,AS7922,NA
2001:506:100:7c34::2,,Greenwood Village,United States,US,Spectrum,39.6004,-104.891,Charter Communications,CO,Colorado,success,America/Denver,80111,,,NA
140.222.233.103,,Purchase,United States,US,ANS CO+RE Systems,41.0267,-73.7155,"ANS CO+RE Systems, Inc.",NY,New York,success,America/New_York,10577,,,NA
96.110.39.49,"AS7922 Comcast Cable Communications, LLC",Marietta,United States,US,"Comcast Cable Communications, LLC",33.9526,-84.5499,"Comcast IP Services, L.L.C.",GA,Georgia,success,America/New_York,30006,,AS7922,NA
202.68.65.5,"AS2914 NTT America, Inc.",Sydney,Australia,AU,"NTT America, Inc.",-33.8649,151.204,NTT Australia Pty Ltd,NSW,New South Wales,success,Australia/Sydney,1001,,AS2914,OC
2001:1900::3:19b,"AS3356 Level 3 Parent, LLC",New York,United States,US,"Level 3 Communications, Inc.",40.7128,-74.006,"Level 3, LLC",NY,New York,success,America/New_York,10123,,AS3356,NA
138.197.251.142,,Toronto,Canada,CA,DigitalOcean,43.6644,-79.4195,"DigitalOcean, LLC",ON,Ontario,success,America/Toronto,M6G,,,NA
96.110.34.166,"AS7922 Comcast Cable Communications, LLC",Newark,United States,US,"Comcast Cable Communications, LLC",40.7357,-74.1724,"Comcast IP Services, L.L.C.",NJ,New Jersey,success,America/New_York,07175,,AS7922,NA
140.222.233.93,,Purchase,United States,US,ANS CO+RE Systems,41.0267,-73.7155,"ANS CO+RE Systems, Inc.",NY,New York,success,America/New_York,10577,,,NA
2001:418:0:2000::aa,"AS2914 NTT America, Inc.",Frankfurt am Main,Germany,DE,"NTT America, Inc.",50.1109,8.68213,"NTT America, Inc.",HE,Hesse,success,Europe/Berlin,60313,,AS2914,EU
173.167.57.17,"AS7922 Comcast Cable Communications, LLC",San Antonio,United States,US,"Comcast Cable Communications, LLC",29.4809,-98.6014,"Comcast Cable Communications, LLC",TX,Texas,success,America/Chicago,78238,,AS7922,NA
fd00:0:b::3,,,,,,,,,,,fail,,,private range,,AF
212.73.205.85,"AS3356 Level 3 Parent, LLC",Paris,France,FR,"Level 3 Communications, Inc.",48.8566,2.35222,Ipercast,IDF,Île-de-France,success,Europe/Paris,75000,,AS3356,EU
96.110.37.162,"AS7922 Comcast Cable Communications, LLC",Chicago,United States,US,"Comcast Cable Communications, LLC",41.8528,-87.6228,"Comcast IP Services, L.L.C.",IL,Illinois,success,America/Chicago,60616,,AS7922,NA
68.86.84.169,"AS7922 Comcast Cable Communications, LLC",Mount Laurel,United States,US,"Comcast Cable Communications, LLC",39.9648,-74.9045,"Comcast Cable Communications, Inc.",NJ,New Jersey,success,America/New_York,08054,,AS7922,NA
fd00:0:b::1,,,,,,,,,,,fail,,,private range,,AF
64.125.29.18,AS6461 Zayo Bandwidth,Chicago,United States,US,Zayo Bandwidth,41.8781,-87.6298,Zayo Bandwidth,IL,Illinois,success,America/Chicago,60666,,AS6461,NA
4.7.26.46,"AS3356 Level 3 Parent, LLC",Fullerton,United States,US,"Level 3 Communications, Inc.",33.884,-117.8941,"Level 3 Communications, Inc.",CA,California,success,America/Los_Angeles,92831,,AS3356,NA
129.250.2.186,"AS2914 NTT America, Inc.",Los Angeles,United States,US,"NTT America, Inc.",34.0522,-118.244,"NTT America, Inc.",CA,California,success,America/Los_Angeles,90009,,AS2914,NA
100.41.9.121,"AS701 MCI Communications Services, Inc. d/b/a Verizon Business",Boston,United States,US,"MCI Communications Services, Inc. d/b/a Verizon Business",42.3601,-71.0589,Verizon Communications,MA,Massachusetts,success,America/New_York,02112,,AS701,NA
24.58.201.122,AS11351 Charter Communications Inc,Chestertown,United States,US,Charter Communications Inc,43.6529,-73.8013,Spectrum,NY,New York,success,America/New_York,12817,,AS11351,NA
2604:a880:ffff:4:1::16,,New York,United States,US,DigitalOcean,40.7234,-74.0054,"DigitalOcean, LLC",NY,New York,success,America/New_York,10013,,,NA
129.250.3.123,"AS2914 NTT America, Inc.",Los Angeles,United States,US,"NTT America, Inc.",34.0522,-118.244,"NTT America, Inc.",CA,California,success,America/Los_Angeles,90009,,AS2914,NA
80.231.130.106,AS6453 TATA COMMUNICATIONS (AMERICA) INC,London,United Kingdom,GB,TATA Communications,51.5074,-0.12775799999999998,Tata Communications Ltd.,ENG,England,success,Europe/London,W1B,,AS6453,EU
2001:2000:3019:6c::1,AS1299,Solna,Sweden,SE,Telia Company AB,59.3625,17.9989,Telia Company AB,AB,Stockholm,success,Europe/Stockholm,105 04,,AS1299,EU
100.41.130.215,"AS701 MCI Communications Services, Inc. d/b/a Verizon Business",Philadelphia,United States,US,"MCI Communications Services, Inc. d/b/a Verizon Business",39.9526,-75.1652,Verizon Communications,PA,Pennsylvania,success,America/New_York,19099,,AS701,NA
2001:19f0:5800:40::1,"AS20473 Choopa, LLC",Alexandria,Australia,AU,Choopa,-33.9118,151.19299999999996,"Vultr Holdings, LLC",NSW,New South Wales,success,Australia/Sydney,2015,,AS20473,OC
66.109.6.3,AS7843 Charter Communications Inc,Vienna,United States,US,Spectrum,38.9012,-77.2653,Time Warner Cable Internet LLC,VA,Virginia,success,America/New_York,22180,,AS7843,NA
2600:3c00:2222:10::2,"AS63949 Linode, LLC",Dallas,United States,US,"Linode, LLC",32.7767,-96.797,Linode,TX,Texas,success,America/Chicago,75270,,AS63949,NA
2604:a880:ffff:4:1::1e,,New York,United States,US,DigitalOcean,40.7234,-74.0054,"DigitalOcean, LLC",NY,New York,success,America/New_York,10013,,,NA
129.250.3.193,"AS2914 NTT America, Inc.",Los Angeles,United States,US,"NTT America, Inc.",34.0522,-118.244,"NTT America, Inc.",CA,California,success,America/Los_Angeles,90009,,AS2914,NA
64.86.33.53,AS6453 TATA COMMUNICATIONS (AMERICA) INC,Old Toronto,Canada,CA,TATA COMMUNICATIONS (AMERICA) INC,43.6446,-79.3842,Tata Communications,ON,Ontario,success,America/Toronto,M5J-2N1,,AS6453,NA
138.197.244.26,,Toronto,Canada,CA,DigitalOcean,43.6644,-79.4195,"DigitalOcean, LLC",ON,Ontario,success,America/Toronto,M6G,,,NA
2001:506:100:40ef::2,,Greenwood Village,United States,US,Spectrum,39.6004,-104.891,Charter Communications,CO,Colorado,success,America/Denver,80111,,,NA
128.199.32.253,"AS14061 DigitalOcean, LLC",Amsterdam,Netherlands,NL,"DigitalOcean, LLC",52.374,4.8897,Digital Ocean,NH,North Holland,success,Europe/Amsterdam,1012,,AS14061,EU
62.115.137.99,AS1299,New York,United States,US,Telia Company AB,40.7128,-74.006,Telia Company AB,NY,New York,success,America/New_York,10123,,AS1299,NA
210.176.40.27,AS4637 Telstra Global,Palo Alto,United States,US,Telstra International Limited,37.4419,-122.143,Telstra Xinova,CA,California,success,America/Los_Angeles,94302,,AS4637,NA
2404:a800::92,AS9498 BHARTI Airtel Ltd.,New Delhi,India,IN,Bharti Airtel Limited,28.552,77.2695,BHARTI,DL,National Capital Territory of Delhi,success,Asia/Kolkata,110001,,AS9498,AS
68.86.84.150,"AS7922 Comcast Cable Communications, LLC",Mount Laurel,United States,US,"Comcast Cable Communications, LLC",39.9648,-74.9045,"Comcast Cable Communications, Inc.",NJ,New Jersey,success,America/New_York,08054,,AS7922,NA
62.115.125.128,AS1299,Atlanta,United States,US,Telia Company AB,33.749,-84.38799999999998,Telia Company AB,GA,Georgia,success,America/New_York,30302,,AS1299,NA
62.115.115.1,AS1299,New York,United States,US,Telia Company AB,40.7128,-74.006,Telia Company AB,NY,New York,success,America/New_York,10123,,AS1299,NA
66.110.96.5,AS6453 TATA COMMUNICATIONS (AMERICA) INC,New York,United States,US,TATA COMMUNICATIONS (AMERICA) INC,40.7308,-73.9975,Tata Communications,NY,New York,success,America/New_York,10011,,AS6453,NA
64.125.31.60,AS6461 Zayo Bandwidth,Dallas,United States,US,Zayo Bandwidth,32.7767,-96.797,Zayo Bandwidth,TX,Texas,success,America/Chicago,75270,,AS6461,NA
129.250.6.128,"AS2914 NTT America, Inc.",Tokyo,Japan,JP,"NTT America, Inc.",35.709,139.732,"NTT America, Inc.",13,Tokyo,success,Asia/Tokyo,162-0801,,AS2914,AS
100.41.9.123,"AS701 MCI Communications Services, Inc. d/b/a Verizon Business",Boston,United States,US,"MCI Communications Services, Inc. d/b/a Verizon Business",42.3601,-71.0589,Verizon Communications,MA,Massachusetts,success,America/New_York,02112,,AS701,NA
129.250.5.13,"AS2914 NTT America, Inc.",Ashburn,United States,US,"NTT America, Inc.",39.0438,-77.4874,"NTT America, Inc.",VA,Virginia,success,America/New_York,20149,,AS2914,NA
68.86.91.30,"AS7922 Comcast Cable Communications, LLC",Chicago,United States,US,"Comcast Cable Communications, LLC",41.8528,-87.6228,"Comcast Cable Communications, Inc.",IL,Illinois,success,America/Chicago,60616,,AS7922,NA
2600:387:5:805::26,AS20057 AT&T Mobility LLC,Brooklyn,United States,US,AT&T Mobility LLC,40.6186,-73.9272,AT&T Mobility LLC,NY,New York,success,America/New_York,11234,,AS20057,NA
96.110.37.9,"AS7922 Comcast Cable Communications, LLC",Chicago,United States,US,"Comcast Cable Communications, LLC",41.8528,-87.6228,"Comcast IP Services, L.L.C.",IL,Illinois,success,America/Chicago,60616,,AS7922,NA
139.162.64.20,"AS63949 Linode, LLC",Tokyo,Japan,JP,"Linode, LLC",35.6882,139.7532,"Linode, LLC",13,Tokyo,success,Asia/Tokyo,102-0082,,AS63949,AS
62.115.113.19,AS1299,Chicago,United States,US,Telia Company AB,41.8781,-87.6298,Telia Company AB,IL,Illinois,success,America/Chicago,60666,,AS1299,NA
96.110.39.165,"AS7922 Comcast Cable Communications, LLC",Marietta,United States,US,"Comcast Cable Communications, LLC",33.9526,-84.5499,"Comcast IP Services, L.L.C.",GA,Georgia,success,America/New_York,30006,,AS7922,NA
62.115.123.137,AS1299,Los Angeles,United States,US,Telia Company AB,34.0522,-118.244,Telia Company AB,CA,California,success,America/Los_Angeles,90009,,AS1299,NA
213.248.87.254,AS1299,Chicago,United States,US,Telia Company AB,41.8781,-87.6298,Telia Company AB,IL,Illinois,success,America/Chicago,60666,,AS1299,NA
206.223.118.135,AS7713 PT Telekomunikasi Indonesia,Redwood Shores,United States,US,Telekomunikasi Indonesia,37.5272,-122.261,"Equinix, Inc",CA,California,success,America/Los_Angeles,94065,,AS7713,NA
66.109.6.15,AS7843 Charter Communications Inc,Chicago,United States,US,Spectrum,41.8781,-87.6298,Time Warner Cable Internet LLC,IL,Illinois,success,America/Chicago,60666,,AS7843,NA
138.197.248.38,,Toronto,Canada,CA,DigitalOcean,43.6644,-79.4195,"DigitalOcean, LLC",ON,Ontario,success,America/Toronto,M6G,,,NA
2001:2000:3080:1f54::2,AS1299,Solna,Sweden,SE,Telia Company AB,59.3625,17.9989,Telia Company AB,AB,Stockholm,success,Europe/Stockholm,105 04,,AS1299,EU
138.197.249.98,"AS14061 DigitalOcean, LLC",Toronto,Canada,CA,DigitalOcean,43.6644,-79.4195,"DigitalOcean, LLC",ON,Ontario,success,America/Toronto,M6G,,AS14061,NA
96.110.34.225,"AS7922 Comcast Cable Communications, LLC",Newark,United States,US,"Comcast Cable Communications, LLC",40.7357,-74.1724,"Comcast IP Services, L.L.C.",NJ,New Jersey,success,America/New_York,07175,,AS7922,NA
63.217.21.114,"AS3491 PCCW Global, Inc.",Palo Alto,United States,US,"PCCW Global, Inc.",37.4419,-122.143,"PCCW Global, Inc.",CA,California,success,America/Los_Angeles,94302,,AS3491,NA
62.115.116.46,AS1299,Ashburn,United States,US,Telia Company AB,39.0438,-77.4874,Telia Company AB,VA,Virginia,success,America/New_York,20149,,AS1299,NA
2001:418:16::f1,"AS2914 NTT America, Inc.",Chicago,United States,US,"NTT America, Inc.",41.8781,-87.6298,"NTT America, Inc.",IL,Illinois,success,America/Chicago,60666,,AS2914,NA
24.58.50.51,AS11351 Charter Communications Inc,New York,United States,US,Charter Communications Inc,40.7128,-74.0059,Spectrum,NY,New York,success,America/New_York,10123,,AS11351,NA
2604:a880:ffff:c::35,,New York,United States,US,DigitalOcean,40.7234,-74.0054,"DigitalOcean, LLC",NY,New York,success,America/New_York,10013,,,NA
202.84.224.198,AS4637 Telstra Global,Wanchai,Hong Kong,HK,Telstra International Limited,22.2798,114.171,Telstra International Limited,HWC,Wan Chai,success,Asia/Hong_Kong,96521,,AS4637,AS
2604:a880:ffff:6:1::42d,,New York,United States,US,DigitalOcean,40.7234,-74.0054,"DigitalOcean, LLC",NY,New York,success,America/New_York,10013,,,NA
46.101.0.254,"AS14061 DigitalOcean, LLC",London,United Kingdom,GB,"DigitalOcean, LLC",51.5353,-0.6658,Digital Ocean,ENG,England,success,Europe/London,SL1,,AS14061,EU
2600:3c00::8678:acff:fe1c,"AS63949 Linode, LLC",Dallas,United States,US,"Linode, LLC",32.7767,-96.797,Linode,TX,Texas,success,America/Chicago,75270,,AS63949,NA
96.110.35.58,"AS7922 Comcast Cable Communications, LLC",Chicago,United States,US,"Comcast Cable Communications, LLC",41.8528,-87.6228,"Comcast IP Services, L.L.C.",IL,Illinois,success,America/Chicago,60616,,AS7922,NA
2001:470:0:20a::1,AS6939 Hurricane Electric LLC,San Jose,United States,US,Hurricane Electric LLC,37.2414,-121.783,Hurricane Electric,CA,California,success,America/Los_Angeles,95119,,AS6939,NA
138.197.249.14,,Toronto,Canada,CA,DigitalOcean,43.6644,-79.4195,"DigitalOcean, LLC",ON,Ontario,success,America/Toronto,M6G,,,NA
2001:418:0:2000::152,"AS2914 NTT America, Inc.",Frankfurt am Main,Germany,DE,"NTT America, Inc.",50.1109,8.68213,"NTT America, Inc.",HE,Hesse,success,Europe/Berlin,60313,,AS2914,EU
138.197.250.210,"AS14061 DigitalOcean, LLC",Toronto,Canada,CA,"DigitalOcean, LLC",43.6644,-79.4195,"DigitalOcean, LLC",ON,Ontario,success,America/Toronto,M6G,,AS14061,NA
45.79.12.9,"AS63949 Linode, LLC",Dallas,United States,US,"Linode, LLC",32.7787,-96.8217,Linode,TX,Texas,success,America/Chicago,75270,,AS63949,NA
63.218.7.62,"AS3491 PCCW Global, Inc.",San José,Costa Rica,CR,"PCCW Global, Inc.",9.92807,-84.0907,"PCCW Global, Inc.",SJ,Provincia de San Jose,success,America/Costa_Rica,11002,,AS3491,NA
139.162.65.2,"AS63949 Linode, LLC",Tokyo,Japan,JP,"Linode, LLC",35.6882,139.7532,"Linode, LLC",13,Tokyo,success,Asia/Tokyo,102-0082,,AS63949,AS
64.125.26.138,AS6461 Zayo Bandwidth,New York,United States,US,Zayo Bandwidth,40.7128,-74.006,Zayo Bandwidth,NY,New York,success,America/New_York,10123,,AS6461,NA
68.86.84.193,"AS7922 Comcast Cable Communications, LLC",Mount Laurel,United States,US,"Comcast Cable Communications, LLC",39.9648,-74.9045,"Comcast Cable Communications, Inc.",NJ,New Jersey,success,America/New_York,08054,,AS7922,NA
98.184.206.232,AS22773 Cox Communications Inc.,San Pedro,United States,US,Cox Communications Inc.,33.7421,-118.3102,Cox Communications Inc.,CA,California,success,America/Los_Angeles,90732,,AS22773,NA
2604:a880:ffff:9::211,,New York,United States,US,DigitalOcean,40.7234,-74.0054,"DigitalOcean, LLC",NY,New York,success,America/New_York,10013,,,NA
2001:470:0:311::1,AS6939 Hurricane Electric LLC,San Jose,United States,US,Hurricane Electric LLC,37.2414,-121.783,Hurricane Electric,CA,California,success,America/Los_Angeles,95119,,AS6939,NA
2604:a880:ffff:0:1::99,,New York,United States,US,DigitalOcean,40.7234,-74.0054,"DigitalOcean, LLC",NY,New York,success,America/New_York,10013,,,NA
2001:668:0:3:ffff:0:2e21:,,,,,,,,,,,fail,,,invalid query,,AF
68.86.85.202,"AS7922 Comcast Cable Communications, LLC",Denver,United States,US,"Comcast Cable Communications, LLC",39.7392,-104.99,"Comcast Cable Communications, Inc.",CO,Colorado,success,America/Denver,80208,,AS7922,NA
129.250.6.54,"AS2914 NTT America, Inc.",Newark,United States,US,"NTT America, Inc.",40.7357,-74.1724,"NTT America, Inc.",NJ,New Jersey,success,America/New_York,07175,,AS2914,NA
2001:218:0:2000::c2,"AS2914 NTT America, Inc.",Seattle,United States,US,"NTT America, Inc.",47.6062,-122.332,NTT Communications Corporation,WA,Washington,success,America/Los_Angeles,98111,,AS2914,NA
2001:418:0:2000::de,"AS2914 NTT America, Inc.",Frankfurt am Main,Germany,DE,"NTT America, Inc.",50.1109,8.68213,"NTT America, Inc.",HE,Hesse,success,Europe/Berlin,60313,,AS2914,EU
24.58.50.71,AS11351 Charter Communications Inc,New York,United States,US,Charter Communications Inc,40.7128,-74.0059,Spectrum,NY,New York,success,America/New_York,10123,,AS11351,NA
96.108.118.22,"AS7922 Comcast Cable Communications, LLC",Linglestown,United States,US,"Comcast Cable Communications, LLC",40.3337,-76.7996,"Comcast Cable Communications, LLC",PA,Pennsylvania,success,America/New_York,17112,,AS7922,NA
129.250.3.238,"AS2914 NTT America, Inc.",Los Angeles,United States,US,"NTT America, Inc.",34.0522,-118.244,"NTT America, Inc.",CA,California,success,America/Los_Angeles,90009,,AS2914,NA
138.197.248.208,,Toronto,Canada,CA,DigitalOcean,43.6644,-79.4195,"DigitalOcean, LLC",ON,Ontario,success,America/Toronto,M6G,,,NA
2001:19f0:fc00::a4a:82,,Old Toronto,Canada,CA,Choopa,43.6509,-79.3618,GameServers.com,ON,Ontario,success,America/Toronto,M5A 4L2,,,NA
71.14.188.68,AS20115 Charter Communications,St Louis,United States,US,Charter Communications,38.6249,-90.4496,Spectrum,MO,Missouri,success,America/Chicago,63131,,AS20115,NA
10.66.4.46,,,,,,,,,,,fail,,,private range,,AF
68.1.0.45,AS22773 Cox Communications Inc.,Macon,United States,US,Cox Communications Inc.,32.7486,-83.7477,Cox Communications Inc.,GA,Georgia,success,America/New_York,31216,,AS22773,NA
68.86.85.162,"AS7922 Comcast Cable Communications, LLC",Denver,United States,US,"Comcast Cable Communications, LLC",39.7392,-104.99,"Comcast Cable Communications, Inc.",CO,Colorado,success,America/Denver,80208,,AS7922,NA
129.250.2.67,"AS2914 NTT America, Inc.",Osaka,Japan,JP,"NTT America, Inc.",34.6937,135.502,"NTT America, Inc.",27,Ōsaka,success,Asia/Tokyo,540-0002,,AS2914,AS
2001:418:0:2000::1f5,"AS2914 NTT America, Inc.",Frankfurt am Main,Germany,DE,"NTT America, Inc.",50.1109,8.68213,"NTT America, Inc.",HE,Hesse,success,Europe/Berlin,60313,,AS2914,EU
62.115.136.194,AS1299,Amsterdam,Netherlands,NL,Telia Company AB,52.3667,4.89454,Telia Company AB,NH,North Holland,success,Europe/Amsterdam,1012,,AS1299,EU
180.87.38.2,AS6453 TATA COMMUNICATIONS (AMERICA) INC,Mumbai,India,IN,TATA Communications,19.076,72.8777,,MH,Maharashtra,success,Asia/Kolkata,400001,,AS6453,AS
62.115.113.85,AS1299,Dallas,United States,US,Telia Company AB,32.7767,-96.797,Telia Company AB,TX,Texas,success,America/Chicago,75270,,AS1299,NA
69.139.168.142,"AS7922 Comcast Cable Communications, LLC",McKeesport,United States,US,"Comcast Cable Communications, LLC",40.3471,-79.8641,"Comcast Cable Communications, Inc",PA,Pennsylvania,success,America/New_York,15131,,AS7922,NA
49.255.7.72,AS4826 Vocus Connect International Backbone,Sydney,Australia,AU,Vocus PTY LTD,-33.8591,151.2002,Vocus Communications Ltd,NSW,New South Wales,success,Australia/Sydney,2000,,AS4826,OC
2001:218:0:2000::7d,"AS2914 NTT America, Inc.",Seattle,United States,US,"NTT America, Inc.",47.6062,-122.332,NTT Communications Corporation,WA,Washington,success,America/Los_Angeles,98111,,AS2914,NA
62.115.112.242,AS1299,Ashburn,United States,US,Telia Company AB,39.0438,-77.4874,Telia Company AB,VA,Virginia,success,America/New_York,20149,,AS1299,NA
62.115.47.81,AS1299,New York,United States,US,Telia Company AB,40.7128,-74.006,Telia Company AB,NY,New York,success,America/New_York,10123,,AS1299,NA
2604:a880:ffff:a::231,,New York,United States,US,DigitalOcean,40.7234,-74.0054,"DigitalOcean, LLC",NY,New York,success,America/New_York,10013,,,NA
2604:a880:1:20:ffff:ffff:,,,,,,,,,,,fail,,,invalid query,,AF
173.167.59.41,"AS7922 Comcast Cable Communications, LLC",San Antonio,United States,US,"Comcast Cable Communications, LLC",29.4809,-98.6014,"Comcast Cable Communications, LLC",TX,Texas,success,America/Chicago,78238,,AS7922,NA
182.79.255.174,AS9498 BHARTI Airtel Ltd.,New Delhi,India,IN,Bharti Airtel Limited,28.6139,77.209,Bharti Airtel,DL,National Capital Territory of Delhi,success,Asia/Kolkata,110001,,AS9498,AS
96.108.181.114,"AS7922 Comcast Cable Communications, LLC",Ivyland,United States,US,"Comcast Cable Communications, LLC",40.2079,-75.0727,"Comcast Cable Communications, LLC",PA,Pennsylvania,success,America/New_York,18974,,AS7922,NA
96.108.118.26,"AS7922 Comcast Cable Communications, LLC",Linglestown,United States,US,"Comcast Cable Communications, LLC",40.3337,-76.7996,"Comcast Cable Communications, LLC",PA,Pennsylvania,success,America/New_York,17112,,AS7922,NA
96.110.38.153,"AS7922 Comcast Cable Communications, LLC",Ashburn,United States,US,"Comcast Cable Communications, LLC",39.0438,-77.4874,"Comcast IP Services, L.L.C.",VA,Virginia,success,America/New_York,20149,,AS7922,NA
138.197.249.22,,Toronto,Canada,CA,DigitalOcean,43.6644,-79.4195,"DigitalOcean, LLC",ON,Ontario,success,America/Toronto,M6G,,,NA
96.110.37.1,"AS7922 Comcast Cable Communications, LLC",Chicago,United States,US,"Comcast Cable Communications, LLC",41.8528,-87.6228,"Comcast IP Services, L.L.C.",IL,Illinois,success,America/Chicago,60616,,AS7922,NA
128.241.2.110,"AS2914 NTT America, Inc.",Miami,United States,US,"NTT America, Inc.",25.7617,-80.1918,NTT America,FL,Florida,success,America/New_York,33102,,AS2914,NA
2001:418:0:2000::172,"AS2914 NTT America, Inc.",Frankfurt am Main,Germany,DE,"NTT America, Inc.",50.1109,8.68213,"NTT America, Inc.",HE,Hesse,success,Europe/Berlin,60313,,AS2914,EU
64.86.33.90,AS6453 TATA COMMUNICATIONS (AMERICA) INC,Old Toronto,Canada,CA,TATA COMMUNICATIONS (AMERICA) INC,43.6446,-79.3842,Tata Communications,ON,Ontario,success,America/Toronto,M5J-2N1,,AS6453,NA
2600:6c40:7009:400:b088:7,,,,,,,,,,,fail,,,invalid query,,AF
80.91.246.75,AS1299,Helsinki,Finland,FI,Telia Company AB,60.1699,24.9384,Telia TIC,18,Uusimaa,success,Europe/Helsinki,00100,,AS1299,EU
2001:19f0:8000:100::1,"AS20473 Choopa, LLC",Seattle,United States,US,Choopa,47.6062,-122.332,"Vultr Holdings, LLC",WA,Washington,success,America/Los_Angeles,98121,,AS20473,NA
83.231.181.121,"AS2914 NTT America, Inc.",City of London,United Kingdom,GB,NTT Europe Online UK,51.5061,-0.071338,"NTT Europe, Ltd.",ENG,England,success,Europe/London,E1W 1LA,,AS2914,EU
138.197.249.120,"AS14061 DigitalOcean, LLC",Toronto,Canada,CA,DigitalOcean,43.6644,-79.4195,"DigitalOcean, LLC",ON,Ontario,success,America/Toronto,M6G,,AS14061,NA
129.250.4.131,"AS2914 NTT America, Inc.",New York,United States,US,"NTT America, Inc.",40.7903,-73.9597,"NTT America, Inc.",NY,New York,success,America/New_York,10123,,AS2914,NA
96.110.36.105,"AS7922 Comcast Cable Communications, LLC",Newark,United States,US,"Comcast Cable Communications, LLC",40.7357,-74.1724,"Comcast IP Services, L.L.C.",NJ,New Jersey,success,America/New_York,07175,,AS7922,NA
157.238.179.69,"AS2914 NTT America, Inc.",Chicago,United States,US,NTT America,41.8781,-87.6298,NTT America - Global IP Network,IL,Illinois,success,America/Chicago,60666,,AS2914,NA
129.250.2.207,"AS2914 NTT America, Inc.",Los Angeles,United States,US,"NTT America, Inc.",34.0522,-118.244,"NTT America, Inc.",CA,California,success,America/Los_Angeles,90009,,AS2914,NA
128.199.191.253,"AS14061 DigitalOcean, LLC",Singapore,Singapore,SG,"DigitalOcean, LLC",1.32123,103.695,Digital Ocean,,,success,Asia/Singapore,627753,,AS14061,AS
138.197.245.10,,Toronto,Canada,CA,DigitalOcean,43.6644,-79.4195,"DigitalOcean, LLC",ON,Ontario,success,America/Toronto,M6G,,,NA
2001:218:4000:5000::e1,"AS2914 NTT America, Inc.",Seattle,United States,US,"NTT America, Inc.",47.6062,-122.332,NTT Communications Corporation,WA,Washington,success,America/Los_Angeles,98111,,AS2914,NA
62.115.172.134,AS1299,Dallas,United States,US,Telia Company AB,32.7767,-96.797,Telia Company AB,TX,Texas,success,America/Chicago,75270,,AS1299,NA
2001:19f0:9000:80::1,"AS20473 Choopa, LLC",Miami,United States,US,Choopa,25.7975,-80.23,"Vultr Holdings, LLC",FL,Florida,success,America/New_York,33125,,AS20473,NA
66.109.6.73,AS7843 Charter Communications Inc,Ashburn,United States,US,Spectrum,39.0438,-77.4874,Time Warner Cable Internet LLC,VA,Virginia,success,America/New_York,20149,,AS7843,NA
96.110.39.166,"AS7922 Comcast Cable Communications, LLC",Marietta,United States,US,"Comcast Cable Communications, LLC",33.9526,-84.5499,"Comcast IP Services, L.L.C.",GA,Georgia,success,America/New_York,30006,,AS7922,NA
24.58.50.65,AS11351 Charter Communications Inc,Glens Falls,United States,US,Charter Communications Inc,43.3095,-73.64399999999998,Spectrum,NY,New York,success,America/New_York,12801,,AS11351,NA
138.197.249.86,,Toronto,Canada,CA,DigitalOcean,43.6644,-79.4195,"DigitalOcean, LLC",ON,Ontario,success,America/Toronto,M6G,,,NA
129.250.3.188,"AS2914 NTT America, Inc.",Ashburn,United States,US,"NTT America, Inc.",39.0438,-77.4874,"NTT America, Inc.",VA,Virginia,success,America/New_York,20149,,AS2914,NA
68.86.93.174,"AS7922 Comcast Cable Communications, LLC",Chicago,United States,US,"Comcast Cable Communications, LLC",41.8528,-87.6228,"Comcast Cable Communications, Inc.",IL,Illinois,success,America/Chicago,60616,,AS7922,NA
2001:470:0:48f::2,AS6939 Hurricane Electric LLC,San Jose,United States,US,Hurricane Electric LLC,37.2414,-121.783,Hurricane Electric,CA,California,success,America/Los_Angeles,95119,,AS6939,NA
4.69.142.105,"AS3356 Level 3 Parent, LLC",Newark,United States,US,"Level 3 Communications, Inc.",40.7357,-74.1724,"Level 3, LLC",NJ,New Jersey,success,America/New_York,07175,,AS3356,NA
104.236.128.253,"AS14061 DigitalOcean, LLC",San Francisco,United States,US,"DigitalOcean, LLC",37.7353,-122.3732,"Digital Ocean, Inc.",CA,California,success,America/Los_Angeles,94124,,AS14061,NA
138.197.245.14,,Toronto,Canada,CA,DigitalOcean,43.6644,-79.4195,"DigitalOcean, LLC",ON,Ontario,success,America/Toronto,M6G,,,NA
184.104.192.117,AS6939 Hurricane Electric LLC,Chicago,United States,US,Hurricane Electric LLC,41.8547,-87.6185,Hurricane Electric,IL,Illinois,success,America/Chicago,60616,,AS6939,NA
138.197.250.84,,Toronto,Canada,CA,DigitalOcean,43.6644,-79.4195,"DigitalOcean, LLC",ON,Ontario,success,America/Toronto,M6G,,,NA
68.105.30.145,AS22773 Cox Communications Inc.,Cleveland,United States,US,Cox Communications Inc.,41.3844,-81.7003,Cox Communications Inc.,OH,Ohio,success,America/New_York,44134,,AS22773,NA
2001:506:100:100::5,,Greenwood Village,United States,US,Spectrum,39.6004,-104.891,Charter Communications,CO,Colorado,success,America/Denver,80111,,,NA
2001:506:100:14b::1,,Greenwood Village,United States,US,Spectrum,39.6004,-104.891,Charter Communications,CO,Colorado,success,America/Denver,80111,,,NA
2001:506:100:32c::1,,Greenwood Village,United States,US,Spectrum,39.6004,-104.891,Charter Communications,CO,Colorado,success,America/Denver,80111,,,NA
69.139.168.186,"AS7922 Comcast Cable Communications, LLC",McKeesport,United States,US,"Comcast Cable Communications, LLC",40.3471,-79.8641,"Comcast Cable Communications, Inc",PA,Pennsylvania,success,America/New_York,15131,,AS7922,NA
62.115.141.244,AS1299,Ashburn,United States,US,Telia Company AB,39.0438,-77.4874,Telia Company AB,VA,Virginia,success,America/New_York,20149,,AS1299,NA
62.115.113.48,AS1299,Atlanta,United States,US,Telia Company AB,33.749,-84.38799999999998,Telia Company AB,GA,Georgia,success,America/New_York,30302,,AS1299,NA
2600:6c5e:7001:700:8db5:3,,,,,,,,,,,fail,,,invalid query,,AF
2001:2000:3018:4f::1,AS1299,Solna,Sweden,SE,Telia Company AB,59.3625,17.9989,Telia Company AB,AB,Stockholm,success,Europe/Stockholm,105 04,,AS1299,EU
2001:470:0:268::1,AS6939 Hurricane Electric LLC,San Jose,United States,US,Hurricane Electric LLC,37.2414,-121.783,Hurricane Electric,CA,California,success,America/Los_Angeles,95119,,AS6939,NA
96.110.40.54,"AS7922 Comcast Cable Communications, LLC",Marietta,United States,US,"Comcast Cable Communications, LLC",33.9526,-84.5499,"Comcast IP Services, L.L.C.",GA,Georgia,success,America/New_York,30006,,AS7922,NA
213.200.115.178,AS3257 GTT Communications Inc.,Boca Raton,United States,US,Tinet SpA,26.3955,-80.0771,Bravatas,FL,Florida,success,America/New_York,33487,,AS3257,NA
129.250.2.176,"AS2914 NTT America, Inc.",Los Angeles,United States,US,"NTT America, Inc.",34.0522,-118.244,"NTT America, Inc.",CA,California,success,America/Los_Angeles,90009,,AS2914,NA
192.205.32.245,"AS7018 AT&T Services, Inc.",Indianapolis,United States,US,"AT&T Services, Inc.",39.7709,-86.1584,"AT&T Services, Inc.",IN,Indiana,success,America/Indiana/Indianapolis,46204,,AS7018,NA
68.1.0.189,AS22773 Cox Communications Inc.,Macon,United States,US,Cox Communications Inc.,32.7486,-83.7477,Cox Communications Inc.,GA,Georgia,success,America/New_York,31216,,AS22773,NA
80.231.130.20,AS6453 TATA COMMUNICATIONS (AMERICA) INC,London,United Kingdom,GB,TATA Communications,51.5074,-0.12775799999999998,Tata Communications Ltd.,ENG,England,success,Europe/London,W1B,,AS6453,EU
96.110.42.170,"AS7922 Comcast Cable Communications, LLC",Chicago,United States,US,"Comcast Cable Communications, LLC",41.8528,-87.6228,"Comcast IP Services, L.L.C.",IL,Illinois,success,America/Chicago,60616,,AS7922,NA
64.15.3.137,,Bethpage,United States,US,CSC Holdings Inc.,40.7419,-73.4817,CSC Holdings Inc.,NY,New York,success,America/New_York,11714,,,NA
5.101.111.251,"AS14061 DigitalOcean, LLC",Amsterdam,Netherlands,NL,"DigitalOcean, LLC",52.3702,4.8951699999999985,Digitalocean,NH,North Holland,success,Europe/Amsterdam,1012,,AS14061,EU
129.250.6.47,"AS2914 NTT America, Inc.",Los Angeles,United States,US,"NTT America, Inc.",34.0522,-118.244,"NTT America, Inc.",CA,California,success,America/Los_Angeles,90009,,AS2914,NA
129.250.5.33,"AS2914 NTT America, Inc.",San Jose,United States,US,"NTT America, Inc.",37.3382,-121.886,"NTT America, Inc.",CA,California,success,America/Los_Angeles,95141,,AS2914,NA
184.105.213.218,AS6939 Hurricane Electric LLC,New York City,United States,US,Hurricane Electric LLC,40.7177,-74.0083,Hurricane Electric,NY,New York,success,America/New_York,10013,,AS6939,NA
96.110.32.182,"AS7922 Comcast Cable Communications, LLC",Ashburn,United States,US,"Comcast Cable Communications, LLC",39.0438,-77.4874,"Comcast IP Services, L.L.C.",VA,Virginia,success,America/New_York,20149,,AS7922,NA
62.115.118.100,AS1299,Chicago,United States,US,Telia Company AB,41.8781,-87.6298,Telia Company AB,IL,Illinois,success,America/Chicago,60666,,AS1299,NA
63.218.178.58,"AS3491 PCCW Global, Inc.",San José,Costa Rica,CR,"PCCW Global, Inc.",9.92807,-84.0907,"PCCW Global, Inc.",SJ,Provincia de San Jose,success,America/Costa_Rica,11002,,AS3491,NA
138.197.244.233,,Toronto,Canada,CA,DigitalOcean,43.6644,-79.4195,"DigitalOcean, LLC",ON,Ontario,success,America/Toronto,M6G,,,NA
80.231.131.118,AS6453 TATA COMMUNICATIONS (AMERICA) INC,London,United Kingdom,GB,TATA Communications,51.5074,-0.12775799999999998,Tata Communications Ltd.,ENG,England,success,Europe/London,W1B,,AS6453,EU
138.197.249.18,,Toronto,Canada,CA,DigitalOcean,43.6644,-79.4195,"DigitalOcean, LLC",ON,Ontario,success,America/Toronto,M6G,,,NA
138.197.249.90,,Toronto,Canada,CA,DigitalOcean,43.6644,-79.4195,"DigitalOcean, LLC",ON,Ontario,success,America/Toronto,M6G,,,NA
66.109.6.89,AS7843 Charter Communications Inc,Dallas,United States,US,Spectrum,32.7767,-96.797,Time Warner Cable Internet LLC,TX,Texas,success,America/Chicago,75270,,AS7843,NA
2001:218:0:2000::2d2,"AS2914 NTT America, Inc.",Seattle,United States,US,"NTT America, Inc.",47.6062,-122.332,NTT Communications Corporation,WA,Washington,success,America/Los_Angeles,98111,,AS2914,NA
2600:300:2050:10b::1,"AS7018 AT&T Services, Inc.",Washington,United States,US,"AT&T Services, Inc.",38.9072,-77.0369,AT&T Mobility LLC,DC,District of Columbia,success,America/New_York,20068,,AS7018,NA
2403:0:500::2f5,AS4755 TATA Communications formerly VSNL is Leading ISP,Mumbai,India,IN,Tata Communications Limited,19.0748,72.8856,Tata Communications Limited,MH,Maharashtra,success,Asia/Kolkata,400070,,AS4755,AS
96.34.3.70,,Ashburn,United States,US,Spectrum,39.0481,-77.4728,Charter Communications,VA,Virginia,success,America/New_York,20149,,,NA
45.79.12.202,"AS63949 Linode, LLC",Dallas,United States,US,"Linode, LLC",32.7787,-96.8217,Linode,TX,Texas,success,America/Chicago,75270,,AS63949,NA
138.197.244.44,,Toronto,Canada,CA,DigitalOcean,43.6644,-79.4195,"DigitalOcean, LLC",ON,Ontario,success,America/Toronto,M6G,,,NA
2001:5a0:2000:400::45,AS6453 TATA COMMUNICATIONS (AMERICA) INC,City of London,United Kingdom,GB,TATA COMMUNICATIONS (AMERICA) INC,51.5423,0.0025293000000000004,Tata Communications LTD,ENG,England,success,Europe/London,E15 1NB,,AS6453,EU
62.115.13.103,AS1299,London,United Kingdom,GB,Telia Company AB,51.5074,-0.12775799999999998,Telia Company AB,ENG,England,success,Europe/London,W1B,,AS1299,EU
96.110.38.145,"AS7922 Comcast Cable Communications, LLC",Ashburn,United States,US,"Comcast Cable Communications, LLC",39.0438,-77.4874,"Comcast IP Services, L.L.C.",VA,Virginia,success,America/New_York,20149,,AS7922,NA
fd00:0:2::1,,,,,,,,,,,fail,,,private range,,AF
108.41.14.91,"AS701 MCI Communications Services, Inc. d/b/a Verizon Business",Chappaqua,United States,US,"MCI Communications Services, Inc. d/b/a Verizon Business",41.1696,-73.7692,Verizon Online LLC,NY,New York,success,America/New_York,10514,,AS701,NA
2001:578:2300:4::61,AS22773 Cox Communications Inc.,Atlanta,United States,US,Cox Communications Inc.,33.9149,-84.3446,Cox Communications Inc,GA,Georgia,success,America/New_York,30319,,AS22773,NA
63.218.251.241,"AS3491 PCCW Global, Inc.",Tokyo,Japan,JP,"PCCW Global, Inc.",35.6804,139.769,"PCCW Global, Inc.",13,Tokyo,success,Asia/Tokyo,104-0031,,AS3491,AS
4.15.154.165,"AS3356 Level 3 Parent, LLC",Boca Raton,United States,US,Level 3,26.4122,-80.0875,Adastra,FL,Florida,success,America/New_York,33487,,AS3356,NA
68.86.87.157,"AS7922 Comcast Cable Communications, LLC",Chicago,United States,US,"Comcast Cable Communications, LLC",41.8528,-87.6228,"Comcast Cable Communications, Inc.",IL,Illinois,success,America/Chicago,60616,,AS7922,NA
68.85.176.14,"AS7922 Comcast Cable Communications, LLC",Chicago,United States,US,"Comcast Cable Communications, LLC",41.8528,-87.6228,"Comcast Cable Communications, LLC",IL,Illinois,success,America/Chicago,60616,,AS7922,NA
182.79.179.57,AS9498 BHARTI Airtel Ltd.,New Delhi,India,IN,Bharti Airtel Limited,28.6139,77.209,Bharti Airtel,DL,National Capital Territory of Delhi,success,Asia/Kolkata,110001,,AS9498,AS
2001:578:20:a000::6,AS22773 Cox Communications Inc.,Atlanta,United States,US,Cox Communications Inc.,33.9149,-84.3446,Cox Communications Inc,GA,Georgia,success,America/New_York,30319,,AS22773,NA
2600:3c00:2222:16::1,"AS63949 Linode, LLC",Dallas,United States,US,"Linode, LLC",32.7767,-96.797,Linode,TX,Texas,success,America/Chicago,75270,,AS63949,NA
116.51.17.165,"AS2914 NTT America, Inc.",Singapore,Singapore,SG,"NTT America, Inc.",1.2752,103.799,NTT Singapore Pte Ltd,,,success,Asia/Singapore,,,AS2914,AS
68.1.0.49,AS22773 Cox Communications Inc.,Macon,United States,US,Cox Communications Inc.,32.7486,-83.7477,Cox Communications Inc.,GA,Georgia,success,America/New_York,31216,,AS22773,NA
2001:418:0:2000::76,"AS2914 NTT America, Inc.",Frankfurt am Main,Germany,DE,"NTT America, Inc.",50.1109,8.68213,"NTT America, Inc.",HE,Hesse,success,Europe/Berlin,60313,,AS2914,EU
68.86.85.21,"AS7922 Comcast Cable Communications, LLC",Denver,United States,US,"Comcast Cable Communications, LLC",39.7392,-104.99,"Comcast Cable Communications, Inc.",CO,Colorado,success,America/Denver,80208,,AS7922,NA
140.222.238.9,,Purchase,United States,US,ANS CO+RE Systems,41.0267,-73.7155,"ANS CO+RE Systems, Inc.",NY,New York,success,America/New_York,10577,,,NA
2001:728:0:2000::259,"AS2914 NTT America, Inc.",Paris,France,FR,Ntte Infra,48.8566,2.35222,NTT Europe Ltd.,IDF,Île-de-France,success,Europe/Paris,75000,,AS2914,EU
184.105.80.5,AS6939 Hurricane Electric LLC,Chicago,United States,US,Hurricane Electric LLC,41.8547,-87.6185,Hurricane Electric,IL,Illinois,success,America/Chicago,60616,,AS6939,NA
62.115.137.64,AS1299,Amsterdam,Netherlands,NL,Telia Company AB,52.3667,4.89454,Telia Company AB,NH,North Holland,success,Europe/Amsterdam,1012,,AS1299,EU
4.69.218.70,"AS3356 Level 3 Parent, LLC",New York,United States,US,"Level 3 Communications, Inc.",40.7056,-73.97800000000002,"Level 3, LLC",NY,New York,success,America/New_York,10123,,AS3356,NA
68.86.85.185,"AS7922 Comcast Cable Communications, LLC",Denver,United States,US,"Comcast Cable Communications, LLC",39.7392,-104.99,"Comcast Cable Communications, Inc.",CO,Colorado,success,America/Denver,80208,,AS7922,NA
2001:5a0:2300:200::2,AS6453 TATA COMMUNICATIONS (AMERICA) INC,Mumbai,India,IN,TATA COMMUNICATIONS (AMERICA) INC,19.021,72.8304,TATA Communications Ltd,MH,Maharashtra,success,Asia/Kolkata,400001,,AS6453,AS
68.86.217.238,"AS7922 Comcast Cable Communications, LLC",Malvern,United States,US,"Comcast Cable Communications, LLC",40.0362,-75.5138,"Comcast Cable Communications, Inc.",PA,Pennsylvania,success,America/New_York,19355,,AS7922,NA
138.197.251.130,,Toronto,Canada,CA,DigitalOcean,43.6644,-79.4195,"DigitalOcean, LLC",ON,Ontario,success,America/Toronto,M6G,,,NA
213.155.130.176,AS1299,Amsterdam,Netherlands,NL,Telia Company AB,52.3702,4.8951699999999985,TeliaSonera AB,NH,North Holland,success,Europe/Amsterdam,1012,,AS1299,EU
4.59.233.49,"AS3356 Level 3 Parent, LLC",Bellevue,United States,US,"Level 3 Communications, Inc.",47.5579,-122.1633,"Level 3, LLC",WA,Washington,success,America/Los_Angeles,98006,,AS3356,NA
24.175.41.49,AS11427 Charter Communications Inc,Dallas,United States,US,Charter Communications Inc,32.7767,-96.797,Spectrum,TX,Texas,success,America/Chicago,75270,,AS11427,NA
202.84.224.189,AS4637 Telstra Global,Wanchai,Hong Kong,HK,Telstra International Limited,22.2798,114.171,Telstra International Limited,HWC,Wan Chai,success,Asia/Hong_Kong,96521,,AS4637,AS
64.86.188.2,AS6453 TATA COMMUNICATIONS (AMERICA) INC,Dallas,United States,US,TATA COMMUNICATIONS (AMERICA) INC,32.7889,-96.8021,TATA COMMUNICATIONS (AMERICA) INC,TX,Texas,success,America/Chicago,75201,,AS6453,NA
2604:a880:ffff:4:1::18,,New York,United States,US,DigitalOcean,40.7234,-74.0054,"DigitalOcean, LLC",NY,New York,success,America/New_York,10013,,,NA
2001:418:0:2000::42,"AS2914 NTT America, Inc.",Frankfurt am Main,Germany,DE,"NTT America, Inc.",50.1109,8.68213,"NTT America, Inc.",HE,Hesse,success,Europe/Berlin,60313,,AS2914,EU
2604:a880:ffff:4:1::3c,,New York,United States,US,DigitalOcean,40.7234,-74.0054,"DigitalOcean, LLC",NY,New York,success,America/New_York,10013,,,NA
72.52.92.166,AS6939 Hurricane Electric LLC,New York City,United States,US,Hurricane Electric LLC,40.7414,-74.0033,Hurricane Electric LLC,NY,New York,success,America/New_York,10011,,AS6939,NA
2604:a880:ffff:9::215,,New York,United States,US,DigitalOcean,40.7234,-74.0054,"DigitalOcean, LLC",NY,New York,success,America/New_York,10013,,,NA
10.66.4.40,,,,,,,,,,,fail,,,private range,,AF
45.79.12.0,"AS63949 Linode, LLC",Dallas,United States,US,"Linode, LLC",32.7787,-96.8217,Linode,TX,Texas,success,America/Chicago,75270,,AS63949,NA
45.79.12.6,"AS63949 Linode, LLC",Dallas,United States,US,"Linode, LLC",32.7787,-96.8217,Linode,TX,Texas,success,America/Chicago,75270,,AS63949,NA
64.125.29.215,AS6461 Zayo Bandwidth,New York,United States,US,Zayo Bandwidth,40.7128,-74.006,Zayo Bandwidth,NY,New York,success,America/New_York,10123,,AS6461,NA
96.34.0.179,,Ashburn,United States,US,Spectrum,39.0481,-77.4728,Charter Communications,VA,Virginia,success,America/New_York,20149,,,NA
4.14.218.21,"AS3356 Level 3 Parent, LLC",Hoboken,United States,US,"Level 3 Communications, Inc.",40.7424,-74.0325,Level 3,NJ,New Jersey,success,America/New_York,07030,,AS3356,NA
66.110.96.134,AS6453 TATA COMMUNICATIONS (AMERICA) INC,New York,United States,US,TATA COMMUNICATIONS (AMERICA) INC,40.7308,-73.9975,Tata Communications,NY,New York,success,America/New_York,10011,,AS6453,NA
2001:218:0:2000::22,"AS2914 NTT America, Inc.",Seattle,United States,US,"NTT America, Inc.",47.6062,-122.332,NTT Communications Corporation,WA,Washington,success,America/Los_Angeles,98111,,AS2914,NA
62.115.143.121,AS1299,Ashburn,United States,US,Telia Company AB,39.0438,-77.4874,Telia Company AB,VA,Virginia,success,America/New_York,20149,,AS1299,NA
138.197.249.96,"AS14061 DigitalOcean, LLC",Toronto,Canada,CA,DigitalOcean,43.6644,-79.4195,"DigitalOcean, LLC",ON,Ontario,success,America/Toronto,M6G,,AS14061,NA
68.86.83.89,"AS7922 Comcast Cable Communications, LLC",Ashburn,United States,US,"Comcast Cable Communications, LLC",39.0438,-77.4874,"Comcast Cable Communications, Inc.",VA,Virginia,success,America/New_York,20149,,AS7922,NA
219.65.110.185,AS4755 TATA Communications formerly VSNL is Leading ISP,Bengaluru,India,IN,TATACOMM,12.9721,77.5933,,KA,Karnataka,success,Asia/Kolkata,560002,,AS4755,AS
66.109.5.229,AS7843 Charter Communications Inc,Atlanta,United States,US,Spectrum,33.749,-84.38799999999998,Time Warner Cable Internet LLC,GA,Georgia,success,America/New_York,30302,,AS7843,NA
96.34.3.160,,Ashburn,United States,US,Spectrum,39.0481,-77.4728,Charter Communications,VA,Virginia,success,America/New_York,20149,,,NA
138.197.248.206,,Toronto,Canada,CA,DigitalOcean,43.6644,-79.4195,"DigitalOcean, LLC",ON,Ontario,success,America/Toronto,M6G,,,NA
202.84.247.17,AS4637 Telstra Global,San Jose,United States,US,Telstra International Limited,37.3382,-121.886,Reach Multi Media Satellite Services,CA,California,success,America/Los_Angeles,95141,,AS4637,NA
2001:504:0:1::6939:1,,Redwood Shores,United States,US,Equinix,37.5272,-122.261,"Equinix, Inc",CA,California,success,America/Los_Angeles,94065,,,NA
2001:470:0:450::2,AS6939 Hurricane Electric LLC,San Jose,United States,US,Hurricane Electric LLC,37.2414,-121.783,Hurricane Electric,CA,California,success,America/Los_Angeles,95119,,AS6939,NA
138.197.248.222,,Toronto,Canada,CA,DigitalOcean,43.6644,-79.4195,"DigitalOcean, LLC",ON,Ontario,success,America/Toronto,M6G,,,NA
184.105.223.165,AS6939 Hurricane Electric LLC,Ashburn,United States,US,Hurricane Electric LLC,39.0163,-77.459,Hurricane Electric,VA,Virginia,success,America/New_York,20147,,AS6939,NA
66.109.5.120,AS7843 Charter Communications Inc,Dallas,United States,US,Spectrum,32.7767,-96.797,Time Warner Cable Internet LLC,TX,Texas,success,America/Chicago,75270,,AS7843,NA
68.86.86.249,"AS7922 Comcast Cable Communications, LLC",Chicago,United States,US,"Comcast Cable Communications, LLC",41.8528,-87.6228,"Comcast Cable Communications, Inc.",IL,Illinois,success,America/Chicago,60616,,AS7922,NA
2001:504:16::1b1b,,Seattle,United States,US,Seattle Internet Exchange,47.6141,-122.335,Seattle Internet Exchange,WA,Washington,success,America/Los_Angeles,98101,,,NA
10.66.4.48,,,,,,,,,,,fail,,,private range,,AF
65.19.114.34,,Bethpage,United States,US,CSC Holdings Inc,40.7419,-73.4817,CSC Holdings Inc.,NY,New York,success,America/New_York,11714,,,NA
96.110.32.2,"AS7922 Comcast Cable Communications, LLC",Ashburn,United States,US,"Comcast Cable Communications, LLC",39.0438,-77.4874,"Comcast IP Services, L.L.C.",VA,Virginia,success,America/New_York,20149,,AS7922,NA
139.162.64.18,"AS63949 Linode, LLC",Tokyo,Japan,JP,"Linode, LLC",35.6882,139.7532,"Linode, LLC",13,Tokyo,success,Asia/Tokyo,102-0082,,AS63949,AS
204.255.168.13,"AS701 MCI Communications Services, Inc. d/b/a Verizon Business",Ashburn,United States,US,"MCI Communications Services, Inc. d/b/a Verizon Business",39.0107,-77.469,Verizon Communications,VA,Virginia,success,America/New_York,20147,,AS701,NA
2001:418:0:5000::87b,"AS2914 NTT America, Inc.",Chicago,United States,US,"NTT America, Inc.",41.8781,-87.6298,"NTT America, Inc.",IL,Illinois,success,America/Chicago,60666,,AS2914,NA
2600:8805:d480:f300:4c18:,,,,,,,,,,,fail,,,invalid query,,AF
fd00:0:2::9d,,,,,,,,,,,fail,,,private range,,AF
2600:300:2050:1622::2,"AS7018 AT&T Services, Inc.",Washington,United States,US,"AT&T Services, Inc.",38.9072,-77.0369,AT&T Mobility LLC,DC,District of Columbia,success,America/New_York,20068,,AS7018,NA
140.222.226.193,,Purchase,United States,US,ANS CO+RE Systems,41.0267,-73.7155,"ANS CO+RE Systems, Inc.",NY,New York,success,America/New_York,10577,,,NA
66.208.216.69,"AS7922 Comcast Cable Communications, LLC",Port Saint Lucie,United States,US,"Comcast Cable Communications, LLC",27.2621,-80.3835,"Comcast Business Communications, LLC",FL,Florida,success,America/New_York,34953,,AS7922,NA
2604:a880:ffff:6:1::410,,New York,United States,US,DigitalOcean,40.7234,-74.0054,"DigitalOcean, LLC",NY,New York,success,America/New_York,10013,,,NA
49.255.255.25,AS4826 Vocus Connect International Backbone,San Jose,United States,US,Vocus PTY LTD,37.3388,-121.8914,Vocus PTY LTD,CA,California,success,America/Los_Angeles,95141,,AS4826,NA
46.33.81.25,AS3257 GTT Communications Inc.,Paris,France,FR,GTT Communications,48.8566,2.35222,Tinet SpA,IDF,Île-de-France,success,Europe/Paris,75000,,AS3257,EU
96.110.32.113,"AS7922 Comcast Cable Communications, LLC",Ashburn,United States,US,"Comcast Cable Communications, LLC",39.0438,-77.4874,"Comcast IP Services, L.L.C.",VA,Virginia,success,America/New_York,20149,,AS7922,NA
63.243.172.33,AS6453 TATA COMMUNICATIONS (AMERICA) INC,Chicago,United States,US,TATA COMMUNICATIONS (AMERICA) INC,41.8781,-87.6298,TATA communications,IL,Illinois,success,America/Chicago,60666,,AS6453,NA
129.250.3.234,"AS2914 NTT America, Inc.",Los Angeles,United States,US,"NTT America, Inc.",34.0522,-118.244,"NTT America, Inc.",CA,California,success,America/Los_Angeles,90009,,AS2914,NA
2001:470:0:40a::2,AS6939 Hurricane Electric LLC,San Jose,United States,US,Hurricane Electric LLC,37.2414,-121.783,Hurricane Electric,CA,California,success,America/Los_Angeles,95119,,AS6939,NA
2001:7f8:1::a500:6939:1,AS1200 Amsterdam Internet Exchange B.V.,Amsterdam,Netherlands,NL,AMS-IX Peering LANs,52.36,4.89814,Amsterdam Internet Exchange B.V,NH,North Holland,success,Europe/Amsterdam,1017,,AS1200,EU
2604:a880:ffff:9:0:1::,,New York,United States,US,DigitalOcean,40.7234,-74.0054,"DigitalOcean, LLC",NY,New York,success,America/New_York,10013,,,NA
64.125.30.90,AS6461 Zayo Bandwidth,Chicago,United States,US,Zayo Bandwidth,41.8781,-87.6298,Zayo Bandwidth,IL,Illinois,success,America/Chicago,60666,,AS6461,NA
103.43.73.193,"AS20473 Choopa, LLC",Alexandria,Australia,AU,"Choopa, LLC",-33.9256,151.1906,AUS Infra,NSW,New South Wales,success,Australia/Sydney,2015,,AS20473,OC
2001:470:0:381::2,AS6939 Hurricane Electric LLC,San Jose,United States,US,Hurricane Electric LLC,37.2414,-121.783,Hurricane Electric,CA,California,success,America/Los_Angeles,95119,,AS6939,NA
10.0.10.1,,,,,,,,,,,fail,,,private range,,AF
138.197.250.96,"AS14061 DigitalOcean, LLC",Toronto,Canada,CA,"DigitalOcean, LLC",43.6644,-79.4195,"DigitalOcean, LLC",ON,Ontario,success,America/Toronto,M6G,,AS14061,NA
10.78.4.4,,,,,,,,,,,fail,,,private range,,AF
216.66.24.70,AS6939 Hurricane Electric LLC,Ashburn,United States,US,American Registry Internet Numbers,39.0163,-77.459,American Registry Internet Numbers,VA,Virginia,success,America/New_York,20147,,AS6939,NA
202.56.198.57,AS9498 BHARTI Airtel Ltd.,Bengaluru,India,IN,Bharti Airtel Limited,12.9721,77.5933,Bharti Airtel,KA,Karnataka,success,Asia/Kolkata,560002,,AS9498,AS
100.41.193.73,"AS701 MCI Communications Services, Inc. d/b/a Verizon Business",Boston,United States,US,"MCI Communications Services, Inc. d/b/a Verizon Business",42.3601,-71.0589,Verizon Communications,MA,Massachusetts,success,America/New_York,02112,,AS701,NA
210.176.138.132,AS4637 Telstra Global,Singapore,Singapore,SG,Telstra International Limited,1.35208,103.82,Telstra Digitalocean,,,success,Asia/Singapore,,,AS4637,AS
96.110.36.29,"AS7922 Comcast Cable Communications, LLC",Newark,United States,US,"Comcast Cable Communications, LLC",40.7357,-74.1724,"Comcast IP Services, L.L.C.",NJ,New Jersey,success,America/New_York,07175,,AS7922,NA
96.110.32.210,"AS7922 Comcast Cable Communications, LLC",Ashburn,United States,US,"Comcast Cable Communications, LLC",39.0438,-77.4874,"Comcast IP Services, L.L.C.",VA,Virginia,success,America/New_York,20149,,AS7922,NA
71.244.115.94,"AS701 MCI Communications Services, Inc. d/b/a Verizon Business",Delmar,United States,US,"MCI Communications Services, Inc. d/b/a Verizon Business",42.62,-73.8343,Verizon Communications,NY,New York,success,America/New_York,12054,,AS701,NA
68.86.84.217,"AS7922 Comcast Cable Communications, LLC",Mount Laurel,United States,US,"Comcast Cable Communications, LLC",39.9648,-74.9045,"Comcast Cable Communications, Inc.",NJ,New Jersey,success,America/New_York,08054,,AS7922,NA
140.222.231.5,,Purchase,United States,US,ANS CO+RE Systems,41.0267,-73.7155,"ANS CO+RE Systems, Inc.",NY,New York,success,America/New_York,10577,,,NA
213.155.136.21,AS1299,London,United Kingdom,GB,Telia Company AB,51.5074,-0.12775799999999998,TeliaSonera AB,ENG,England,success,Europe/London,W1B,,AS1299,EU
2001:1890:ff:ffff:12:122:,,,,,,,,,,,fail,,,invalid query,,AF
2001:418:0:2000::12,"AS2914 NTT America, Inc.",Frankfurt am Main,Germany,DE,"NTT America, Inc.",50.1109,8.68213,"NTT America, Inc.",HE,Hesse,success,Europe/Berlin,60313,,AS2914,EU
213.200.119.198,AS3257 GTT Communications Inc.,Boca Raton,United States,US,Tinet SpA,26.3955,-80.0771,Bravatas,FL,Florida,success,America/New_York,33487,,AS3257,NA
66.109.6.9,AS7843 Charter Communications Inc,Sunnyvale,United States,US,Spectrum,37.3688,-122.036,Time Warner Cable Internet LLC,CA,California,success,America/Los_Angeles,94088,,AS7843,NA
206.82.141.134,AS6453 TATA COMMUNICATIONS (AMERICA) INC,Chicago,United States,US,TATA COMMUNICATIONS (AMERICA) INC,41.8536,-87.6183,Tata Communications Ltd,IL,Illinois,success,America/Chicago,60616,,AS6453,NA
45.63.112.65,"AS20473 Choopa, LLC",Aubervilliers,France,FR,Choopa,48.9067,2.36939,"Vultr Holdings, LLC",IDF,Île-de-France,success,Europe/Paris,93300,,AS20473,EU
2001:506:100:5929::5,,Greenwood Village,United States,US,Spectrum,39.6004,-104.891,Charter Communications,CO,Colorado,success,America/Denver,80111,,,NA
213.155.130.178,AS1299,Amsterdam,Netherlands,NL,Telia Company AB,52.3702,4.8951699999999985,TeliaSonera AB,NH,North Holland,success,Europe/Amsterdam,1012,,AS1299,EU
154.54.28.73,AS174 Cogent Communications,Dallas,United States,US,Cogent Communications,32.7767,-96.797,Cogent communications - IPENG,TX,Texas,success,America/Chicago,75270,,AS174,NA
2001:1890:1fff:100:192:20,,,,,,,,,,,fail,,,invalid query,,AF
96.110.32.117,"AS7922 Comcast Cable Communications, LLC",Ashburn,United States,US,"Comcast Cable Communications, LLC",39.0438,-77.4874,"Comcast IP Services, L.L.C.",VA,Virginia,success,America/New_York,20149,,AS7922,NA
96.110.34.162,"AS7922 Comcast Cable Communications, LLC",Newark,United States,US,"Comcast Cable Communications, LLC",40.7357,-74.1724,"Comcast IP Services, L.L.C.",NJ,New Jersey,success,America/New_York,07175,,AS7922,NA
4.14.33.69,"AS3356 Level 3 Parent, LLC",Walnut Creek,United States,US,"Level 3 Communications, Inc.",37.9208,-122.0182,Level 3,CA,California,success,America/Los_Angeles,94598,,AS3356,NA
62.115.113.180,AS1299,Paris,France,FR,Telia Company AB,48.8566,2.35222,Telia Company AB,IDF,Île-de-France,success,Europe/Paris,75000,,AS1299,EU
2001:470:0:18d::1,AS6939 Hurricane Electric LLC,San Jose,United States,US,Hurricane Electric LLC,37.2414,-121.783,Hurricane Electric,CA,California,success,America/Los_Angeles,95119,,AS6939,NA
62.115.125.191,AS1299,Atlanta,United States,US,Telia Company AB,33.749,-84.38799999999998,Telia Company AB,GA,Georgia,success,America/New_York,30302,,AS1299,NA
96.34.3.246,,Ashburn,United States,US,Spectrum,39.0481,-77.4728,Charter Communications,VA,Virginia,success,America/New_York,20149,,,NA
96.110.35.62,"AS7922 Comcast Cable Communications, LLC",Chicago,United States,US,"Comcast Cable Communications, LLC",41.8528,-87.6228,"Comcast IP Services, L.L.C.",IL,Illinois,success,America/Chicago,60616,,AS7922,NA
63.243.128.82,AS6453 TATA COMMUNICATIONS (AMERICA) INC,New York,United States,US,TATA COMMUNICATIONS (AMERICA) INC,40.7414,-74.0032,Tata Communications Ltd,NY,New York,success,America/New_York,10011,,AS6453,NA
2001:506:100:4233::2,,Greenwood Village,United States,US,Spectrum,39.6004,-104.891,Charter Communications,CO,Colorado,success,America/Denver,80111,,,NA
129.250.4.41,"AS2914 NTT America, Inc.",New York,United States,US,"NTT America, Inc.",40.7903,-73.9597,"NTT America, Inc.",NY,New York,success,America/New_York,10123,,AS2914,NA
68.86.213.154,"AS7922 Comcast Cable Communications, LLC",Ivyland,United States,US,"Comcast Cable Communications, LLC",40.2079,-75.0727,"Comcast Cable Communications, Inc.",PA,Pennsylvania,success,America/New_York,18974,,AS7922,NA
2001:19f0:fc00::a4c:506,,Old Toronto,Canada,CA,Choopa,43.6509,-79.3618,GameServers.com,ON,Ontario,success,America/Toronto,M5A 4L2,,,NA
68.86.86.33,"AS7922 Comcast Cable Communications, LLC",Chicago,United States,US,"Comcast Cable Communications, LLC",41.8528,-87.6228,"Comcast Cable Communications, Inc.",IL,Illinois,success,America/Chicago,60616,,AS7922,NA
66.109.1.217,AS7843 Charter Communications Inc,Dallas,United States,US,Spectrum,32.7767,-96.797,Time Warner Cable Internet LLC,TX,Texas,success,America/Chicago,75270,,AS7843,NA
2604:a880:ffff:7:1::31,,New York,United States,US,DigitalOcean,40.7234,-74.0054,"DigitalOcean, LLC",NY,New York,success,America/New_York,10013,,,NA
213.200.115.30,AS3257 GTT Communications Inc.,Boca Raton,United States,US,Tinet SpA,26.3955,-80.0771,Bravatas,FL,Florida,success,America/New_York,33487,,AS3257,NA
2604:a880:ffff:4:1::14,,New York,United States,US,DigitalOcean,40.7234,-74.0054,"DigitalOcean, LLC",NY,New York,success,America/New_York,10013,,,NA
64.71.184.45,AS6939 Hurricane Electric LLC,San Jose,United States,US,Hurricane Electric LLC,37.3341,-121.8917,Hurricane Electric LLC,CA,California,success,America/Los_Angeles,95113,,AS6939,NA
68.85.176.110,"AS7922 Comcast Cable Communications, LLC",Chicago,United States,US,"Comcast Cable Communications, LLC",41.8528,-87.6228,"Comcast Cable Communications, LLC",IL,Illinois,success,America/Chicago,60616,,AS7922,NA
71.105.160.130,"AS701 MCI Communications Services, Inc. d/b/a Verizon Business",Manhasset,United States,US,"MCI Communications Services, Inc. d/b/a Verizon Business",40.7915,-73.6924,Verizon Communications,NY,New York,success,America/New_York,11030,,AS701,NA
24.175.42.107,AS11427 Charter Communications Inc,Austin,United States,US,Charter Communications Inc,30.2672,-97.7431,Spectrum,TX,Texas,success,America/Chicago,78713,,AS11427,NA
138.197.244.227,,Toronto,Canada,CA,DigitalOcean,43.6644,-79.4195,"DigitalOcean, LLC",ON,Ontario,success,America/Toronto,M6G,,,NA
2400:8800:1f11:27::1,"AS3491 PCCW Global, Inc.",Quarry Bay,Hong Kong,HK,"PCCW Global, Inc.",22.2872,114.212,PCCW-HKT Network Services Ltd,HEA,Eastern,success,Asia/Hong_Kong,96521,,AS3491,AS
62.115.125.129,AS1299,Ashburn,United States,US,Telia Company AB,39.0438,-77.4874,Telia Company AB,VA,Virginia,success,America/New_York,20149,,AS1299,NA
2001:470:0:35a::2,AS6939 Hurricane Electric LLC,San Jose,United States,US,Hurricane Electric LLC,37.2414,-121.783,Hurricane Electric,CA,California,success,America/Los_Angeles,95119,,AS6939,NA
